{
  "type": "FeatureCollection",
  "properties": {
    "stt": 13,
    "route_no": "62-5",
    "display_code": "B 62-5",
    "route_name": "Bến xe An Sương - Bến xe Hậu Nghĩa",
    "start_point": "Bến xe An Sương",
    "end_point": "Bến xe Hậu Nghĩa",
    "listed_length_km": 31,
    "operating_hours": "4:00 - 19:30",
    "color": "#FDD835",
    "num_variants": 2,
    "total_stops": 52,
    "total_points": 666
  },
  "features": [
    {
      "type": "Feature",
      "geometry": {
        "type": "LineString",
        "coordinates": [
          [
            106.6133728,
            10.8437376
          ],
          [
            106.61407471,
            10.84440231
          ],
          [
            106.61444092,
            10.84387493
          ],
          [
            106.61480713,
            10.8433485
          ],
          [
            106.61507416,
            10.84273148
          ],
          [
            106.61525726,
            10.84234715
          ],
          [
            106.61556244,
            10.84234715
          ],
          [
            106.61566925,
            10.84260559
          ],
          [
            106.61547852,
            10.84297371
          ],
          [
            106.61494446,
            10.8434906
          ],
          [
            106.61457825,
            10.84401226
          ],
          [
            106.61421204,
            10.84453392
          ],
          [
            106.61393738,
            10.8449688
          ],
          [
            106.61365509,
            10.84540272
          ],
          [
            106.61339569,
            10.84583473
          ],
          [
            106.61314392,
            10.84626675
          ],
          [
            106.61319733,
            10.84629345
          ],
          [
            106.61319733,
            10.84629345
          ],
          [
            106.61319733,
            10.84629345
          ],
          [
            106.61314392,
            10.84625626
          ],
          [
            106.61218262,
            10.84778976
          ],
          [
            106.61121368,
            10.84932804
          ],
          [
            106.61127472,
            10.84936047
          ],
          [
            106.61127472,
            10.84936047
          ],
          [
            106.61127472,
            10.84936047
          ],
          [
            106.61127472,
            10.84936047
          ],
          [
            106.61127472,
            10.84936047
          ],
          [
            106.61118317,
            10.84931755
          ],
          [
            106.61030579,
            10.85063457
          ],
          [
            106.60943604,
            10.8519516
          ],
          [
            106.6085968,
            10.85328484
          ],
          [
            106.60775757,
            10.85461712
          ],
          [
            106.60786438,
            10.85466003
          ],
          [
            106.60786438,
            10.85466003
          ],
          [
            106.60786438,
            10.85466003
          ],
          [
            106.60786438,
            10.85466003
          ],
          [
            106.60786438,
            10.85466003
          ],
          [
            106.60786438,
            10.85466003
          ],
          [
            106.60786438,
            10.85466003
          ],
          [
            106.60777283,
            10.85460186
          ],
          [
            106.60756683,
            10.85491085
          ],
          [
            106.60736084,
            10.85522079
          ],
          [
            106.60715485,
            10.85553074
          ],
          [
            106.60695648,
            10.85583973
          ],
          [
            106.60675049,
            10.85614967
          ],
          [
            106.60654449,
            10.85645866
          ],
          [
            106.6063385,
            10.85676861
          ],
          [
            106.60613251,
            10.8570776
          ],
          [
            106.60620117,
            10.85711479
          ],
          [
            106.60620117,
            10.85711479
          ],
          [
            106.60620117,
            10.85711479
          ],
          [
            106.60620117,
            10.85711479
          ],
          [
            106.60620117,
            10.85711479
          ],
          [
            106.60620117,
            10.85711479
          ],
          [
            106.60612488,
            10.85706234
          ],
          [
            106.60565186,
            10.85773945
          ],
          [
            106.6051712,
            10.85841656
          ],
          [
            106.60469818,
            10.85909271
          ],
          [
            106.60421753,
            10.85976982
          ],
          [
            106.60430908,
            10.85982323
          ],
          [
            106.60430908,
            10.85982323
          ],
          [
            106.60430908,
            10.85982323
          ],
          [
            106.60430908,
            10.85982323
          ],
          [
            106.60430908,
            10.85982323
          ],
          [
            106.6042099,
            10.85976505
          ],
          [
            106.60401154,
            10.86004162
          ],
          [
            106.60381317,
            10.86031914
          ],
          [
            106.60362244,
            10.86059666
          ],
          [
            106.60342407,
            10.86087418
          ],
          [
            106.60322571,
            10.86115074
          ],
          [
            106.60302734,
            10.86142826
          ],
          [
            106.60283661,
            10.86170578
          ],
          [
            106.60263824,
            10.86198235
          ],
          [
            106.60269928,
            10.86201382
          ],
          [
            106.60269928,
            10.86201382
          ],
          [
            106.60269928,
            10.86201382
          ],
          [
            106.60263824,
            10.86197758
          ],
          [
            106.60173798,
            10.86324978
          ],
          [
            106.60083771,
            10.86452198
          ],
          [
            106.60092163,
            10.86456871
          ],
          [
            106.60092163,
            10.86456871
          ],
          [
            106.60083771,
            10.86452198
          ],
          [
            106.60004425,
            10.86564445
          ],
          [
            106.59926605,
            10.86674023
          ],
          [
            106.59934998,
            10.86678219
          ],
          [
            106.59934998,
            10.86678219
          ],
          [
            106.59934998,
            10.86678219
          ],
          [
            106.59934998,
            10.86678219
          ],
          [
            106.59927368,
            10.86674023
          ],
          [
            106.59898376,
            10.86714935
          ],
          [
            106.59870148,
            10.86755753
          ],
          [
            106.59841156,
            10.86796665
          ],
          [
            106.59812927,
            10.86837578
          ],
          [
            106.59783936,
            10.8687849
          ],
          [
            106.59754944,
            10.86919403
          ],
          [
            106.59726715,
            10.8696022
          ],
          [
            106.59697723,
            10.87001133
          ],
          [
            106.59707642,
            10.87007523
          ],
          [
            106.59707642,
            10.87007523
          ],
          [
            106.59707642,
            10.87007523
          ],
          [
            106.59707642,
            10.87007523
          ],
          [
            106.59700775,
            10.8700428
          ],
          [
            106.59672546,
            10.87043858
          ],
          [
            106.59693909,
            10.87090969
          ],
          [
            106.59715271,
            10.87138081
          ],
          [
            106.5973587,
            10.87185287
          ],
          [
            106.59757233,
            10.87232399
          ],
          [
            106.59777832,
            10.87283516
          ],
          [
            106.59797668,
            10.87334633
          ],
          [
            106.59816742,
            10.8738575
          ],
          [
            106.59835815,
            10.87436867
          ],
          [
            106.59854889,
            10.87487698
          ],
          [
            106.59873199,
            10.87538528
          ],
          [
            106.59892273,
            10.87589359
          ],
          [
            106.59911346,
            10.8764019
          ],
          [
            106.59929657,
            10.87694931
          ],
          [
            106.59937286,
            10.87751293
          ],
          [
            106.59937286,
            10.87815094
          ],
          [
            106.5993576,
            10.87878799
          ],
          [
            106.5993576,
            10.87941551
          ],
          [
            106.5993576,
            10.88004208
          ],
          [
            106.5993576,
            10.88067913
          ],
          [
            106.59919739,
            10.88126945
          ],
          [
            106.5989151,
            10.88187027
          ],
          [
            106.59863281,
            10.88247013
          ],
          [
            106.59843445,
            10.88294506
          ],
          [
            106.598526,
            10.88376141
          ],
          [
            106.59861755,
            10.88445663
          ],
          [
            106.59851074,
            10.88515759
          ],
          [
            106.59841156,
            10.88585472
          ],
          [
            106.59830475,
            10.88655281
          ],
          [
            106.59817505,
            10.8874464
          ],
          [
            106.59805298,
            10.88833904
          ],
          [
            106.59712219,
            10.88838387
          ],
          [
            106.59619904,
            10.88842869
          ],
          [
            106.59570313,
            10.88847828
          ],
          [
            106.59521484,
            10.88852882
          ],
          [
            106.59494781,
            10.88862896
          ],
          [
            106.59479523,
            10.88848114
          ],
          [
            106.59436798,
            10.88833332
          ],
          [
            106.59436798,
            10.88833332
          ],
          [
            106.59351349,
            10.88802528
          ],
          [
            106.59266663,
            10.88771725
          ],
          [
            106.59176636,
            10.88743401
          ],
          [
            106.59086609,
            10.88714981
          ],
          [
            106.59086609,
            10.88714981
          ],
          [
            106.59086609,
            10.88714981
          ],
          [
            106.59086609,
            10.88714981
          ],
          [
            106.59086609,
            10.88714981
          ],
          [
            106.58932495,
            10.88658428
          ],
          [
            106.58894348,
            10.88643742
          ],
          [
            106.58866882,
            10.88613701
          ],
          [
            106.58760071,
            10.88470936
          ],
          [
            106.58757019,
            10.8847332
          ],
          [
            106.58757019,
            10.8847332
          ],
          [
            106.58757019,
            10.8847332
          ],
          [
            106.58757019,
            10.8847332
          ],
          [
            106.58757019,
            10.8847332
          ],
          [
            106.58757019,
            10.8847332
          ],
          [
            106.58757019,
            10.8847332
          ],
          [
            106.58757019,
            10.8847332
          ],
          [
            106.58760834,
            10.88469887
          ],
          [
            106.58713531,
            10.88405132
          ],
          [
            106.58690643,
            10.8838768
          ],
          [
            106.58605957,
            10.88344479
          ],
          [
            106.58601379,
            10.88349247
          ],
          [
            106.58601379,
            10.88349247
          ],
          [
            106.58601379,
            10.88349247
          ],
          [
            106.58601379,
            10.88349247
          ],
          [
            106.58601379,
            10.88349247
          ],
          [
            106.58601379,
            10.88349247
          ],
          [
            106.58600616,
            10.88342381
          ],
          [
            106.58570862,
            10.88335037
          ],
          [
            106.58511353,
            10.88332939
          ],
          [
            106.5845108,
            10.88325024
          ],
          [
            106.58413696,
            10.8830452
          ],
          [
            106.58390808,
            10.88281822
          ],
          [
            106.58349609,
            10.88213825
          ],
          [
            106.58344269,
            10.88216496
          ],
          [
            106.58344269,
            10.88216496
          ],
          [
            106.58344269,
            10.88216496
          ],
          [
            106.58344269,
            10.88216496
          ],
          [
            106.58344269,
            10.88216496
          ],
          [
            106.58344269,
            10.88216496
          ],
          [
            106.58348083,
            10.88212776
          ],
          [
            106.58290863,
            10.88114834
          ],
          [
            106.58233643,
            10.88016796
          ],
          [
            106.58167267,
            10.87943649
          ],
          [
            106.58164978,
            10.8794632
          ],
          [
            106.58164978,
            10.8794632
          ],
          [
            106.58164978,
            10.8794632
          ],
          [
            106.58164978,
            10.8794632
          ],
          [
            106.58164978,
            10.8794632
          ],
          [
            106.58164978,
            10.8794632
          ],
          [
            106.58100128,
            10.87888336
          ],
          [
            106.58036041,
            10.87830353
          ],
          [
            106.5798645,
            10.87780094
          ],
          [
            106.57927704,
            10.87730217
          ],
          [
            106.5787735,
            10.87695503
          ],
          [
            106.57807922,
            10.87655735
          ],
          [
            106.57748413,
            10.87618446
          ],
          [
            106.57688904,
            10.87581158
          ],
          [
            106.57627869,
            10.87544727
          ],
          [
            106.57567596,
            10.87508202
          ],
          [
            106.57507324,
            10.87471771
          ],
          [
            106.57446289,
            10.87435246
          ],
          [
            106.57443237,
            10.87439537
          ],
          [
            106.57443237,
            10.87439537
          ],
          [
            106.57443237,
            10.87439537
          ],
          [
            106.57443237,
            10.87439537
          ],
          [
            106.57443237,
            10.87439537
          ],
          [
            106.57443237,
            10.87439537
          ],
          [
            106.57445526,
            10.87436295
          ],
          [
            106.57388306,
            10.87406158
          ],
          [
            106.57331085,
            10.87376022
          ],
          [
            106.57273865,
            10.87345791
          ],
          [
            106.57216644,
            10.87315655
          ],
          [
            106.57136536,
            10.87280369
          ],
          [
            106.57079315,
            10.87267971
          ],
          [
            106.57021332,
            10.87255573
          ],
          [
            106.57021332,
            10.87255573
          ],
          [
            106.57021332,
            10.87255573
          ],
          [
            106.57021332,
            10.87255573
          ],
          [
            106.57021332,
            10.87255573
          ],
          [
            106.56924438,
            10.8723259
          ],
          [
            106.56827545,
            10.87209511
          ],
          [
            106.56730652,
            10.87186623
          ],
          [
            106.56633759,
            10.87163448
          ],
          [
            106.56491852,
            10.87107086
          ],
          [
            106.56489563,
            10.87111282
          ],
          [
            106.56489563,
            10.87111282
          ],
          [
            106.56489563,
            10.87111282
          ],
          [
            106.56489563,
            10.87111282
          ],
          [
            106.56491852,
            10.87105465
          ],
          [
            106.56428528,
            10.87079906
          ],
          [
            106.56365967,
            10.87054348
          ],
          [
            106.56303406,
            10.8702879
          ],
          [
            106.56240845,
            10.87003231
          ],
          [
            106.56177521,
            10.86977673
          ],
          [
            106.5611496,
            10.86952209
          ],
          [
            106.56051636,
            10.86926651
          ],
          [
            106.55989075,
            10.86901093
          ],
          [
            106.55987549,
            10.86904716
          ],
          [
            106.55987549,
            10.86904716
          ],
          [
            106.55987549,
            10.86904716
          ],
          [
            106.55989838,
            10.86902142
          ],
          [
            106.5589447,
            10.86863899
          ],
          [
            106.5579834,
            10.86825752
          ],
          [
            106.5561676,
            10.86855125
          ],
          [
            106.55435944,
            10.86884499
          ],
          [
            106.55255127,
            10.86913872
          ],
          [
            106.55073547,
            10.86943245
          ],
          [
            106.55075073,
            10.86947918
          ],
          [
            106.55075073,
            10.86947918
          ],
          [
            106.55075073,
            10.86947918
          ],
          [
            106.55075073,
            10.86947918
          ],
          [
            106.55075073,
            10.86947918
          ],
          [
            106.55073547,
            10.86944294
          ],
          [
            106.55024719,
            10.86950588
          ],
          [
            106.54975891,
            10.86956978
          ],
          [
            106.54927063,
            10.86963272
          ],
          [
            106.54878235,
            10.86969566
          ],
          [
            106.54827118,
            10.86976147
          ],
          [
            106.54776001,
            10.86982727
          ],
          [
            106.54724884,
            10.86989307
          ],
          [
            106.54673767,
            10.86995888
          ],
          [
            106.54673004,
            10.87000561
          ],
          [
            106.54673004,
            10.87000561
          ],
          [
            106.54673004,
            10.87000561
          ],
          [
            106.54673004,
            10.87000561
          ],
          [
            106.54673004,
            10.87000561
          ],
          [
            106.54673004,
            10.87000561
          ],
          [
            106.54673004,
            10.87000561
          ],
          [
            106.54673004,
            10.87000561
          ],
          [
            106.54673004,
            10.86996937
          ],
          [
            106.5460968,
            10.87005615
          ],
          [
            106.54546356,
            10.87014389
          ],
          [
            106.54483795,
            10.87023067
          ],
          [
            106.54420471,
            10.87031746
          ],
          [
            106.54357147,
            10.87040424
          ],
          [
            106.5429306,
            10.87049103
          ],
          [
            106.54229736,
            10.87057495
          ],
          [
            106.54166412,
            10.87065983
          ],
          [
            106.54167938,
            10.87070179
          ],
          [
            106.54167938,
            10.87070179
          ],
          [
            106.54167938,
            10.87070179
          ],
          [
            106.54167938,
            10.87070179
          ],
          [
            106.54167938,
            10.87070179
          ],
          [
            106.54167938,
            10.87070179
          ],
          [
            106.54167938,
            10.87070179
          ],
          [
            106.54167938,
            10.87070179
          ],
          [
            106.54167938,
            10.87065411
          ],
          [
            106.54089355,
            10.87077522
          ],
          [
            106.54011536,
            10.87089634
          ],
          [
            106.53934479,
            10.87103081
          ],
          [
            106.53857422,
            10.87116528
          ],
          [
            106.53857422,
            10.87122345
          ],
          [
            106.53857422,
            10.87122345
          ],
          [
            106.53857422,
            10.87122345
          ],
          [
            106.53857422,
            10.87122345
          ],
          [
            106.53857422,
            10.87122345
          ],
          [
            106.53857422,
            10.87122345
          ],
          [
            106.53855896,
            10.871171
          ],
          [
            106.5370636,
            10.87146091
          ],
          [
            106.53556061,
            10.87174988
          ],
          [
            106.53556061,
            10.87184525
          ],
          [
            106.53556061,
            10.87184525
          ],
          [
            106.53556061,
            10.87184525
          ],
          [
            106.53555298,
            10.87174988
          ],
          [
            106.53330994,
            10.87219238
          ],
          [
            106.53108978,
            10.87263012
          ],
          [
            106.53109741,
            10.87271404
          ],
          [
            106.53109741,
            10.87271404
          ],
          [
            106.53109741,
            10.87271404
          ],
          [
            106.53108978,
            10.87263489
          ],
          [
            106.52965546,
            10.87291431
          ],
          [
            106.5282135,
            10.87319374
          ],
          [
            106.52677155,
            10.87347317
          ],
          [
            106.52532959,
            10.87375164
          ],
          [
            106.51956177,
            10.87484264
          ],
          [
            106.50808716,
            10.87723446
          ],
          [
            106.50727081,
            10.87713909
          ],
          [
            106.50656891,
            10.87686539
          ],
          [
            106.50528717,
            10.8769598
          ],
          [
            106.50474548,
            10.87700748
          ],
          [
            106.50416565,
            10.87708092
          ],
          [
            106.5032196,
            10.87721348
          ],
          [
            106.49986267,
            10.87776661
          ],
          [
            106.4989624,
            10.87790871
          ],
          [
            106.49684143,
            10.8779192
          ],
          [
            106.49520874,
            10.87792969
          ],
          [
            106.49365234,
            10.87800312
          ],
          [
            106.49339294,
            10.87796116
          ],
          [
            106.49243927,
            10.87766647
          ],
          [
            106.48822021,
            10.87878799
          ],
          [
            106.48673248,
            10.87883568
          ],
          [
            106.48464203,
            10.87897301
          ],
          [
            106.48152161,
            10.87927818
          ],
          [
            106.47977448,
            10.87952042
          ],
          [
            106.47799683,
            10.87983608
          ],
          [
            106.47600555,
            10.88036346
          ],
          [
            106.47486877,
            10.88059998
          ],
          [
            106.47380066,
            10.88081074
          ],
          [
            106.47340393,
            10.8810215
          ],
          [
            106.47298431,
            10.88139057
          ],
          [
            106.47239685,
            10.88182735
          ],
          [
            106.4720993,
            10.88195992
          ],
          [
            106.47171783,
            10.88201714
          ],
          [
            106.47042847,
            10.88207054
          ],
          [
            106.46916199,
            10.88218594
          ],
          [
            106.46881104,
            10.88220692
          ],
          [
            106.46803284,
            10.88230228
          ],
          [
            106.46702576,
            10.88261795
          ],
          [
            106.45825195,
            10.88564205
          ],
          [
            106.45481873,
            10.88655853
          ],
          [
            106.45233154,
            10.88766956
          ],
          [
            106.45201111,
            10.88783836
          ],
          [
            106.44104004,
            10.8926897
          ],
          [
            106.43951416,
            10.89336491
          ],
          [
            106.43802643,
            10.8939333
          ],
          [
            106.43725586,
            10.89409161
          ],
          [
            106.43642426,
            10.89414978
          ],
          [
            106.43584442,
            10.89411736
          ],
          [
            106.43495941,
            10.89388561
          ],
          [
            106.43341827,
            10.89331722
          ],
          [
            106.43122864,
            10.89250088
          ],
          [
            106.425354,
            10.89728355
          ],
          [
            106.41969299,
            10.90191936
          ],
          [
            106.41876221,
            10.90226173
          ],
          [
            106.41860962,
            10.90241432
          ],
          [
            106.41771698,
            10.90166092
          ],
          [
            106.41710663,
            10.90122414
          ],
          [
            106.41648865,
            10.90100765
          ],
          [
            106.41578674,
            10.90083885
          ],
          [
            106.41447449,
            10.90048599
          ],
          [
            106.40462494,
            10.89776802
          ],
          [
            106.39291382,
            10.89443398
          ],
          [
            106.39186859,
            10.89680958
          ],
          [
            106.39016724,
            10.90100765
          ],
          [
            106.39097595,
            10.90124512
          ],
          [
            106.39200592,
            10.90113449
          ],
          [
            106.39251709,
            10.90110302
          ],
          [
            106.39299011,
            10.90112877
          ],
          [
            106.39303589,
            10.9009819
          ],
          [
            106.39303589,
            10.9009819
          ]
        ]
      },
      "properties": {
        "feature_type": "route_path",
        "stt": 13,
        "route_id": 97,
        "route_no": "62-5",
        "display_code": "B 62-5",
        "route_name": "Bến xe An Sương - Bến xe Hậu Nghĩa",
        "direction": "Lượt đi",
        "outbound": true,
        "start_point": "Bến xe An Sương",
        "end_point": "Bến xe Hậu Nghĩa",
        "start_stop": "Bến xe An Sương",
        "end_stop": "Bến xe Hậu Nghĩa",
        "distance_km": 31.89,
        "listed_length_km": 31,
        "running_time_min": 70,
        "operating_hours": "4:00 - 19:30",
        "stroke": "#FDD835",
        "stroke_width": 4,
        "stroke_opacity": 0.85
      }
    },
    {
      "type": "Feature",
      "geometry": {
        "type": "LineString",
        "coordinates": [
          [
            106.39303589,
            10.9009819
          ],
          [
            106.39303589,
            10.90105534
          ],
          [
            106.39306641,
            10.90120792
          ],
          [
            106.39254761,
            10.90116024
          ],
          [
            106.39160919,
            10.90123463
          ],
          [
            106.39100647,
            10.90129757
          ],
          [
            106.39080048,
            10.90128136
          ],
          [
            106.39003754,
            10.90102386
          ],
          [
            106.39143372,
            10.89756775
          ],
          [
            106.39287567,
            10.89431763
          ],
          [
            106.41433716,
            10.90027523
          ],
          [
            106.41493988,
            10.90049171
          ],
          [
            106.41696167,
            10.90104485
          ],
          [
            106.41764069,
            10.90145016
          ],
          [
            106.41860962,
            10.90231991
          ],
          [
            106.41871643,
            10.90219307
          ],
          [
            106.419487,
            10.90193462
          ],
          [
            106.41999817,
            10.90162945
          ],
          [
            106.42095947,
            10.90078163
          ],
          [
            106.42240143,
            10.89958572
          ],
          [
            106.42389679,
            10.8984108
          ],
          [
            106.42752838,
            10.89547157
          ],
          [
            106.42935944,
            10.89396477
          ],
          [
            106.43038177,
            10.89312172
          ],
          [
            106.43123627,
            10.89240074
          ],
          [
            106.43218994,
            10.89279556
          ],
          [
            106.435112,
            10.89388084
          ],
          [
            106.43583679,
            10.89403915
          ],
          [
            106.43643188,
            10.89408588
          ],
          [
            106.43721771,
            10.89400673
          ],
          [
            106.43792725,
            10.89386463
          ],
          [
            106.43907166,
            10.89345932
          ],
          [
            106.44021606,
            10.89299583
          ],
          [
            106.44152069,
            10.892416
          ],
          [
            106.44281769,
            10.89184189
          ],
          [
            106.44515991,
            10.89078331
          ],
          [
            106.4509964,
            10.88820171
          ],
          [
            106.45464325,
            10.8865633
          ],
          [
            106.4552002,
            10.88637447
          ],
          [
            106.45590973,
            10.88617897
          ],
          [
            106.45822144,
            10.88556767
          ],
          [
            106.46134186,
            10.88453007
          ],
          [
            106.46304321,
            10.8839407
          ],
          [
            106.46466827,
            10.88337135
          ],
          [
            106.4679718,
            10.8822813
          ],
          [
            106.4686203,
            10.88214397
          ],
          [
            106.47028351,
            10.88199139
          ],
          [
            106.47169495,
            10.8819437
          ],
          [
            106.47203827,
            10.88189125
          ],
          [
            106.47223663,
            10.8818388
          ],
          [
            106.47248077,
            10.88165951
          ],
          [
            106.47332764,
            10.88098526
          ],
          [
            106.47359467,
            10.88084793
          ],
          [
            106.47384644,
            10.88074303
          ],
          [
            106.47567749,
            10.88035774
          ],
          [
            106.47802734,
            10.87974739
          ],
          [
            106.47977448,
            10.87945747
          ],
          [
            106.48092651,
            10.87927818
          ],
          [
            106.48149109,
            10.87919903
          ],
          [
            106.48212433,
            10.87914085
          ],
          [
            106.48414612,
            10.87895679
          ],
          [
            106.4851532,
            10.87886238
          ],
          [
            106.48616791,
            10.87879848
          ],
          [
            106.48710632,
            10.87872982
          ],
          [
            106.48820496,
            10.87870884
          ],
          [
            106.48991394,
            10.87826157
          ],
          [
            106.49230957,
            10.87759781
          ],
          [
            106.49253845,
            10.87761879
          ],
          [
            106.49333954,
            10.87786674
          ],
          [
            106.49369812,
            10.87791348
          ],
          [
            106.49536133,
            10.87784481
          ],
          [
            106.49710083,
            10.87786102
          ],
          [
            106.49861908,
            10.8778553
          ],
          [
            106.49903107,
            10.87782383
          ],
          [
            106.50180054,
            10.87737656
          ],
          [
            106.50330353,
            10.87712383
          ],
          [
            106.50411987,
            10.8769865
          ],
          [
            106.50456238,
            10.87694931
          ],
          [
            106.50486755,
            10.87690258
          ],
          [
            106.50537109,
            10.87612247
          ],
          [
            106.50662231,
            10.87682343
          ],
          [
            106.50724792,
            10.87705994
          ],
          [
            106.50772858,
            10.87710762
          ],
          [
            106.50823212,
            10.87710285
          ],
          [
            106.51067352,
            10.87659168
          ],
          [
            106.5125885,
            10.87618065
          ],
          [
            106.51487732,
            10.87573814
          ],
          [
            106.53058624,
            10.87267208
          ],
          [
            106.53059387,
            10.87261868
          ],
          [
            106.53059387,
            10.87261868
          ],
          [
            106.53817749,
            10.87117577
          ],
          [
            106.53817749,
            10.87117577
          ],
          [
            106.53817749,
            10.87117577
          ],
          [
            106.5382309,
            10.87121296
          ],
          [
            106.53984833,
            10.87089634
          ],
          [
            106.541008,
            10.87070179
          ],
          [
            106.54203796,
            10.87058067
          ],
          [
            106.54210663,
            10.87050056
          ],
          [
            106.54210663,
            10.87050056
          ],
          [
            106.54210663,
            10.87050056
          ],
          [
            106.54210663,
            10.87050056
          ],
          [
            106.54220581,
            10.8705492
          ],
          [
            106.54415131,
            10.87028503
          ],
          [
            106.54610443,
            10.87001705
          ],
          [
            106.54620361,
            10.86991119
          ],
          [
            106.54620361,
            10.86991119
          ],
          [
            106.54620361,
            10.86991119
          ],
          [
            106.54627991,
            10.87001705
          ],
          [
            106.55090332,
            10.86937428
          ],
          [
            106.55101013,
            10.86919498
          ],
          [
            106.5511322,
            10.86925793
          ],
          [
            106.55789948,
            10.86817265
          ],
          [
            106.55924225,
            10.86864662
          ],
          [
            106.55924225,
            10.86864662
          ],
          [
            106.56459045,
            10.87084389
          ],
          [
            106.56459045,
            10.87084389
          ],
          [
            106.56622314,
            10.87152386
          ],
          [
            106.56977081,
            10.87231922
          ],
          [
            106.56977081,
            10.87231922
          ],
          [
            106.57155609,
            10.8727932
          ],
          [
            106.57405853,
            10.8740263
          ],
          [
            106.57405853,
            10.8740263
          ],
          [
            106.57935333,
            10.87720299
          ],
          [
            106.58126831,
            10.87892532
          ],
          [
            106.58126831,
            10.87892532
          ],
          [
            106.58240509,
            10.88003635
          ],
          [
            106.58312988,
            10.88131714
          ],
          [
            106.58312988,
            10.88131714
          ],
          [
            106.58367157,
            10.88230705
          ],
          [
            106.58398438,
            10.88282394
          ],
          [
            106.58421326,
            10.88303375
          ],
          [
            106.58450317,
            10.88318729
          ],
          [
            106.58479309,
            10.88323402
          ],
          [
            106.58576202,
            10.88328743
          ],
          [
            106.58641815,
            10.88350773
          ],
          [
            106.58641815,
            10.88350773
          ],
          [
            106.5864563,
            10.88358688
          ],
          [
            106.58709717,
            10.8839035
          ],
          [
            106.58737946,
            10.88438797
          ],
          [
            106.58773041,
            10.88480949
          ],
          [
            106.58779907,
            10.88479424
          ],
          [
            106.58779907,
            10.88479424
          ],
          [
            106.58779907,
            10.88479424
          ],
          [
            106.58779907,
            10.88479424
          ],
          [
            106.5877533,
            10.88487816
          ],
          [
            106.58839417,
            10.88566303
          ],
          [
            106.58904266,
            10.88644791
          ],
          [
            106.58982086,
            10.88671684
          ],
          [
            106.59059143,
            10.88698483
          ],
          [
            106.59069061,
            10.8869381
          ],
          [
            106.59069061,
            10.8869381
          ],
          [
            106.59069061,
            10.8869381
          ],
          [
            106.59069061,
            10.8869381
          ],
          [
            106.59069824,
            10.88702202
          ],
          [
            106.59220886,
            10.88753891
          ],
          [
            106.59371948,
            10.88805485
          ],
          [
            106.59381104,
            10.88800716
          ],
          [
            106.59381104,
            10.88800716
          ],
          [
            106.59381104,
            10.88800716
          ],
          [
            106.59378815,
            10.88809109
          ],
          [
            106.59443665,
            10.88830757
          ],
          [
            106.59482574,
            10.88847065
          ],
          [
            106.59507751,
            10.88850212
          ],
          [
            106.59593201,
            10.888381
          ],
          [
            106.59696198,
            10.88832855
          ],
          [
            106.59801483,
            10.88828659
          ],
          [
            106.59810638,
            10.88754845
          ],
          [
            106.5982132,
            10.88657951
          ],
          [
            106.59838867,
            10.88560009
          ],
          [
            106.59851074,
            10.88464642
          ],
          [
            106.59854126,
            10.88414574
          ],
          [
            106.59846497,
            10.88365078
          ],
          [
            106.59835815,
            10.88293457
          ],
          [
            106.59861755,
            10.88230705
          ],
          [
            106.5989151,
            10.88168526
          ],
          [
            106.59921265,
            10.88106918
          ],
          [
            106.59931946,
            10.88049507
          ],
          [
            106.59928131,
            10.87985229
          ],
          [
            106.59929657,
            10.87923336
          ],
          [
            106.5993042,
            10.87861443
          ],
          [
            106.59928894,
            10.87806892
          ],
          [
            106.59927368,
            10.87752342
          ],
          [
            106.59921265,
            10.87699223
          ],
          [
            106.59903717,
            10.87644386
          ],
          [
            106.59884644,
            10.87590694
          ],
          [
            106.5986557,
            10.87537479
          ],
          [
            106.59846497,
            10.87484264
          ],
          [
            106.5982666,
            10.87430477
          ],
          [
            106.59806061,
            10.87376213
          ],
          [
            106.59784698,
            10.87321949
          ],
          [
            106.59767914,
            10.87267685
          ],
          [
            106.597435,
            10.87213421
          ],
          [
            106.597229,
            10.8716526
          ],
          [
            106.59702301,
            10.871171
          ],
          [
            106.59680176,
            10.87071705
          ],
          [
            106.59658051,
            10.87026978
          ],
          [
            106.59675598,
            10.86995411
          ],
          [
            106.59675598,
            10.86995411
          ],
          [
            106.59675598,
            10.86995411
          ],
          [
            106.59675598,
            10.86995411
          ],
          [
            106.59681702,
            10.86996937
          ],
          [
            106.59735107,
            10.8692131
          ],
          [
            106.59788513,
            10.86845779
          ],
          [
            106.59841919,
            10.86770153
          ],
          [
            106.59895325,
            10.86694527
          ],
          [
            106.59890747,
            10.86691856
          ],
          [
            106.59890747,
            10.86691856
          ],
          [
            106.59890747,
            10.86691856
          ],
          [
            106.59890747,
            10.86691856
          ],
          [
            106.59890747,
            10.86691856
          ],
          [
            106.59890747,
            10.86691856
          ],
          [
            106.59896088,
            10.86695576
          ],
          [
            106.59973907,
            10.86587048
          ],
          [
            106.60050964,
            10.86478519
          ],
          [
            106.60128021,
            10.86367893
          ],
          [
            106.60205078,
            10.86257267
          ],
          [
            106.60197449,
            10.86254597
          ],
          [
            106.60197449,
            10.86254597
          ],
          [
            106.60197449,
            10.86254597
          ],
          [
            106.60197449,
            10.86254597
          ],
          [
            106.60197449,
            10.86254597
          ],
          [
            106.60197449,
            10.86254597
          ],
          [
            106.60205841,
            10.86258888
          ],
          [
            106.60270691,
            10.861619
          ],
          [
            106.60340118,
            10.86066532
          ],
          [
            106.60332489,
            10.86060238
          ],
          [
            106.60332489,
            10.86060238
          ],
          [
            106.60332489,
            10.86060238
          ],
          [
            106.60332489,
            10.86060238
          ],
          [
            106.60332489,
            10.86060238
          ],
          [
            106.60340118,
            10.86065006
          ],
          [
            106.60375977,
            10.86015224
          ],
          [
            106.60412598,
            10.85965443
          ],
          [
            106.60448456,
            10.85915852
          ],
          [
            106.60485077,
            10.85866356
          ],
          [
            106.60520935,
            10.85817146
          ],
          [
            106.60557556,
            10.85767841
          ],
          [
            106.60590363,
            10.85718346
          ],
          [
            106.60623932,
            10.8566885
          ],
          [
            106.60617828,
            10.85661983
          ],
          [
            106.60617828,
            10.85661983
          ],
          [
            106.60617828,
            10.85661983
          ],
          [
            106.60617828,
            10.85661983
          ],
          [
            106.60617828,
            10.85661983
          ],
          [
            106.60627747,
            10.8566618
          ],
          [
            106.60676575,
            10.85591221
          ],
          [
            106.60726166,
            10.85516262
          ],
          [
            106.60774994,
            10.85441399
          ],
          [
            106.60823822,
            10.85364246
          ],
          [
            106.6081543,
            10.85359478
          ],
          [
            106.6081543,
            10.85359478
          ],
          [
            106.6081543,
            10.85359478
          ],
          [
            106.6081543,
            10.85359478
          ],
          [
            106.6081543,
            10.85359478
          ],
          [
            106.6081543,
            10.85359478
          ],
          [
            106.60823059,
            10.8536272
          ],
          [
            106.60881805,
            10.85268116
          ],
          [
            106.60940552,
            10.85173607
          ],
          [
            106.61006165,
            10.8507452
          ],
          [
            106.61070251,
            10.84973907
          ],
          [
            106.61064148,
            10.84971333
          ],
          [
            106.61064148,
            10.84971333
          ],
          [
            106.61064148,
            10.84971333
          ],
          [
            106.61064148,
            10.84971333
          ],
          [
            106.61064148,
            10.84971333
          ],
          [
            106.61064148,
            10.84971333
          ],
          [
            106.61070251,
            10.84973907
          ],
          [
            106.61142731,
            10.84860897
          ],
          [
            106.6121521,
            10.84747887
          ],
          [
            106.61287689,
            10.84635639
          ],
          [
            106.6135788,
            10.84521294
          ],
          [
            106.61352539,
            10.84518719
          ],
          [
            106.61352539,
            10.84518719
          ],
          [
            106.61352539,
            10.84518719
          ],
          [
            106.61352539,
            10.84518719
          ],
          [
            106.61352539,
            10.84518719
          ],
          [
            106.61352539,
            10.84518719
          ],
          [
            106.61358643,
            10.84522343
          ],
          [
            106.61406708,
            10.84443855
          ],
          [
            106.61330414,
            10.84384346
          ],
          [
            106.6133728,
            10.8437376
          ]
        ]
      },
      "properties": {
        "feature_type": "route_path",
        "stt": 13,
        "route_id": 97,
        "route_no": "62-5",
        "display_code": "B 62-5",
        "route_name": "Bến xe An Sương - Bến xe Hậu Nghĩa",
        "direction": "Lượt về",
        "outbound": false,
        "start_point": "Bến xe An Sương",
        "end_point": "Bến xe Hậu Nghĩa",
        "start_stop": "Bến xe Hậu Nghĩa",
        "end_stop": "Bến xe An Sương",
        "distance_km": 31.28,
        "listed_length_km": 31,
        "running_time_min": 70,
        "operating_hours": "4:00 - 19:30",
        "stroke": "#FDD835",
        "stroke_width": 4,
        "stroke_opacity": 0.85
      }
    },
    {
      "type": "Feature",
      "geometry": {
        "type": "Point",
        "coordinates": [
          106.61337280273438,
          10.843737602233887
        ]
      },
      "properties": {
        "feature_type": "bus_stop",
        "stop_id": 166,
        "stop_code": "BX41",
        "stop_name": "Bến xe An Sương",
        "stop_type": "Bến xe",
        "route_no": "62-5",
        "display_code": "B 62-5",
        "direction": "Lượt đi",
        "address": "Bến xe An Sương Quốc lộ 22",
        "street": "Quốc lộ 22",
        "zone": "Quận 12",
        "ward": null,
        "all_routes": "04, 104, 122, 151, 27, 33, 41, 61-3, 62-5, 65, 71, 74, 85",
        "marker_color": "#FDD835"
      }
    },
    {
      "type": "Feature",
      "geometry": {
        "type": "Point",
        "coordinates": [
          106.6132,
          10.846293
        ]
      },
      "properties": {
        "feature_type": "bus_stop",
        "stop_id": 1117,
        "stop_code": "Q12 124",
        "stop_name": "Bến xe An Sương",
        "stop_type": "Trụ dừng",
        "route_no": "62-5",
        "display_code": "B 62-5",
        "direction": "Lượt đi",
        "address": "8C Quốc lộ 22",
        "street": "Quốc lộ 22",
        "zone": "Quận 12",
        "ward": null,
        "all_routes": "13, 62-5, 74, 85, 94",
        "marker_color": "#FDD835"
      }
    },
    {
      "type": "Feature",
      "geometry": {
        "type": "Point",
        "coordinates": [
          106.611274,
          10.84936
        ]
      },
      "properties": {
        "feature_type": "bus_stop",
        "stop_id": 1151,
        "stop_code": "Q12 125",
        "stop_name": "Cây xăng Quân Đội",
        "stop_type": "Trụ dừng",
        "route_no": "62-5",
        "display_code": "B 62-5",
        "direction": "Lượt đi",
        "address": "2 Quốc lộ 22",
        "street": "Quốc lộ 22",
        "zone": "Quận 12",
        "ward": null,
        "all_routes": "122, 13, 145, 62-5, 71, 74, 85, 94",
        "marker_color": "#FDD835"
      }
    },
    {
      "type": "Feature",
      "geometry": {
        "type": "Point",
        "coordinates": [
          106.607863,
          10.85466
        ]
      },
      "properties": {
        "feature_type": "bus_stop",
        "stop_id": 1152,
        "stop_code": "Q12 127",
        "stop_name": "Trung tâm Văn hóa Quận 12",
        "stop_type": "Nhà chờ",
        "route_no": "62-5",
        "display_code": "B 62-5",
        "direction": "Lượt đi",
        "address": "Trung tâm văn hóa Quận 12 Quốc lộ 22",
        "street": "Quốc lộ 22",
        "zone": "Quận 12",
        "ward": null,
        "all_routes": "122, 13, 145, 62-5, 71, 74, 85, 94",
        "marker_color": "#FDD835"
      }
    },
    {
      "type": "Feature",
      "geometry": {
        "type": "Point",
        "coordinates": [
          106.6062,
          10.857115
        ]
      },
      "properties": {
        "feature_type": "bus_stop",
        "stop_id": 1154,
        "stop_code": "HHM 022",
        "stop_name": "Liên đoàn lao động Hóc Môn",
        "stop_type": "Trụ dừng",
        "route_no": "62-5",
        "display_code": "B 62-5",
        "direction": "Lượt đi",
        "address": "69/1 (21/7) Quốc lộ 22",
        "street": "Quốc lộ 22",
        "zone": "Huyện Hóc Môn",
        "ward": "Xã Trung Chánh",
        "all_routes": "122, 13, 62-5, 71, 74, 85, 94",
        "marker_color": "#FDD835"
      }
    },
    {
      "type": "Feature",
      "geometry": {
        "type": "Point",
        "coordinates": [
          106.604306,
          10.859823
        ]
      },
      "properties": {
        "feature_type": "bus_stop",
        "stop_id": 1153,
        "stop_code": "HHM 023",
        "stop_name": "Cây xăng Củ Cải",
        "stop_type": "Trụ dừng",
        "route_no": "62-5",
        "display_code": "B 62-5",
        "direction": "Lượt đi",
        "address": "33/4 (336) Quốc lộ 22",
        "street": "Quốc lộ 22",
        "zone": "Huyện Hóc Môn",
        "ward": "Xã Trung Chánh",
        "all_routes": "122, 13, 62-5, 71, 74, 85, 94",
        "marker_color": "#FDD835"
      }
    },
    {
      "type": "Feature",
      "geometry": {
        "type": "Point",
        "coordinates": [
          106.602697,
          10.862014
        ]
      },
      "properties": {
        "feature_type": "bus_stop",
        "stop_id": 1156,
        "stop_code": "HHM 024",
        "stop_name": "Ngã 3 Củ Cải",
        "stop_type": "Trụ dừng",
        "route_no": "62-5",
        "display_code": "B 62-5",
        "direction": "Lượt đi",
        "address": "42/1 (62/1A) Quốc lộ 22",
        "street": "Quốc lộ 22",
        "zone": "Huyện Hóc Môn",
        "ward": null,
        "all_routes": "122, 13, 62-5, 74, 85, 94",
        "marker_color": "#FDD835"
      }
    },
    {
      "type": "Feature",
      "geometry": {
        "type": "Point",
        "coordinates": [
          106.600921,
          10.864569
        ]
      },
      "properties": {
        "feature_type": "bus_stop",
        "stop_id": 7800,
        "stop_code": "HHM 245",
        "stop_name": "Trường Đại học Ngoại ngữ - Tin học TP.HCM",
        "stop_type": "Trụ dừng",
        "route_no": "62-5",
        "display_code": "B 62-5",
        "direction": "Lượt đi",
        "address": "Trường Đại học Ngoại ngữ - Tin học TP.HCM Quốc lộ 22",
        "street": "Quốc lộ 22",
        "zone": "Huyện Hóc Môn",
        "ward": "Xã Tân Xuân",
        "all_routes": "122, 13, 62-5, 74, 85, 94",
        "marker_color": "#FDD835"
      }
    },
    {
      "type": "Feature",
      "geometry": {
        "type": "Point",
        "coordinates": [
          106.599349,
          10.866782
        ]
      },
      "properties": {
        "feature_type": "bus_stop",
        "stop_id": 1155,
        "stop_code": "HHM 025",
        "stop_name": "Trường học Tân Xuân",
        "stop_type": "Trụ dừng",
        "route_no": "62-5",
        "display_code": "B 62-5",
        "direction": "Lượt đi",
        "address": "8/6B Quốc lộ 22",
        "street": "Quốc lộ 22",
        "zone": "Huyện Hóc Môn",
        "ward": null,
        "all_routes": "122, 13, 62-5, 74, 85, 94",
        "marker_color": "#FDD835"
      }
    },
    {
      "type": "Feature",
      "geometry": {
        "type": "Point",
        "coordinates": [
          106.597075,
          10.870075
        ]
      },
      "properties": {
        "feature_type": "bus_stop",
        "stop_id": 1158,
        "stop_code": "HHM 026",
        "stop_name": "Ngã 3 Bùi Môn",
        "stop_type": "Ô sơn",
        "route_no": "62-5",
        "display_code": "B 62-5",
        "direction": "Lượt đi",
        "address": "1/1 Quốc lộ 22",
        "street": "Quốc lộ 22",
        "zone": "Huyện Hóc Môn",
        "ward": null,
        "all_routes": "122, 13, 62-5, 74, 85, 94",
        "marker_color": "#FDD835"
      }
    },
    {
      "type": "Feature",
      "geometry": {
        "type": "Point",
        "coordinates": [
          106.594368,
          10.888333
        ]
      },
      "properties": {
        "feature_type": "bus_stop",
        "stop_id": 2259,
        "stop_code": "HHM 164",
        "stop_name": "Ngân hàng Nông Nghiệp",
        "stop_type": "Trụ dừng",
        "route_no": "62-5",
        "display_code": "B 62-5",
        "direction": "Lượt đi",
        "address": "13/3 (số củ 12) Lý Thường Kiệt ",
        "street": "Lý Thường Kiệt ",
        "zone": "Huyện Hóc Môn",
        "ward": "Thị trấn Hóc Môn",
        "all_routes": "24, 62-5, 85",
        "marker_color": "#FDD835"
      }
    },
    {
      "type": "Feature",
      "geometry": {
        "type": "Point",
        "coordinates": [
          106.590866,
          10.88715
        ]
      },
      "properties": {
        "feature_type": "bus_stop",
        "stop_id": 2268,
        "stop_code": "HHM 165",
        "stop_name": "Ngân hàng BIDV",
        "stop_type": "Trụ dừng",
        "route_no": "62-5",
        "display_code": "B 62-5",
        "direction": "Lượt đi",
        "address": "78 Lý Thường Kiệt ",
        "street": "Lý Thường Kiệt ",
        "zone": "Huyện Hóc Môn",
        "ward": "Thị trấn Hóc Môn",
        "all_routes": "24, 62-5, 85",
        "marker_color": "#FDD835"
      }
    },
    {
      "type": "Feature",
      "geometry": {
        "type": "Point",
        "coordinates": [
          106.58757,
          10.884733
        ]
      },
      "properties": {
        "feature_type": "bus_stop",
        "stop_id": 2261,
        "stop_code": "HHM 166",
        "stop_name": "Ngã tư Hóc Môn",
        "stop_type": "Trụ dừng",
        "route_no": "62-5",
        "display_code": "B 62-5",
        "direction": "Lượt đi",
        "address": "51/8 Lý Thường Kiệt ",
        "street": "Lý Thường Kiệt ",
        "zone": "Huyện Hóc Môn",
        "ward": "Thị trấn Hóc Môn",
        "all_routes": "24, 62-5, 85",
        "marker_color": "#FDD835"
      }
    },
    {
      "type": "Feature",
      "geometry": {
        "type": "Point",
        "coordinates": [
          106.586013,
          10.883492
        ]
      },
      "properties": {
        "feature_type": "bus_stop",
        "stop_id": 3954,
        "stop_code": "HHM 059",
        "stop_name": "Ngã 4 Hóc Môn",
        "stop_type": "Trụ dừng",
        "route_no": "62-5",
        "display_code": "B 62-5",
        "direction": "Lượt đi",
        "address": "8B Nguyễn Văn Bứa",
        "street": "Nguyễn Văn Bứa",
        "zone": "Huyện Hóc Môn",
        "ward": "Xã Xuân Thới Sơn",
        "all_routes": "62-5, 85",
        "marker_color": "#FDD835"
      }
    },
    {
      "type": "Feature",
      "geometry": {
        "type": "Point",
        "coordinates": [
          106.583444,
          10.882165
        ]
      },
      "properties": {
        "feature_type": "bus_stop",
        "stop_id": 3950,
        "stop_code": "HHM 060",
        "stop_name": "Chợ Xuân Thới Sơn",
        "stop_type": "Trụ dừng",
        "route_no": "62-5",
        "display_code": "B 62-5",
        "direction": "Lượt đi",
        "address": "Ban nhân dân Ấp 1 (79/79) Nguyễn Văn Bứa",
        "street": "Nguyễn Văn Bứa",
        "zone": "Huyện Hóc Môn",
        "ward": "Xã Xuân Thới Sơn",
        "all_routes": "62-5, 85",
        "marker_color": "#FDD835"
      }
    },
    {
      "type": "Feature",
      "geometry": {
        "type": "Point",
        "coordinates": [
          106.581652,
          10.879463
        ]
      },
      "properties": {
        "feature_type": "bus_stop",
        "stop_id": 3953,
        "stop_code": "HHM 061",
        "stop_name": "Nguyễn Thị Thử",
        "stop_type": "Trụ dừng",
        "route_no": "62-5",
        "display_code": "B 62-5",
        "direction": "Lượt đi",
        "address": "96/3C Nguyễn Văn Bứa",
        "street": "Nguyễn Văn Bứa",
        "zone": "Huyện Hóc Môn",
        "ward": "Xã Xuân Thới Sơn",
        "all_routes": "62-5, 85",
        "marker_color": "#FDD835"
      }
    },
    {
      "type": "Feature",
      "geometry": {
        "type": "Point",
        "coordinates": [
          106.574432,
          10.874395
        ]
      },
      "properties": {
        "feature_type": "bus_stop",
        "stop_id": 3951,
        "stop_code": "HHM 062",
        "stop_name": "Công ty cáp Vĩnh Thịnh",
        "stop_type": "Trụ dừng",
        "route_no": "62-5",
        "display_code": "B 62-5",
        "direction": "Lượt đi",
        "address": "40B Nguyễn Văn Bứa",
        "street": "Nguyễn Văn Bứa",
        "zone": "Huyện Hóc Môn",
        "ward": "Xã Xuân Thới Sơn",
        "all_routes": "62-5, 85",
        "marker_color": "#FDD835"
      }
    },
    {
      "type": "Feature",
      "geometry": {
        "type": "Point",
        "coordinates": [
          106.570215,
          10.872556
        ]
      },
      "properties": {
        "feature_type": "bus_stop",
        "stop_id": 3974,
        "stop_code": "HHM 063",
        "stop_name": "Sân Banh",
        "stop_type": "Trụ dừng",
        "route_no": "62-5",
        "display_code": "B 62-5",
        "direction": "Lượt đi",
        "address": "DD 14/7 (28A) Nguyễn Văn Bứa",
        "street": "Nguyễn Văn Bứa",
        "zone": "Huyện Hóc Môn",
        "ward": "Xã Xuân Thới Sơn",
        "all_routes": "62-5, 85",
        "marker_color": "#FDD835"
      }
    },
    {
      "type": "Feature",
      "geometry": {
        "type": "Point",
        "coordinates": [
          106.564894,
          10.871113
        ]
      },
      "properties": {
        "feature_type": "bus_stop",
        "stop_id": 2224,
        "stop_code": "HHM 064",
        "stop_name": "Dương Công Khi",
        "stop_type": "Trụ dừng",
        "route_no": "62-5",
        "display_code": "B 62-5",
        "direction": "Lượt đi",
        "address": "89/5 Nguyễn Văn Bứa",
        "street": "Nguyễn Văn Bứa",
        "zone": "Huyện Hóc Môn",
        "ward": "Xã Xuân Thới Sơn",
        "all_routes": "62-5, 85",
        "marker_color": "#FDD835"
      }
    },
    {
      "type": "Feature",
      "geometry": {
        "type": "Point",
        "coordinates": [
          106.559878,
          10.869047
        ]
      },
      "properties": {
        "feature_type": "bus_stop",
        "stop_id": 3945,
        "stop_code": "HHM 065",
        "stop_name": "Ngã Ba Giồng",
        "stop_type": "Trụ dừng",
        "route_no": "62-5",
        "display_code": "B 62-5",
        "direction": "Lượt đi",
        "address": "Đối diện Ngã ba giòng Nguyễn Văn Bứa",
        "street": "Nguyễn Văn Bứa",
        "zone": "Huyện Hóc Môn",
        "ward": "Xã Xuân Thới Sơn",
        "all_routes": "62-5, 78, 85",
        "marker_color": "#FDD835"
      }
    },
    {
      "type": "Feature",
      "geometry": {
        "type": "Point",
        "coordinates": [
          106.550753,
          10.869479
        ]
      },
      "properties": {
        "feature_type": "bus_stop",
        "stop_id": 2222,
        "stop_code": "HHM 066",
        "stop_name": "Trường PTTH Nguyễn Văn Cừ",
        "stop_type": "Trụ dừng",
        "route_no": "62-5",
        "display_code": "B 62-5",
        "direction": "Lượt đi",
        "address": "Đối diện trường Nguyễn Văn Cừ Nguyễn Văn Bứa",
        "street": "Nguyễn Văn Bứa",
        "zone": "Huyện Hóc Môn",
        "ward": "Xã Xuân Thới Sơn",
        "all_routes": "23, 62-5, 78, 85",
        "marker_color": "#FDD835"
      }
    },
    {
      "type": "Feature",
      "geometry": {
        "type": "Point",
        "coordinates": [
          106.54673,
          10.870006
        ]
      },
      "properties": {
        "feature_type": "bus_stop",
        "stop_id": 3949,
        "stop_code": "HHM 067",
        "stop_name": "Thái Sơn",
        "stop_type": "Trụ dừng",
        "route_no": "62-5",
        "display_code": "B 62-5",
        "direction": "Lượt đi",
        "address": "48B Nguyễn Văn Bứa",
        "street": "Nguyễn Văn Bứa",
        "zone": "Huyện Hóc Môn",
        "ward": "Xã Xuân Thới Sơn",
        "all_routes": "23, 62-5, 78, 85",
        "marker_color": "#FDD835"
      }
    },
    {
      "type": "Feature",
      "geometry": {
        "type": "Point",
        "coordinates": [
          106.541677,
          10.870702
        ]
      },
      "properties": {
        "feature_type": "bus_stop",
        "stop_id": 3939,
        "stop_code": "HHM 068",
        "stop_name": "Lò Muối",
        "stop_type": "Trụ dừng",
        "route_no": "62-5",
        "display_code": "B 62-5",
        "direction": "Lượt đi",
        "address": "24B1 (23B) Nguyễn Văn Bứa",
        "street": "Nguyễn Văn Bứa",
        "zone": "Huyện Hóc Môn",
        "ward": "Xã Xuân Thới Sơn",
        "all_routes": "23, 62-5, 78, 85",
        "marker_color": "#FDD835"
      }
    },
    {
      "type": "Feature",
      "geometry": {
        "type": "Point",
        "coordinates": [
          106.538576,
          10.871223
        ]
      },
      "properties": {
        "feature_type": "bus_stop",
        "stop_id": 2265,
        "stop_code": "HHM 069",
        "stop_name": "trường tiểu học Nhị Xuân",
        "stop_type": "Trụ dừng",
        "route_no": "62-5",
        "display_code": "B 62-5",
        "direction": "Lượt đi",
        "address": "8B Nguyễn Văn Bứa",
        "street": "Nguyễn Văn Bứa",
        "zone": "Huyện Hóc Môn",
        "ward": "Xã Xuân Thới Sơn",
        "all_routes": "23, 62-5, 78, 85",
        "marker_color": "#FDD835"
      }
    },
    {
      "type": "Feature",
      "geometry": {
        "type": "Point",
        "coordinates": [
          106.535561,
          10.871845
        ]
      },
      "properties": {
        "feature_type": "bus_stop",
        "stop_id": 2227,
        "stop_code": "BX 39",
        "stop_name": "Bến xe buýt Cầu Lớn",
        "stop_type": "Bến xe",
        "route_no": "62-5",
        "display_code": "B 62-5",
        "direction": "Lượt đi",
        "address": "BẾN XE BUÝT CẦU LỚN Nguyễn Văn Bứa",
        "street": "Nguyễn Văn Bứa",
        "zone": "Huyện Hóc Môn",
        "ward": "Xã Xuân Thới Sơn",
        "all_routes": "23, 62-5, 78, 85",
        "marker_color": "#FDD835"
      }
    },
    {
      "type": "Feature",
      "geometry": {
        "type": "Point",
        "coordinates": [
          106.531098,
          10.872714
        ]
      },
      "properties": {
        "feature_type": "bus_stop",
        "stop_id": 3941,
        "stop_code": "HHM 070",
        "stop_name": "Khu công nghiệp Nhị Xuân",
        "stop_type": "Trụ dừng",
        "route_no": "62-5",
        "display_code": "B 62-5",
        "direction": "Lượt đi",
        "address": "khu công nghiệp Nhị Xuân Nguyễn Văn Bứa",
        "street": "Nguyễn Văn Bứa",
        "zone": "Huyện Hóc Môn",
        "ward": "Xã Xuân Thới Sơn",
        "all_routes": "62-5",
        "marker_color": "#FDD835"
      }
    },
    {
      "type": "Feature",
      "geometry": {
        "type": "Point",
        "coordinates": [
          106.393039,
          10.900982
        ]
      },
      "properties": {
        "feature_type": "bus_stop",
        "stop_id": 7209,
        "stop_code": "BXLT Hau Nghia",
        "stop_name": "Bến xe Hậu Nghĩa",
        "stop_type": "Bến xe",
        "route_no": "62-5",
        "display_code": "B 62-5",
        "direction": "Lượt đi",
        "address": "Bến xe Hậu Nghĩa 3 tháng 2",
        "street": "3 tháng 2",
        "zone": "Ngoại thành",
        "ward": null,
        "all_routes": "62-5",
        "marker_color": "#FDD835"
      }
    },
    {
      "type": "Feature",
      "geometry": {
        "type": "Point",
        "coordinates": [
          106.530594,
          10.872619
        ]
      },
      "properties": {
        "feature_type": "bus_stop",
        "stop_id": 2276,
        "stop_code": "HHM 071",
        "stop_name": "Khu công nghiệp Nhị Xuân",
        "stop_type": "Trụ dừng",
        "route_no": "62-5",
        "display_code": "B 62-5",
        "direction": "Lượt về",
        "address": "đd khu công nghiệp Nhị Xuân Nguyễn Văn Bứa",
        "street": "Nguyễn Văn Bứa",
        "zone": "Huyện Hóc Môn",
        "ward": "Xã Xuân Thới Sơn",
        "all_routes": "62-5",
        "marker_color": "#FDD835"
      }
    },
    {
      "type": "Feature",
      "geometry": {
        "type": "Point",
        "coordinates": [
          106.538174,
          10.871176
        ]
      },
      "properties": {
        "feature_type": "bus_stop",
        "stop_id": 3967,
        "stop_code": "HHM 072",
        "stop_name": "Trường Nhị Xuân",
        "stop_type": "Trụ dừng",
        "route_no": "62-5",
        "display_code": "B 62-5",
        "direction": "Lượt về",
        "address": "Đối diện trường Nhị Xuân (9B) Nguyễn Văn Bứa",
        "street": "Nguyễn Văn Bứa",
        "zone": "Huyện Hóc Môn",
        "ward": "Xã Xuân Thới Thượng",
        "all_routes": "23, 62-5, 78, 85",
        "marker_color": "#FDD835"
      }
    },
    {
      "type": "Feature",
      "geometry": {
        "type": "Point",
        "coordinates": [
          106.542106,
          10.870501
        ]
      },
      "properties": {
        "feature_type": "bus_stop",
        "stop_id": 2225,
        "stop_code": "HHM 073",
        "stop_name": "Trạm lò muối",
        "stop_type": "Trụ dừng",
        "route_no": "62-5",
        "display_code": "B 62-5",
        "direction": "Lượt về",
        "address": "23 - 25 Nguyễn Văn Bứa",
        "street": "Nguyễn Văn Bứa",
        "zone": "Huyện Hóc Môn",
        "ward": "Xã Xuân Thới Thượng",
        "all_routes": "23, 62-5, 78, 85",
        "marker_color": "#FDD835"
      }
    },
    {
      "type": "Feature",
      "geometry": {
        "type": "Point",
        "coordinates": [
          106.546204,
          10.869911
        ]
      },
      "properties": {
        "feature_type": "bus_stop",
        "stop_id": 2223,
        "stop_code": "HHM 074",
        "stop_name": "Thái Sơn",
        "stop_type": "Trụ dừng",
        "route_no": "62-5",
        "display_code": "B 62-5",
        "direction": "Lượt về",
        "address": "43A Nguyễn Văn Bứa",
        "street": "Nguyễn Văn Bứa",
        "zone": "Huyện Hóc Môn",
        "ward": "Xã Xuân Thới Thượng",
        "all_routes": "23, 62-5, 78, 85",
        "marker_color": "#FDD835"
      }
    },
    {
      "type": "Feature",
      "geometry": {
        "type": "Point",
        "coordinates": [
          106.551011,
          10.869195
        ]
      },
      "properties": {
        "feature_type": "bus_stop",
        "stop_id": 2267,
        "stop_code": "HHM 075",
        "stop_name": "Trường Nguyễn Văn Cừ",
        "stop_type": "Nhà chờ",
        "route_no": "62-5",
        "display_code": "B 62-5",
        "direction": "Lượt về",
        "address": "100A Nguyễn Văn Bứa",
        "street": "Nguyễn Văn Bứa",
        "zone": "Huyện Hóc Môn",
        "ward": "Xã Xuân Thới Thượng",
        "all_routes": "23, 62-5, 78, 85",
        "marker_color": "#FDD835"
      }
    },
    {
      "type": "Feature",
      "geometry": {
        "type": "Point",
        "coordinates": [
          106.55924,
          10.868647
        ]
      },
      "properties": {
        "feature_type": "bus_stop",
        "stop_id": 3964,
        "stop_code": "HHM 076",
        "stop_name": "Ngã 3 Giồng",
        "stop_type": "Trụ dừng",
        "route_no": "62-5",
        "display_code": "B 62-5",
        "direction": "Lượt về",
        "address": "Ngã ba Giồng Nguyễn Văn Bứa",
        "street": "Nguyễn Văn Bứa",
        "zone": "Huyện Hóc Môn",
        "ward": "Xã Xuân Thới Thượng",
        "all_routes": "62-5, 78, 85",
        "marker_color": "#FDD835"
      }
    },
    {
      "type": "Feature",
      "geometry": {
        "type": "Point",
        "coordinates": [
          106.564593,
          10.870844
        ]
      },
      "properties": {
        "feature_type": "bus_stop",
        "stop_id": 3944,
        "stop_code": "HHM 077",
        "stop_name": "Dương Công Khi",
        "stop_type": "Trụ dừng",
        "route_no": "62-5",
        "display_code": "B 62-5",
        "direction": "Lượt về",
        "address": "kế 131/6 (17/2B) Nguyễn Văn Bứa",
        "street": "Nguyễn Văn Bứa",
        "zone": "Huyện Hóc Môn",
        "ward": "Xã Xuân Thới Thượng",
        "all_routes": "62-5, 85",
        "marker_color": "#FDD835"
      }
    },
    {
      "type": "Feature",
      "geometry": {
        "type": "Point",
        "coordinates": [
          106.56977,
          10.872319
        ]
      },
      "properties": {
        "feature_type": "bus_stop",
        "stop_id": 2274,
        "stop_code": "HHM 078",
        "stop_name": "Sân Banh",
        "stop_type": "Trụ dừng",
        "route_no": "62-5",
        "display_code": "B 62-5",
        "direction": "Lượt về",
        "address": "đối diện 35A (đối diện 34A) Nguyễn Văn Bứa",
        "street": "Nguyễn Văn Bứa",
        "zone": "Huyện Hóc Môn",
        "ward": "Xã Xuân Thới Sơn",
        "all_routes": "62-5, 85",
        "marker_color": "#FDD835"
      }
    },
    {
      "type": "Feature",
      "geometry": {
        "type": "Point",
        "coordinates": [
          106.574062,
          10.874026
        ]
      },
      "properties": {
        "feature_type": "bus_stop",
        "stop_id": 3956,
        "stop_code": "HHM 079",
        "stop_name": "Công ty cáp Vĩnh Thịnh",
        "stop_type": "Trụ dừng",
        "route_no": "62-5",
        "display_code": "B 62-5",
        "direction": "Lượt về",
        "address": "17/2 (18/1) Nguyễn Văn Bứa",
        "street": "Nguyễn Văn Bứa",
        "zone": "Huyện Hóc Môn",
        "ward": "Xã Xuân Thới Sơn",
        "all_routes": "62-5, 85",
        "marker_color": "#FDD835"
      }
    },
    {
      "type": "Feature",
      "geometry": {
        "type": "Point",
        "coordinates": [
          106.581266,
          10.878925
        ]
      },
      "properties": {
        "feature_type": "bus_stop",
        "stop_id": 3940,
        "stop_code": "HHM 080",
        "stop_name": "Nguyễn Thị Thử",
        "stop_type": "Trụ dừng",
        "route_no": "62-5",
        "display_code": "B 62-5",
        "direction": "Lượt về",
        "address": "2/2-2/4 Nguyễn Văn Bứa",
        "street": "Nguyễn Văn Bứa",
        "zone": "Huyện Hóc Môn",
        "ward": "Xã Xuân Thới Đông",
        "all_routes": "62-5, 85",
        "marker_color": "#FDD835"
      }
    },
    {
      "type": "Feature",
      "geometry": {
        "type": "Point",
        "coordinates": [
          106.583133,
          10.881317
        ]
      },
      "properties": {
        "feature_type": "bus_stop",
        "stop_id": 3943,
        "stop_code": "HHM 081",
        "stop_name": "Chợ Xuân Thới Sơn",
        "stop_type": "Ô sơn",
        "route_no": "62-5",
        "display_code": "B 62-5",
        "direction": "Lượt về",
        "address": "36/5C Nguyễn Văn Bứa",
        "street": "Nguyễn Văn Bứa",
        "zone": "Huyện Hóc Môn",
        "ward": "Xã Xuân Thới Sơn",
        "all_routes": "62-5, 85",
        "marker_color": "#FDD835"
      }
    },
    {
      "type": "Feature",
      "geometry": {
        "type": "Point",
        "coordinates": [
          106.586416,
          10.883508
        ]
      },
      "properties": {
        "feature_type": "bus_stop",
        "stop_id": 3952,
        "stop_code": "HHM 082",
        "stop_name": "Ngã tư Hóc Môn",
        "stop_type": "Trụ dừng",
        "route_no": "62-5",
        "display_code": "B 62-5",
        "direction": "Lượt về",
        "address": "đối diện 116/2 (9A) Nguyễn Văn Bứa",
        "street": "Nguyễn Văn Bứa",
        "zone": "Huyện Hóc Môn",
        "ward": "Xã Xuân Thới Sơn",
        "all_routes": "62-5, 85",
        "marker_color": "#FDD835"
      }
    },
    {
      "type": "Feature",
      "geometry": {
        "type": "Point",
        "coordinates": [
          106.5878,
          10.884794
        ]
      },
      "properties": {
        "feature_type": "bus_stop",
        "stop_id": 2329,
        "stop_code": "HHM 161",
        "stop_name": "Ngã tư Hóc Môn",
        "stop_type": "Trụ dừng",
        "route_no": "62-5",
        "display_code": "B 62-5",
        "direction": "Lượt về",
        "address": "2/18B Lý Thường Kiệt ",
        "street": "Lý Thường Kiệt ",
        "zone": "Huyện Hóc Môn",
        "ward": "Thị trấn Hóc Môn",
        "all_routes": "24, 62-5, 85",
        "marker_color": "#FDD835"
      }
    },
    {
      "type": "Feature",
      "geometry": {
        "type": "Point",
        "coordinates": [
          106.590691,
          10.886938
        ]
      },
      "properties": {
        "feature_type": "bus_stop",
        "stop_id": 2330,
        "stop_code": "HHM 162",
        "stop_name": "Ngân hàng BIDV",
        "stop_type": "Trụ dừng",
        "route_no": "62-5",
        "display_code": "B 62-5",
        "direction": "Lượt về",
        "address": "10/6A Lý Thường Kiệt ",
        "street": "Lý Thường Kiệt ",
        "zone": "Huyện Hóc Môn",
        "ward": "Thị trấn Hóc Môn",
        "all_routes": "24, 62-5, 85",
        "marker_color": "#FDD835"
      }
    },
    {
      "type": "Feature",
      "geometry": {
        "type": "Point",
        "coordinates": [
          106.593808,
          10.888007
        ]
      },
      "properties": {
        "feature_type": "bus_stop",
        "stop_id": 2331,
        "stop_code": "HHM 163",
        "stop_name": "Ngân hàng Nông Nghiệp",
        "stop_type": "Trụ dừng",
        "route_no": "62-5",
        "display_code": "B 62-5",
        "direction": "Lượt về",
        "address": "39/1 Lý Thường Kiệt ",
        "street": "Lý Thường Kiệt ",
        "zone": "Huyện Hóc Môn",
        "ward": "Thị trấn Hóc Môn",
        "all_routes": "24, 62-5, 85",
        "marker_color": "#FDD835"
      }
    },
    {
      "type": "Feature",
      "geometry": {
        "type": "Point",
        "coordinates": [
          106.596758,
          10.869954
        ]
      },
      "properties": {
        "feature_type": "bus_stop",
        "stop_id": 1231,
        "stop_code": "HHM 050",
        "stop_name": "Ngã 3 Bùi Môn",
        "stop_type": "Trụ dừng",
        "route_no": "62-5",
        "display_code": "B 62-5",
        "direction": "Lượt về",
        "address": "58/5 Quốc lộ 22",
        "street": "Quốc lộ 22",
        "zone": "Huyện Hóc Môn",
        "ward": "Xã Xuân Thới Đông",
        "all_routes": "122, 13, 62-5, 74, 85, 94",
        "marker_color": "#FDD835"
      }
    },
    {
      "type": "Feature",
      "geometry": {
        "type": "Point",
        "coordinates": [
          106.598904,
          10.866919
        ]
      },
      "properties": {
        "feature_type": "bus_stop",
        "stop_id": 1235,
        "stop_code": "HHM 051",
        "stop_name": "Trường học Tân Xuân",
        "stop_type": "Trụ dừng",
        "route_no": "62-5",
        "display_code": "B 62-5",
        "direction": "Lượt về",
        "address": "1/4 Quốc lộ 22",
        "street": "Quốc lộ 22",
        "zone": "Huyện Hóc Môn",
        "ward": "Xã Tân Xuân",
        "all_routes": "122, 13, 62-5, 74, 85, 94",
        "marker_color": "#FDD835"
      }
    },
    {
      "type": "Feature",
      "geometry": {
        "type": "Point",
        "coordinates": [
          106.601978,
          10.862546
        ]
      },
      "properties": {
        "feature_type": "bus_stop",
        "stop_id": 1233,
        "stop_code": "HHM 052",
        "stop_name": "Ngân Hàng Aribank",
        "stop_type": "Nhà chờ",
        "route_no": "62-5",
        "display_code": "B 62-5",
        "direction": "Lượt về",
        "address": "5/1 (gần đường Nguyễn Thị Sóc) Quốc lộ 22",
        "street": "Quốc lộ 22",
        "zone": "Huyện Hóc Môn",
        "ward": "Xã Trung Chánh",
        "all_routes": "122, 13, 62-5, 74, 85, 94",
        "marker_color": "#FDD835"
      }
    },
    {
      "type": "Feature",
      "geometry": {
        "type": "Point",
        "coordinates": [
          106.603324,
          10.860602
        ]
      },
      "properties": {
        "feature_type": "bus_stop",
        "stop_id": 1234,
        "stop_code": "HHM 053",
        "stop_name": "Ngã 3 Củ Cải",
        "stop_type": "Nhà chờ",
        "route_no": "62-5",
        "display_code": "B 62-5",
        "direction": "Lượt về",
        "address": "43/1 (kế 33/5A), 7/2A Quốc lộ 22",
        "street": "Quốc lộ 22",
        "zone": "Huyện Hóc Môn",
        "ward": "Xã Xuân Thới Đông",
        "all_routes": "122, 13, 62-5, 71, 74, 85, 94",
        "marker_color": "#FDD835"
      }
    },
    {
      "type": "Feature",
      "geometry": {
        "type": "Point",
        "coordinates": [
          106.606178,
          10.85662
        ]
      },
      "properties": {
        "feature_type": "bus_stop",
        "stop_id": 3635,
        "stop_code": "HHM 055",
        "stop_name": "Chùa Linh Sơn",
        "stop_type": "Trụ dừng",
        "route_no": "62-5",
        "display_code": "B 62-5",
        "direction": "Lượt về",
        "address": "G68A Quốc lộ 22",
        "street": "Quốc lộ 22",
        "zone": "Huyện Hóc Môn",
        "ward": null,
        "all_routes": "122, 13, 62-5, 71, 74, 85, 94",
        "marker_color": "#FDD835"
      }
    },
    {
      "type": "Feature",
      "geometry": {
        "type": "Point",
        "coordinates": [
          106.608152,
          10.853595
        ]
      },
      "properties": {
        "feature_type": "bus_stop",
        "stop_id": 1393,
        "stop_code": "HHM 056",
        "stop_name": "Ngã tư Trung Chánh",
        "stop_type": "Nhà chờ",
        "route_no": "62-5",
        "display_code": "B 62-5",
        "direction": "Lượt về",
        "address": "30/10B (kế 30) Quốc lộ 22",
        "street": "Quốc lộ 22",
        "zone": "Huyện Hóc Môn",
        "ward": "Xã Trung Chánh",
        "all_routes": "122, 13, 145, 62-5, 71, 74, 85, 94",
        "marker_color": "#FDD835"
      }
    },
    {
      "type": "Feature",
      "geometry": {
        "type": "Point",
        "coordinates": [
          106.610641,
          10.849713
        ]
      },
      "properties": {
        "feature_type": "bus_stop",
        "stop_id": 1238,
        "stop_code": "HHM 057",
        "stop_name": "Cư xá Bà Điểm",
        "stop_type": "Nhà chờ",
        "route_no": "62-5",
        "display_code": "B 62-5",
        "direction": "Lượt về",
        "address": "3A Quốc lộ 22",
        "street": "Quốc lộ 22",
        "zone": "Huyện Hóc Môn",
        "ward": "Xã Bà Điểm",
        "all_routes": "122, 13, 145, 62-5, 71, 74, 85, 94",
        "marker_color": "#FDD835"
      }
    },
    {
      "type": "Feature",
      "geometry": {
        "type": "Point",
        "coordinates": [
          106.613522,
          10.845187
        ]
      },
      "properties": {
        "feature_type": "bus_stop",
        "stop_id": 1239,
        "stop_code": "HHM 058",
        "stop_name": "Bến xe An Sương",
        "stop_type": "Trụ dừng",
        "route_no": "62-5",
        "display_code": "B 62-5",
        "direction": "Lượt về",
        "address": "1B Quốc lộ 22",
        "street": "Quốc lộ 22",
        "zone": "Huyện Hóc Môn",
        "ward": "Xã Bà Điểm",
        "all_routes": "04, 104, 122, 13, 145, 151, 33, 41, 61-3, 62-5, 65, 71, 74, 85, 94",
        "marker_color": "#FDD835"
      }
    }
  ]
}