{
  "type": "FeatureCollection",
  "properties": {
    "stt": 30,
    "route_no": "151",
    "display_code": "B 151",
    "route_name": "Bến xe Miền Tây - Bến xe An Sương",
    "start_point": "Bến xe Miền Tây",
    "end_point": "Bến xe An Sương",
    "listed_length_km": 17,
    "operating_hours": "4:00 - 20:00",
    "color": "#FF5722",
    "num_variants": 2,
    "total_stops": 75,
    "total_points": 515
  },
  "features": [
    {
      "type": "Feature",
      "geometry": {
        "type": "LineString",
        "coordinates": [
          [
            106.61943817,
            10.73948574
          ],
          [
            106.61952972,
            10.73955917
          ],
          [
            106.61917877,
            10.73998642
          ],
          [
            106.61986542,
            10.74057674
          ],
          [
            106.61985016,
            10.74087143
          ],
          [
            106.61908722,
            10.74185181
          ],
          [
            106.61776733,
            10.74072361
          ],
          [
            106.61644745,
            10.73959637
          ],
          [
            106.61639404,
            10.73967457
          ],
          [
            106.61639404,
            10.73967457
          ],
          [
            106.61645508,
            10.73959637
          ],
          [
            106.61547852,
            10.73880959
          ],
          [
            106.61511993,
            10.73832989
          ],
          [
            106.61479187,
            10.73777962
          ],
          [
            106.61399078,
            10.73644924
          ],
          [
            106.61318207,
            10.73512173
          ],
          [
            106.61314392,
            10.73513794
          ],
          [
            106.61314392,
            10.73513794
          ],
          [
            106.61315918,
            10.73514271
          ],
          [
            106.61106873,
            10.73163223
          ],
          [
            106.61103058,
            10.73167419
          ],
          [
            106.61103058,
            10.73167419
          ],
          [
            106.61109161,
            10.73163223
          ],
          [
            106.61048889,
            10.73064137
          ],
          [
            106.6100769,
            10.73016739
          ],
          [
            106.60967255,
            10.72988224
          ],
          [
            106.60829926,
            10.72897053
          ],
          [
            106.60827637,
            10.72900963
          ],
          [
            106.60827637,
            10.7290144
          ],
          [
            106.60827637,
            10.7290144
          ],
          [
            106.60827637,
            10.7290144
          ],
          [
            106.60827637,
            10.7290144
          ],
          [
            106.60830688,
            10.72897053
          ],
          [
            106.60726929,
            10.72830677
          ],
          [
            106.60681152,
            10.72898102
          ],
          [
            106.6068573,
            10.72901154
          ],
          [
            106.6068573,
            10.72901154
          ],
          [
            106.6068573,
            10.72901154
          ],
          [
            106.6068573,
            10.72901154
          ],
          [
            106.60680389,
            10.72898674
          ],
          [
            106.60630798,
            10.72978973
          ],
          [
            106.60580444,
            10.73059368
          ],
          [
            106.60530853,
            10.73138428
          ],
          [
            106.60481262,
            10.7321701
          ],
          [
            106.60493469,
            10.73223305
          ],
          [
            106.60493469,
            10.73223305
          ],
          [
            106.60493469,
            10.73223305
          ],
          [
            106.60493469,
            10.73223305
          ],
          [
            106.60481262,
            10.73216438
          ],
          [
            106.60443878,
            10.73278427
          ],
          [
            106.60405731,
            10.73340321
          ],
          [
            106.60368346999999,
            10.73402309
          ],
          [
            106.603302,
            10.73464203
          ],
          [
            106.603302,
            10.73464203
          ],
          [
            106.603302,
            10.73464203
          ],
          [
            106.603302,
            10.73464203
          ],
          [
            106.60136414,
            10.73765659
          ],
          [
            106.60136414,
            10.73765659
          ],
          [
            106.59844208,
            10.74230671
          ],
          [
            106.59844208,
            10.74230671
          ],
          [
            106.59507751,
            10.74763393
          ],
          [
            106.59507751,
            10.74763393
          ],
          [
            106.59507751,
            10.74763393
          ],
          [
            106.59507751,
            10.74763393
          ],
          [
            106.59371948,
            10.74973583
          ],
          [
            106.59326172,
            10.75054741
          ],
          [
            106.59292603,
            10.75144386
          ],
          [
            106.59256744,
            10.7529459
          ],
          [
            106.59268951,
            10.75296688
          ],
          [
            106.59268951,
            10.75296688
          ],
          [
            106.59260559,
            10.75295067
          ],
          [
            106.59218597,
            10.75513268
          ],
          [
            106.59236908,
            10.75516415
          ],
          [
            106.59236908,
            10.75516415
          ],
          [
            106.59236908,
            10.75516415
          ],
          [
            106.59236908,
            10.75516415
          ],
          [
            106.59221649,
            10.75514317
          ],
          [
            106.59171295,
            10.75785732
          ],
          [
            106.59185791,
            10.75788403
          ],
          [
            106.59185791,
            10.75788403
          ],
          [
            106.59185791,
            10.75788403
          ],
          [
            106.59185791,
            10.75788403
          ],
          [
            106.59168243,
            10.75784683
          ],
          [
            106.59078979,
            10.76306438
          ],
          [
            106.59092712,
            10.76307487
          ],
          [
            106.59092712,
            10.76307487
          ],
          [
            106.59092712,
            10.76307487
          ],
          [
            106.59092712,
            10.76307487
          ],
          [
            106.59081268,
            10.76305389
          ],
          [
            106.59063721,
            10.76408958
          ],
          [
            106.59056854,
            10.76484013
          ],
          [
            106.59053802,
            10.76549435
          ],
          [
            106.59061432,
            10.76622677
          ],
          [
            106.5907135,
            10.76669025
          ],
          [
            106.59091949,
            10.76741219
          ],
          [
            106.59114838,
            10.76847649
          ],
          [
            106.59114838,
            10.76847553
          ],
          [
            106.59114838,
            10.76847553
          ],
          [
            106.59114838,
            10.76847649
          ],
          [
            106.59109497,
            10.76847649
          ],
          [
            106.59181976,
            10.77207565
          ],
          [
            106.59196472,
            10.77205467
          ],
          [
            106.59196472,
            10.77205467
          ],
          [
            106.59196472,
            10.77205467
          ],
          [
            106.59196472,
            10.77205467
          ],
          [
            106.59185028,
            10.77207565
          ],
          [
            106.59254456,
            10.77550125
          ],
          [
            106.59266663,
            10.77548027
          ],
          [
            106.59266663,
            10.77548027
          ],
          [
            106.59266663,
            10.77548027
          ],
          [
            106.59266663,
            10.77548027
          ],
          [
            106.59255981,
            10.77549076
          ],
          [
            106.59342194,
            10.77958584
          ],
          [
            106.59350586,
            10.77956963
          ],
          [
            106.59350586,
            10.77956963
          ],
          [
            106.59350586,
            10.77956963
          ],
          [
            106.59350586,
            10.77956963
          ],
          [
            106.59350586,
            10.77956963
          ],
          [
            106.59341431,
            10.77958584
          ],
          [
            106.59394073,
            10.78201485
          ],
          [
            106.59403992,
            10.78199387
          ],
          [
            106.59403992,
            10.78199387
          ],
          [
            106.59403992,
            10.78199387
          ],
          [
            106.59403992,
            10.78199387
          ],
          [
            106.59395599,
            10.78199959
          ],
          [
            106.59434509,
            10.78372192
          ],
          [
            106.59473419,
            10.78544521
          ],
          [
            106.59509277,
            10.78715801
          ],
          [
            106.59545135,
            10.78887081
          ],
          [
            106.59552002,
            10.7888546
          ],
          [
            106.59552002,
            10.7888546
          ],
          [
            106.59552002,
            10.7888546
          ],
          [
            106.5954361,
            10.78887081
          ],
          [
            106.59574127,
            10.79020119
          ],
          [
            106.59604645,
            10.79153728
          ],
          [
            106.59612274,
            10.7915163
          ],
          [
            106.59612274,
            10.7915163
          ],
          [
            106.59612274,
            10.7915163
          ],
          [
            106.59602356,
            10.79152679
          ],
          [
            106.59632111,
            10.79313946
          ],
          [
            106.59673309,
            10.79488373
          ],
          [
            106.5970459,
            10.79654312
          ],
          [
            106.59740448,
            10.79820824
          ],
          [
            106.5974884,
            10.79819298
          ],
          [
            106.5974884,
            10.79819298
          ],
          [
            106.59740448,
            10.79819775
          ],
          [
            106.59803009,
            10.80115891
          ],
          [
            106.59863281,
            10.804142
          ],
          [
            106.59871674,
            10.80413055
          ],
          [
            106.59871674,
            10.80413055
          ],
          [
            106.59862518,
            10.80415249
          ],
          [
            106.59922791,
            10.80688667
          ],
          [
            106.59931946,
            10.80687141
          ],
          [
            106.59931946,
            10.80687141
          ],
          [
            106.59924316,
            10.8068819
          ],
          [
            106.59977721999999,
            10.80939007
          ],
          [
            106.60033417,
            10.81194592
          ],
          [
            106.60041046,
            10.81193542
          ],
          [
            106.60041046,
            10.81193542
          ],
          [
            106.60033417,
            10.81195068
          ],
          [
            106.60089874,
            10.81471729
          ],
          [
            106.60099792,
            10.81469631
          ],
          [
            106.60099792,
            10.81469631
          ],
          [
            106.60099792,
            10.81469631
          ],
          [
            106.60089874,
            10.81471729
          ],
          [
            106.60152435,
            10.81761551
          ],
          [
            106.60159302,
            10.81760406
          ],
          [
            106.60159302,
            10.81760406
          ],
          [
            106.60159302,
            10.81760406
          ],
          [
            106.60159302,
            10.81760406
          ],
          [
            106.60152435,
            10.81762028
          ],
          [
            106.60222626,
            10.82089233
          ],
          [
            106.60233307,
            10.82087135
          ],
          [
            106.60233307,
            10.82087135
          ],
          [
            106.60233307,
            10.82087135
          ],
          [
            106.60222626,
            10.82088184
          ],
          [
            106.60250092,
            10.82209301
          ],
          [
            106.6027832,
            10.82330513
          ],
          [
            106.6027832,
            10.82330513
          ],
          [
            106.6027832,
            10.82330513
          ],
          [
            106.60324097,
            10.8255558
          ],
          [
            106.60372925,
            10.82781029
          ],
          [
            106.60385132,
            10.82777882
          ],
          [
            106.60385132,
            10.82777882
          ],
          [
            106.60385132,
            10.82777882
          ],
          [
            106.60373688,
            10.82780552
          ],
          [
            106.60404968,
            10.82890129
          ],
          [
            106.6044693,
            10.82998657
          ],
          [
            106.60649109,
            10.83330631
          ],
          [
            106.60655975,
            10.83326912
          ],
          [
            106.60655975,
            10.83326912
          ],
          [
            106.6064682,
            10.83332157
          ],
          [
            106.60753632,
            10.83503437
          ],
          [
            106.60761261,
            10.83498096
          ],
          [
            106.60761261,
            10.83498096
          ],
          [
            106.60752106,
            10.83501816
          ],
          [
            106.60808563,
            10.83588791
          ],
          [
            106.60868073,
            10.83668327
          ],
          [
            106.61012268,
            10.83794212
          ],
          [
            106.61019897,
            10.83788967
          ],
          [
            106.61019897,
            10.83788967
          ],
          [
            106.61019897,
            10.83788967
          ],
          [
            106.61013031,
            10.83793736
          ],
          [
            106.61117554,
            10.83886719
          ],
          [
            106.61222076,
            10.83981323
          ],
          [
            106.61230469,
            10.83975506
          ],
          [
            106.61230469,
            10.83975506
          ],
          [
            106.61230469,
            10.83975506
          ],
          [
            106.61230469,
            10.83975506
          ],
          [
            106.61222839,
            10.83982372
          ],
          [
            106.61318207,
            10.84066677
          ],
          [
            106.61335754,
            10.8407135
          ],
          [
            106.61424255,
            10.8415308
          ],
          [
            106.61431122,
            10.84148312
          ],
          [
            106.61431122,
            10.84148312
          ],
          [
            106.61431122,
            10.84148312
          ],
          [
            106.61431122,
            10.84148312
          ],
          [
            106.61424255,
            10.84154129
          ],
          [
            106.61521149,
            10.84240532
          ],
          [
            106.61545563,
            10.84233665
          ],
          [
            106.61564636,
            10.84255791
          ],
          [
            106.61555481,
            10.84286308
          ],
          [
            106.61531067,
            10.84311676
          ],
          [
            106.6150589,
            10.84336948
          ],
          [
            106.61463165,
            10.84389591
          ],
          [
            106.61430359,
            10.84442329
          ],
          [
            106.6139679,
            10.84494972
          ],
          [
            106.6136322,
            10.8454771
          ],
          [
            106.61330414,
            10.84600353
          ],
          [
            106.61335754,
            10.846035
          ],
          [
            106.61335754,
            10.846035
          ],
          [
            106.61335754,
            10.846035
          ],
          [
            106.61330414,
            10.84600925
          ],
          [
            106.61289215,
            10.84664917
          ],
          [
            106.61248016,
            10.84728909
          ],
          [
            106.61235046,
            10.84721565
          ],
          [
            106.61266327,
            10.84670925
          ],
          [
            106.61296844,
            10.8462038
          ],
          [
            106.61328125,
            10.84571934
          ],
          [
            106.61358643,
            10.84523392
          ],
          [
            106.61352539,
            10.84518719
          ],
          [
            106.61352539,
            10.84518719
          ],
          [
            106.61352539,
            10.84518719
          ],
          [
            106.61352539,
            10.84518719
          ],
          [
            106.61358643,
            10.84522343
          ],
          [
            106.61406708,
            10.84443855
          ],
          [
            106.61330414,
            10.84384346
          ],
          [
            106.6133728,
            10.8437376
          ]
        ]
      },
      "properties": {
        "feature_type": "route_path",
        "stt": 30,
        "route_id": 36,
        "route_no": "151",
        "display_code": "B 151",
        "route_name": "Bến xe Miền Tây - Bến xe An Sương",
        "direction": "Lượt đi",
        "outbound": true,
        "start_point": "Bến xe Miền Tây",
        "end_point": "Bến xe An Sương",
        "start_stop": "Bến xe Miền Tây",
        "end_stop": "Bến xe An Sương",
        "distance_km": 18.0,
        "listed_length_km": 17,
        "running_time_min": 50,
        "operating_hours": "4:00 - 20:00",
        "stroke": "#FF5722",
        "stroke_width": 4,
        "stroke_opacity": 0.85
      }
    },
    {
      "type": "Feature",
      "geometry": {
        "type": "LineString",
        "coordinates": [
          [
            106.6133728,
            10.8437376
          ],
          [
            106.61421967,
            10.8442812
          ],
          [
            106.6147995,
            10.84335899
          ],
          [
            106.6149292,
            10.8430481
          ],
          [
            106.61470795,
            10.84239483
          ],
          [
            106.61425018,
            10.84193611
          ],
          [
            106.61422729,
            10.84197807
          ],
          [
            106.61422729,
            10.84197807
          ],
          [
            106.61422729,
            10.84197807
          ],
          [
            106.61422729,
            10.84197807
          ],
          [
            106.61425018,
            10.84193611
          ],
          [
            106.61339569,
            10.84114552
          ],
          [
            106.61258698,
            10.84033966
          ],
          [
            106.61253357,
            10.84039783
          ],
          [
            106.61253357,
            10.84039783
          ],
          [
            106.61253357,
            10.84039783
          ],
          [
            106.61253357,
            10.84039783
          ],
          [
            106.61253357,
            10.84039783
          ],
          [
            106.6125946,
            10.84033489
          ],
          [
            106.61169434,
            10.83953667
          ],
          [
            106.61079407,
            10.83873844
          ],
          [
            106.6098938,
            10.83794212
          ],
          [
            106.6089859,
            10.83714676
          ],
          [
            106.60801697,
            10.83613491
          ],
          [
            106.60797119,
            10.83616734
          ],
          [
            106.60797119,
            10.83616734
          ],
          [
            106.60797119,
            10.83616734
          ],
          [
            106.60797119,
            10.83616734
          ],
          [
            106.60803223,
            10.83612442
          ],
          [
            106.60694885,
            10.83447075
          ],
          [
            106.60586548,
            10.83262062
          ],
          [
            106.60580444,
            10.83267403
          ],
          [
            106.60580444,
            10.83267403
          ],
          [
            106.60580444,
            10.83267403
          ],
          [
            106.60580444,
            10.83267403
          ],
          [
            106.60585785,
            10.83264256
          ],
          [
            106.6051178,
            10.83139896
          ],
          [
            106.60441589,
            10.83014488
          ],
          [
            106.60403442,
            10.82941246
          ],
          [
            106.60372162,
            10.82850075
          ],
          [
            106.60348511,
            10.82755756
          ],
          [
            106.60340118,
            10.82756805
          ],
          [
            106.60340118,
            10.82756805
          ],
          [
            106.60340118,
            10.82756805
          ],
          [
            106.60340118,
            10.82756805
          ],
          [
            106.60340118,
            10.82756805
          ],
          [
            106.60340118,
            10.82756805
          ],
          [
            106.60340118,
            10.82756805
          ],
          [
            106.60347748,
            10.8275423
          ],
          [
            106.60325623,
            10.82649899
          ],
          [
            106.6030426,
            10.82542896
          ],
          [
            106.60280609,
            10.82437038
          ],
          [
            106.60255432,
            10.82331085
          ],
          [
            106.60255432,
            10.82331085
          ],
          [
            106.60255432,
            10.82331085
          ],
          [
            106.60255432,
            10.82331085
          ],
          [
            106.60255432,
            10.82331085
          ],
          [
            106.60255432,
            10.82331085
          ],
          [
            106.60234833,
            10.82228088
          ],
          [
            106.60214233,
            10.82125092
          ],
          [
            106.60191345,
            10.82024193
          ],
          [
            106.60168457,
            10.81923294
          ],
          [
            106.60161591,
            10.81924343
          ],
          [
            106.60161591,
            10.81924343
          ],
          [
            106.60168457,
            10.81923294
          ],
          [
            106.60145569,
            10.81817055
          ],
          [
            106.60121918,
            10.81710911
          ],
          [
            106.6009903,
            10.81606293
          ],
          [
            106.60076904,
            10.8150177
          ],
          [
            106.60069275,
            10.81503773
          ],
          [
            106.60069275,
            10.81503773
          ],
          [
            106.60076904,
            10.81502819
          ],
          [
            106.60054016,
            10.8139658
          ],
          [
            106.60031891,
            10.81290436
          ],
          [
            106.60009766,
            10.81184578
          ],
          [
            106.59986877,
            10.81078625
          ],
          [
            106.59978485,
            10.81080723
          ],
          [
            106.59978485,
            10.81080723
          ],
          [
            106.59986115,
            10.81079674
          ],
          [
            106.59962463,
            10.8097086
          ],
          [
            106.59939575,
            10.80861568
          ],
          [
            106.59916687,
            10.80753994
          ],
          [
            106.59893036,
            10.80646515
          ],
          [
            106.59884644,
            10.80646515
          ],
          [
            106.59884644,
            10.80646515
          ],
          [
            106.59893036,
            10.80646515
          ],
          [
            106.59873962,
            10.80554771
          ],
          [
            106.59854126,
            10.80462933
          ],
          [
            106.59835052,
            10.80371094
          ],
          [
            106.59815979,
            10.80279255
          ],
          [
            106.59796906,
            10.80188465
          ],
          [
            106.59777832,
            10.80097771
          ],
          [
            106.59758759,
            10.80006981
          ],
          [
            106.59740448,
            10.79916191
          ],
          [
            106.59733582,
            10.79916668
          ],
          [
            106.59733582,
            10.79916668
          ],
          [
            106.59739685,
            10.79915714
          ],
          [
            106.59725189,
            10.79840851
          ],
          [
            106.5970993,
            10.79765987
          ],
          [
            106.5969162,
            10.79691505
          ],
          [
            106.59674072,
            10.79616928
          ],
          [
            106.59658051,
            10.79542065
          ],
          [
            106.59642792,
            10.79467297
          ],
          [
            106.59627533,
            10.79392433
          ],
          [
            106.59612274,
            10.7931757
          ],
          [
            106.59605408,
            10.79318142
          ],
          [
            106.59605408,
            10.79318142
          ],
          [
            106.59612274,
            10.79316521
          ],
          [
            106.59590912,
            10.79217243
          ],
          [
            106.59570313,
            10.7911787
          ],
          [
            106.59549713,
            10.79018593
          ],
          [
            106.59529114,
            10.7891922
          ],
          [
            106.59522247,
            10.78919697
          ],
          [
            106.59522247,
            10.78919697
          ],
          [
            106.59528351,
            10.78918743
          ],
          [
            106.59509277,
            10.78821182
          ],
          [
            106.5949173,
            10.78723717
          ],
          [
            106.59471893,
            10.78627586
          ],
          [
            106.59451294,
            10.78531361
          ],
          [
            106.5943222,
            10.78447056
          ],
          [
            106.59413147,
            10.78362751
          ],
          [
            106.59394836,
            10.78278732
          ],
          [
            106.59375763,
            10.78194618
          ],
          [
            106.59369659,
            10.7819519
          ],
          [
            106.59369659,
            10.7819519
          ],
          [
            106.59369659,
            10.7819519
          ],
          [
            106.59369659,
            10.7819519
          ],
          [
            106.59377289,
            10.7819252
          ],
          [
            106.59354401,
            10.7807579
          ],
          [
            106.5933075,
            10.77959061
          ],
          [
            106.59326172,
            10.7796011
          ],
          [
            106.59326172,
            10.7796011
          ],
          [
            106.59326172,
            10.7796011
          ],
          [
            106.59326172,
            10.7796011
          ],
          [
            106.59326172,
            10.7796011
          ],
          [
            106.59326172,
            10.7796011
          ],
          [
            106.5933075,
            10.77958584
          ],
          [
            106.59288025,
            10.77752304
          ],
          [
            106.59244537,
            10.77545929
          ],
          [
            106.59237671,
            10.7754755
          ],
          [
            106.59237671,
            10.77547646
          ],
          [
            106.59237671,
            10.77547646
          ],
          [
            106.59237671,
            10.77547646
          ],
          [
            106.59237671,
            10.77547646
          ],
          [
            106.59237671,
            10.7754755
          ],
          [
            106.59243011,
            10.77545929
          ],
          [
            106.59210205,
            10.77389431
          ],
          [
            106.59176636,
            10.77232933
          ],
          [
            106.59166718,
            10.77233982
          ],
          [
            106.59166718,
            10.77233982
          ],
          [
            106.59166718,
            10.77233982
          ],
          [
            106.59166718,
            10.77233982
          ],
          [
            106.59166718,
            10.77233982
          ],
          [
            106.59166718,
            10.77233982
          ],
          [
            106.59177399,
            10.77232361
          ],
          [
            106.59135437,
            10.77043438
          ],
          [
            106.59093475,
            10.76854515
          ],
          [
            106.59093475,
            10.76854515
          ],
          [
            106.59093475,
            10.76854515
          ],
          [
            106.59093475,
            10.76854515
          ],
          [
            106.59098053,
            10.76854038
          ],
          [
            106.59059906,
            10.76671982
          ],
          [
            106.59052277,
            10.76624012
          ],
          [
            106.59043884,
            10.76539993
          ],
          [
            106.59044647,
            10.76469994
          ],
          [
            106.59050751,
            10.76410007
          ],
          [
            106.59056854,
            10.76379013
          ],
          [
            106.59078979,
            10.76241589
          ],
          [
            106.59068298,
            10.76240063
          ],
          [
            106.59068298,
            10.76240063
          ],
          [
            106.59068298,
            10.76240063
          ],
          [
            106.59078217,
            10.76241112
          ],
          [
            106.59092712,
            10.76160336
          ],
          [
            106.59107971,
            10.76079559
          ],
          [
            106.59120941,
            10.75998783
          ],
          [
            106.59134674,
            10.75897026
          ],
          [
            106.5914917,
            10.75802612
          ],
          [
            106.5914917,
            10.75802612
          ],
          [
            106.5914917,
            10.75802612
          ],
          [
            106.5914917,
            10.75802612
          ],
          [
            106.59157562,
            10.75745964
          ],
          [
            106.59165955,
            10.75689316
          ],
          [
            106.5917511,
            10.75632954
          ],
          [
            106.59185028,
            10.75576591
          ],
          [
            106.59185028,
            10.75576591
          ],
          [
            106.59185028,
            10.75576591
          ],
          [
            106.59198761,
            10.755023
          ],
          [
            106.59211731,
            10.75427914
          ],
          [
            106.59225464,
            10.75353622
          ],
          [
            106.59239197,
            10.75279331
          ],
          [
            106.59239197,
            10.75279331
          ],
          [
            106.59239197,
            10.75279331
          ],
          [
            106.59247589,
            10.75279808
          ],
          [
            106.5928421,
            10.75125408
          ],
          [
            106.5933075,
            10.75017357
          ],
          [
            106.59536743,
            10.74689865
          ],
          [
            106.59536743,
            10.74689865
          ],
          [
            106.59536743,
            10.74689865
          ],
          [
            106.59536743,
            10.74689865
          ],
          [
            106.59605408,
            10.74586487
          ],
          [
            106.59661102,
            10.74499989
          ],
          [
            106.59706879,
            10.7442627
          ],
          [
            106.59751892,
            10.74352646
          ],
          [
            106.59751892,
            10.74352646
          ],
          [
            106.59751892,
            10.74352646
          ],
          [
            106.59806824,
            10.74264431
          ],
          [
            106.59862518,
            10.74176311
          ],
          [
            106.5991745,
            10.74088192
          ],
          [
            106.59972382,
            10.74000072
          ],
          [
            106.59972382,
            10.74000072
          ],
          [
            106.60070801,
            10.73845959
          ],
          [
            106.60172272,
            10.73686028
          ],
          [
            106.60208893,
            10.73622036
          ],
          [
            106.6020813,
            10.73620415
          ],
          [
            106.60230255,
            10.73582745
          ],
          [
            106.60248566,
            10.7354269
          ],
          [
            106.60261536,
            10.73502159
          ],
          [
            106.60268402,
            10.73460484
          ],
          [
            106.60313416,
            10.73437786
          ],
          [
            106.60359192,
            10.73407269
          ],
          [
            106.6039505,
            10.73346615
          ],
          [
            106.60383606,
            10.7334137
          ],
          [
            106.60383606,
            10.7334137
          ],
          [
            106.60394287,
            10.73346615
          ],
          [
            106.60430908,
            10.73288155
          ],
          [
            106.60467529,
            10.73230171
          ],
          [
            106.6050415,
            10.73170376
          ],
          [
            106.60540771,
            10.73110485
          ],
          [
            106.60535431,
            10.73106289
          ],
          [
            106.60535431,
            10.73106289
          ],
          [
            106.60535431,
            10.73106289
          ],
          [
            106.60541534,
            10.73110008
          ],
          [
            106.60614777,
            10.72991371
          ],
          [
            106.60690308,
            10.72872829
          ],
          [
            106.60681915,
            10.72867584
          ],
          [
            106.60681915,
            10.72867584
          ],
          [
            106.60681915,
            10.72867584
          ],
          [
            106.60689545,
            10.7287178
          ],
          [
            106.6072998,
            10.72814274
          ],
          [
            106.60760498,
            10.72832012
          ],
          [
            106.60760498,
            10.72832012
          ],
          [
            106.6089325,
            10.72914886
          ],
          [
            106.61025238,
            10.72997665
          ],
          [
            106.61025238,
            10.72997665
          ],
          [
            106.61161804,
            10.73212719
          ],
          [
            106.6129837,
            10.73427773
          ],
          [
            106.6129837,
            10.73427773
          ],
          [
            106.61394501,
            10.73590946
          ],
          [
            106.61490631,
            10.7375412
          ],
          [
            106.61490631,
            10.7375412
          ],
          [
            106.61568451,
            10.73867416
          ],
          [
            106.61686707,
            10.73966503
          ],
          [
            106.61686707,
            10.73966503
          ],
          [
            106.61686707,
            10.73966503
          ],
          [
            106.61686707,
            10.73966503
          ],
          [
            106.61686707,
            10.73966503
          ],
          [
            106.61686707,
            10.73966503
          ],
          [
            106.61679077,
            10.73972225
          ],
          [
            106.61844635,
            10.74102974
          ],
          [
            106.61856842,
            10.74085045
          ],
          [
            106.61933136,
            10.74150944
          ],
          [
            106.6195755,
            10.74120331
          ],
          [
            106.6193161,
            10.74101925
          ],
          [
            106.61979675,
            10.7404871
          ],
          [
            106.61917877,
            10.7399807
          ],
          [
            106.61953735,
            10.73956966
          ],
          [
            106.61943817,
            10.73948574
          ]
        ]
      },
      "properties": {
        "feature_type": "route_path",
        "stt": 30,
        "route_id": 36,
        "route_no": "151",
        "display_code": "B 151",
        "route_name": "Bến xe Miền Tây - Bến xe An Sương",
        "direction": "Lượt về",
        "outbound": false,
        "start_point": "Bến xe Miền Tây",
        "end_point": "Bến xe An Sương",
        "start_stop": "Bến xe An Sương",
        "end_stop": "Bến xe Miền Tây",
        "distance_km": 16.88,
        "listed_length_km": 17,
        "running_time_min": 50,
        "operating_hours": "4:00 - 20:00",
        "stroke": "#FF5722",
        "stroke_width": 4,
        "stroke_opacity": 0.85
      }
    },
    {
      "type": "Feature",
      "geometry": {
        "type": "Point",
        "coordinates": [
          106.619438,
          10.739486
        ]
      },
      "properties": {
        "feature_type": "bus_stop",
        "stop_id": 725,
        "stop_code": "BX 46",
        "stop_name": "Bến xe Miền Tây",
        "stop_type": "Bến xe",
        "route_no": "151",
        "display_code": "B 151",
        "direction": "Lượt đi",
        "address": "Bến xe Miền Tây Kinh Dương Vương",
        "street": "Kinh Dương Vương",
        "zone": "Quận Bình Tân",
        "ward": null,
        "all_routes": "10, 102, 139, 14, 148, 151, 32, 39, 41, 60-1, 91",
        "marker_color": "#FF5722"
      }
    },
    {
      "type": "Feature",
      "geometry": {
        "type": "Point",
        "coordinates": [
          106.615362,
          10.738774
        ]
      },
      "properties": {
        "feature_type": "bus_stop",
        "stop_id": 630,
        "stop_code": "QBT 014",
        "stop_name": "Bệnh viện Triều An",
        "stop_type": "Trụ dừng",
        "route_no": "151",
        "display_code": "B 151",
        "direction": "Lượt đi",
        "address": "480 (EXIMBANK) Kinh Dương Vương",
        "street": "Kinh Dương Vương",
        "zone": "Quận Bình Tân",
        "ward": "Phường An Lạc",
        "all_routes": "09, 102, 151, 25, 39, 41, 60-1, 61, 62-1, 62-10, 62-2, 62-8, 63-1, 84",
        "marker_color": "#FF5722"
      }
    },
    {
      "type": "Feature",
      "geometry": {
        "type": "Point",
        "coordinates": [
          106.613144,
          10.735138
        ]
      },
      "properties": {
        "feature_type": "bus_stop",
        "stop_id": 631,
        "stop_code": "QBT 015",
        "stop_name": "Hàng Dương",
        "stop_type": "Trụ dừng",
        "route_no": "151",
        "display_code": "B 151",
        "direction": "Lượt đi",
        "address": "548 Kinh Dương Vương",
        "street": "Kinh Dương Vương",
        "zone": "Quận Bình Tân",
        "ward": "Phường An Lạc",
        "all_routes": "09, 102, 151, 39, 60-1, 61, 62-1, 62-10, 62-2, 62-8, 63-1, 84",
        "marker_color": "#FF5722"
      }
    },
    {
      "type": "Feature",
      "geometry": {
        "type": "Point",
        "coordinates": [
          106.611028,
          10.731674
        ]
      },
      "properties": {
        "feature_type": "bus_stop",
        "stop_id": 632,
        "stop_code": "QBT 016",
        "stop_name": "SinCo",
        "stop_type": "Nhà chờ",
        "route_no": "151",
        "display_code": "B 151",
        "direction": "Lượt đi",
        "address": "Đối diện nhà trọ Thanh Trường Kinh Dương Vương",
        "street": "Kinh Dương Vương",
        "zone": "Quận Bình Tân",
        "ward": null,
        "all_routes": "09, 102, 151, 39, 60-1, 61, 62-1, 62-10, 62-2, 62-8, 63-1, 84",
        "marker_color": "#FF5722"
      }
    },
    {
      "type": "Feature",
      "geometry": {
        "type": "Point",
        "coordinates": [
          106.608276,
          10.729014
        ]
      },
      "properties": {
        "feature_type": "bus_stop",
        "stop_id": 633,
        "stop_code": "QBT 017",
        "stop_name": "Hoa hồng",
        "stop_type": "Trụ dừng",
        "route_no": "151",
        "display_code": "B 151",
        "direction": "Lượt đi",
        "address": "620 Kinh Dương Vương",
        "street": "Kinh Dương Vương",
        "zone": "Quận Bình Tân",
        "ward": "Phường An Lạc",
        "all_routes": "09, 102, 151, 39, 60-1, 61, 62-1, 62-10, 62-2, 62-8, 63-1, 84",
        "marker_color": "#FF5722"
      }
    },
    {
      "type": "Feature",
      "geometry": {
        "type": "Point",
        "coordinates": [
          106.606857,
          10.729012
        ]
      },
      "properties": {
        "feature_type": "bus_stop",
        "stop_id": 1852,
        "stop_code": "QBT 040",
        "stop_name": "Ngã tư An Lạc",
        "stop_type": "Ô sơn",
        "route_no": "151",
        "display_code": "B 151",
        "direction": "Lượt đi",
        "address": "488 Hồ Học Lãm",
        "street": "Hồ Học Lãm",
        "zone": "Quận Bình Tân",
        "ward": "Phường An Lạc",
        "all_routes": "15, 151",
        "marker_color": "#FF5722"
      }
    },
    {
      "type": "Feature",
      "geometry": {
        "type": "Point",
        "coordinates": [
          106.604934,
          10.732233
        ]
      },
      "properties": {
        "feature_type": "bus_stop",
        "stop_id": 1853,
        "stop_code": "QBT 041",
        "stop_name": "Siêu thị Big C",
        "stop_type": "Ô sơn",
        "route_no": "151",
        "display_code": "B 151",
        "direction": "Lượt đi",
        "address": "588 Hồ Học Lãm",
        "street": "Hồ Học Lãm",
        "zone": "Quận Bình Tân",
        "ward": "Phường An Lạc",
        "all_routes": "15, 151",
        "marker_color": "#FF5722"
      }
    },
    {
      "type": "Feature",
      "geometry": {
        "type": "Point",
        "coordinates": [
          106.603302,
          10.734642
        ]
      },
      "properties": {
        "feature_type": "bus_stop",
        "stop_id": 1855,
        "stop_code": "QBT 042",
        "stop_name": "Hẻm Sinco Hồ Ngọc Lãm",
        "stop_type": "Trụ dừng",
        "route_no": "151",
        "display_code": "B 151",
        "direction": "Lượt đi",
        "address": "E4/39 Hồ Học Lãm",
        "street": "Hồ Học Lãm",
        "zone": "Quận Bình Tân",
        "ward": null,
        "all_routes": "15, 151",
        "marker_color": "#FF5722"
      }
    },
    {
      "type": "Feature",
      "geometry": {
        "type": "Point",
        "coordinates": [
          106.601364,
          10.737657
        ]
      },
      "properties": {
        "feature_type": "bus_stop",
        "stop_id": 1856,
        "stop_code": "QBT 051",
        "stop_name": "Trạm Điện Quốc lộ 1A",
        "stop_type": "Ô sơn",
        "route_no": "151",
        "display_code": "B 151",
        "direction": "Lượt đi",
        "address": "1229C Quốc lộ 1A",
        "street": "Quốc lộ 1A",
        "zone": "Quận Bình Tân",
        "ward": "Phường Bình Trị Đông B",
        "all_routes": "15, 151, 60-1",
        "marker_color": "#FF5722"
      }
    },
    {
      "type": "Feature",
      "geometry": {
        "type": "Point",
        "coordinates": [
          106.598442,
          10.742307
        ]
      },
      "properties": {
        "feature_type": "bus_stop",
        "stop_id": 1854,
        "stop_code": "QBT 052",
        "stop_name": "Công ty Hai Thành",
        "stop_type": "Trụ dừng",
        "route_no": "151",
        "display_code": "B 151",
        "direction": "Lượt đi",
        "address": "E4/48 Quốc lộ 1A",
        "street": "Quốc lộ 1A",
        "zone": "Quận Bình Tân",
        "ward": null,
        "all_routes": "15, 151, 60-1",
        "marker_color": "#FF5722"
      }
    },
    {
      "type": "Feature",
      "geometry": {
        "type": "Point",
        "coordinates": [
          106.595078,
          10.747634
        ]
      },
      "properties": {
        "feature_type": "bus_stop",
        "stop_id": 1857,
        "stop_code": "QBT 053",
        "stop_name": "Công ty Pouyuen",
        "stop_type": "Nhà chờ",
        "route_no": "151",
        "display_code": "B 151",
        "direction": "Lượt đi",
        "address": "Công ty Pouyuen Quốc lộ 1A",
        "street": "Quốc lộ 1A",
        "zone": "Quận Bình Tân",
        "ward": null,
        "all_routes": "15, 151, 60-1",
        "marker_color": "#FF5722"
      }
    },
    {
      "type": "Feature",
      "geometry": {
        "type": "Point",
        "coordinates": [
          106.592692,
          10.752967
        ]
      },
      "properties": {
        "feature_type": "bus_stop",
        "stop_id": 1858,
        "stop_code": "QBT 054",
        "stop_name": "KCN Tân Tạo",
        "stop_type": "Nhà chờ",
        "route_no": "151",
        "display_code": "B 151",
        "direction": "Lượt đi",
        "address": "56 Quốc lộ 1A",
        "street": "Quốc lộ 1A",
        "zone": "Quận Bình Tân",
        "ward": null,
        "all_routes": "15, 151, 60-1",
        "marker_color": "#FF5722"
      }
    },
    {
      "type": "Feature",
      "geometry": {
        "type": "Point",
        "coordinates": [
          106.592369,
          10.755164
        ]
      },
      "properties": {
        "feature_type": "bus_stop",
        "stop_id": 1859,
        "stop_code": "QBT 055",
        "stop_name": "Nhà sách Tân Tạo",
        "stop_type": "Ô sơn",
        "route_no": "151",
        "display_code": "B 151",
        "direction": "Lượt đi",
        "address": "1157 Quốc lộ 1A",
        "street": "Quốc lộ 1A",
        "zone": "Quận Bình Tân",
        "ward": "Phường Tân Tạo",
        "all_routes": "15, 151",
        "marker_color": "#FF5722"
      }
    },
    {
      "type": "Feature",
      "geometry": {
        "type": "Point",
        "coordinates": [
          106.591858,
          10.757884
        ]
      },
      "properties": {
        "feature_type": "bus_stop",
        "stop_id": 1861,
        "stop_code": "QBT 056",
        "stop_name": "Trạm xăng số 5",
        "stop_type": "Ô sơn",
        "route_no": "151",
        "display_code": "B 151",
        "direction": "Lượt đi",
        "address": "1137 (D11/89A) Quốc lộ 1A",
        "street": "Quốc lộ 1A",
        "zone": "Quận Bình Tân",
        "ward": "Phường Tân Tạo",
        "all_routes": "15, 151, 25, 60-1",
        "marker_color": "#FF5722"
      }
    },
    {
      "type": "Feature",
      "geometry": {
        "type": "Point",
        "coordinates": [
          106.590927,
          10.763075
        ]
      },
      "properties": {
        "feature_type": "bus_stop",
        "stop_id": 1863,
        "stop_code": "QBT 057",
        "stop_name": "Chung cư Tân Mai",
        "stop_type": "Trụ dừng",
        "route_no": "151",
        "display_code": "B 151",
        "direction": "Lượt đi",
        "address": "Đối diện 952 Quốc lộ 1A",
        "street": "Quốc lộ 1A",
        "zone": "Quận Bình Tân",
        "ward": null,
        "all_routes": "15, 151, 25, 60-1",
        "marker_color": "#FF5722"
      }
    },
    {
      "type": "Feature",
      "geometry": {
        "type": "Point",
        "coordinates": [
          106.591148,
          10.768476
        ]
      },
      "properties": {
        "feature_type": "bus_stop",
        "stop_id": 1865,
        "stop_code": "QBT 058",
        "stop_name": "Hương lộ 2",
        "stop_type": "Ô sơn",
        "route_no": "151",
        "display_code": "B 151",
        "direction": "Lượt đi",
        "address": "1083A Quốc lộ 1A",
        "street": "Quốc lộ 1A",
        "zone": "Quận Bình Tân",
        "ward": null,
        "all_routes": "15, 151, 25, 60-1",
        "marker_color": "#FF5722"
      }
    },
    {
      "type": "Feature",
      "geometry": {
        "type": "Point",
        "coordinates": [
          106.591965,
          10.772055
        ]
      },
      "properties": {
        "feature_type": "bus_stop",
        "stop_id": 1893,
        "stop_code": "QBT 059",
        "stop_name": "Hương lộ 2",
        "stop_type": "Ô sơn",
        "route_no": "151",
        "display_code": "B 151",
        "direction": "Lượt đi",
        "address": "1069 Quốc lộ 1A",
        "street": "Quốc lộ 1A",
        "zone": "Quận Bình Tân",
        "ward": null,
        "all_routes": "151, 60-1",
        "marker_color": "#FF5722"
      }
    },
    {
      "type": "Feature",
      "geometry": {
        "type": "Point",
        "coordinates": [
          106.592667,
          10.77548
        ]
      },
      "properties": {
        "feature_type": "bus_stop",
        "stop_id": 1886,
        "stop_code": "QBT 060",
        "stop_name": "Ao Đôi",
        "stop_type": "Trụ dừng",
        "route_no": "151",
        "display_code": "B 151",
        "direction": "Lượt đi",
        "address": "1015 (Ao Đôi) Quốc lộ 1A",
        "street": "Quốc lộ 1A",
        "zone": "Quận Bình Tân",
        "ward": "Phường Bình Trị Đông A",
        "all_routes": "151, 60-1",
        "marker_color": "#FF5722"
      }
    },
    {
      "type": "Feature",
      "geometry": {
        "type": "Point",
        "coordinates": [
          106.593506,
          10.77957
        ]
      },
      "properties": {
        "feature_type": "bus_stop",
        "stop_id": 1887,
        "stop_code": "QBT 061",
        "stop_name": "Khu phố 1",
        "stop_type": "Ô sơn",
        "route_no": "151",
        "display_code": "B 151",
        "direction": "Lượt đi",
        "address": "853 Quốc lộ 1A",
        "street": "Quốc lộ 1A",
        "zone": "Quận Bình Tân",
        "ward": "Phường Bình Hưng Hoà A",
        "all_routes": "151, 60-1",
        "marker_color": "#FF5722"
      }
    },
    {
      "type": "Feature",
      "geometry": {
        "type": "Point",
        "coordinates": [
          106.59404,
          10.781994
        ]
      },
      "properties": {
        "feature_type": "bus_stop",
        "stop_id": 1895,
        "stop_code": "QBT 062",
        "stop_name": "Sơn Expo",
        "stop_type": "Nhà chờ",
        "route_no": "151",
        "display_code": "B 151",
        "direction": "Lượt đi",
        "address": "Sơn Expo Quốc lộ 1A",
        "street": "Quốc lộ 1A",
        "zone": "Quận Bình Tân",
        "ward": "Phường Bình Hưng Hoà A",
        "all_routes": "151, 60-1",
        "marker_color": "#FF5722"
      }
    },
    {
      "type": "Feature",
      "geometry": {
        "type": "Point",
        "coordinates": [
          106.595519,
          10.788855
        ]
      },
      "properties": {
        "feature_type": "bus_stop",
        "stop_id": 1888,
        "stop_code": "QBT 063",
        "stop_name": "Tân Kỳ Tân Quý",
        "stop_type": "Ô sơn",
        "route_no": "151",
        "display_code": "B 151",
        "direction": "Lượt đi",
        "address": "813 Quốc lộ 1A",
        "street": "Quốc lộ 1A",
        "zone": "Quận Bình Tân",
        "ward": "Phường Bình Hưng Hoà A",
        "all_routes": "151, 60-1",
        "marker_color": "#FF5722"
      }
    },
    {
      "type": "Feature",
      "geometry": {
        "type": "Point",
        "coordinates": [
          106.59612,
          10.791516
        ]
      },
      "properties": {
        "feature_type": "bus_stop",
        "stop_id": 1898,
        "stop_code": "QBT 064",
        "stop_name": "Tân Kỳ Tân Quý",
        "stop_type": "Trụ dừng",
        "route_no": "151",
        "display_code": "B 151",
        "direction": "Lượt đi",
        "address": "741 Quốc lộ 1A",
        "street": "Quốc lộ 1A",
        "zone": "Quận Bình Tân",
        "ward": "Phường Bình Hưng Hòa",
        "all_routes": "151, 60-1",
        "marker_color": "#FF5722"
      }
    },
    {
      "type": "Feature",
      "geometry": {
        "type": "Point",
        "coordinates": [
          106.597488,
          10.798193
        ]
      },
      "properties": {
        "feature_type": "bus_stop",
        "stop_id": 1892,
        "stop_code": "QBT 065",
        "stop_name": "Phát Đạt",
        "stop_type": "Trụ dừng",
        "route_no": "151",
        "display_code": "B 151",
        "direction": "Lượt đi",
        "address": "605A (601) Quốc lộ 1A",
        "street": "Quốc lộ 1A",
        "zone": "Quận Bình Tân",
        "ward": "Phường Bình Hưng Hòa",
        "all_routes": "151, 60-1",
        "marker_color": "#FF5722"
      }
    },
    {
      "type": "Feature",
      "geometry": {
        "type": "Point",
        "coordinates": [
          106.598716,
          10.804131
        ]
      },
      "properties": {
        "feature_type": "bus_stop",
        "stop_id": 1900,
        "stop_code": "QBT 066",
        "stop_name": "Trạm cân số 1",
        "stop_type": "Ô sơn",
        "route_no": "151",
        "display_code": "B 151",
        "direction": "Lượt đi",
        "address": "497 Quốc lộ 1A",
        "street": "Quốc lộ 1A",
        "zone": "Quận Bình Tân",
        "ward": "Phường Bình Hưng Hòa",
        "all_routes": "151, 60-1",
        "marker_color": "#FF5722"
      }
    },
    {
      "type": "Feature",
      "geometry": {
        "type": "Point",
        "coordinates": [
          106.599323,
          10.806871
        ]
      },
      "properties": {
        "feature_type": "bus_stop",
        "stop_id": 1894,
        "stop_code": "QBT 067",
        "stop_name": "Khu phố 3 (T H P)",
        "stop_type": "Ô sơn",
        "route_no": "151",
        "display_code": "B 151",
        "direction": "Lượt đi",
        "address": "461 Quốc lộ 1A",
        "street": "Quốc lộ 1A",
        "zone": "Quận Bình Tân",
        "ward": "Phường Bình Hưng Hòa",
        "all_routes": "151, 60-1",
        "marker_color": "#FF5722"
      }
    },
    {
      "type": "Feature",
      "geometry": {
        "type": "Point",
        "coordinates": [
          106.600412,
          10.811935
        ]
      },
      "properties": {
        "feature_type": "bus_stop",
        "stop_id": 1902,
        "stop_code": "QBT 068",
        "stop_name": "Cửa hàng Thảo Vân (Thành Vịnh)",
        "stop_type": "Ô sơn",
        "route_no": "151",
        "display_code": "B 151",
        "direction": "Lượt đi",
        "address": "383 Quốc lộ 1A",
        "street": "Quốc lộ 1A",
        "zone": "Quận Bình Tân",
        "ward": "Phường Bình Hưng Hòa",
        "all_routes": "151, 60-1",
        "marker_color": "#FF5722"
      }
    },
    {
      "type": "Feature",
      "geometry": {
        "type": "Point",
        "coordinates": [
          106.600996,
          10.814696
        ]
      },
      "properties": {
        "feature_type": "bus_stop",
        "stop_id": 1896,
        "stop_code": "QBT 069",
        "stop_name": "Gò Mây",
        "stop_type": "Trụ dừng",
        "route_no": "151",
        "display_code": "B 151",
        "direction": "Lượt đi",
        "address": "253 Quốc lộ 1A",
        "street": "Quốc lộ 1A",
        "zone": "Quận Bình Tân",
        "ward": "Phường Bình Hưng Hòa",
        "all_routes": "151, 60-1",
        "marker_color": "#FF5722"
      }
    },
    {
      "type": "Feature",
      "geometry": {
        "type": "Point",
        "coordinates": [
          106.601593,
          10.817604
        ]
      },
      "properties": {
        "feature_type": "bus_stop",
        "stop_id": 1904,
        "stop_code": "QBT 070",
        "stop_name": "Hội quán (Sài Gòn JSC) ",
        "stop_type": "Trụ dừng",
        "route_no": "151",
        "display_code": "B 151",
        "direction": "Lượt đi",
        "address": "171 (Tạp phẩm Sài Gòn) Quốc lộ 1A",
        "street": "Quốc lộ 1A",
        "zone": "Quận Bình Tân",
        "ward": "Phường Bình Hưng Hòa",
        "all_routes": "151, 60-1",
        "marker_color": "#FF5722"
      }
    },
    {
      "type": "Feature",
      "geometry": {
        "type": "Point",
        "coordinates": [
          106.602333,
          10.820871
        ]
      },
      "properties": {
        "feature_type": "bus_stop",
        "stop_id": 1897,
        "stop_code": "QBT 071",
        "stop_name": "Nồi Hơi",
        "stop_type": "Trụ dừng",
        "route_no": "151",
        "display_code": "B 151",
        "direction": "Lượt đi",
        "address": "117 Quốc lộ 1A",
        "street": "Quốc lộ 1A",
        "zone": "Quận Bình Tân",
        "ward": "Phường Bình Hưng Hòa",
        "all_routes": "151, 60-1",
        "marker_color": "#FF5722"
      }
    },
    {
      "type": "Feature",
      "geometry": {
        "type": "Point",
        "coordinates": [
          106.602783,
          10.823305
        ]
      },
      "properties": {
        "feature_type": "bus_stop",
        "stop_id": 1906,
        "stop_code": "QBT 072",
        "stop_name": "Quang Châu",
        "stop_type": "Ô sơn",
        "route_no": "151",
        "display_code": "B 151",
        "direction": "Lượt đi",
        "address": "19-21 Quốc lộ 1A",
        "street": "Quốc lộ 1A",
        "zone": "Quận Bình Tân",
        "ward": "Phường Bình Hưng Hòa",
        "all_routes": "151",
        "marker_color": "#FF5722"
      }
    },
    {
      "type": "Feature",
      "geometry": {
        "type": "Point",
        "coordinates": [
          106.603855,
          10.827779
        ]
      },
      "properties": {
        "feature_type": "bus_stop",
        "stop_id": 1899,
        "stop_code": "Q12 089",
        "stop_name": "Lộc Ích",
        "stop_type": "Nhà chờ",
        "route_no": "151",
        "display_code": "B 151",
        "direction": "Lượt đi",
        "address": "168 Quốc lộ 1A",
        "street": "Quốc lộ 1A",
        "zone": "Quận 12",
        "ward": null,
        "all_routes": "151, 60-1",
        "marker_color": "#FF5722"
      }
    },
    {
      "type": "Feature",
      "geometry": {
        "type": "Point",
        "coordinates": [
          106.606559,
          10.833269
        ]
      },
      "properties": {
        "feature_type": "bus_stop",
        "stop_id": 1908,
        "stop_code": "Q12 090",
        "stop_name": "Ngã tư Bà Điểm",
        "stop_type": "Trụ dừng",
        "route_no": "151",
        "display_code": "B 151",
        "direction": "Lượt đi",
        "address": "2945 (19/7F) Quốc lộ 1A",
        "street": "Quốc lộ 1A",
        "zone": "Quận 12",
        "ward": null,
        "all_routes": "151, 60-1",
        "marker_color": "#FF5722"
      }
    },
    {
      "type": "Feature",
      "geometry": {
        "type": "Point",
        "coordinates": [
          106.607616,
          10.834981
        ]
      },
      "properties": {
        "feature_type": "bus_stop",
        "stop_id": 1901,
        "stop_code": "Q12 091",
        "stop_name": "Qua ngã tư Bà Điểm",
        "stop_type": "Trụ dừng",
        "route_no": "151",
        "display_code": "B 151",
        "direction": "Lượt đi",
        "address": "2879 Quốc lộ 1A",
        "street": "Quốc lộ 1A",
        "zone": "Quận 12",
        "ward": null,
        "all_routes": "151",
        "marker_color": "#FF5722"
      }
    },
    {
      "type": "Feature",
      "geometry": {
        "type": "Point",
        "coordinates": [
          106.610202,
          10.83789
        ]
      },
      "properties": {
        "feature_type": "bus_stop",
        "stop_id": 1910,
        "stop_code": "Q12 092",
        "stop_name": "Trạm Rác",
        "stop_type": "Trụ dừng",
        "route_no": "151",
        "display_code": "B 151",
        "direction": "Lượt đi",
        "address": "88/1 Quốc lộ 1A",
        "street": "Quốc lộ 1A",
        "zone": "Quận 12",
        "ward": null,
        "all_routes": "151, 60-1",
        "marker_color": "#FF5722"
      }
    },
    {
      "type": "Feature",
      "geometry": {
        "type": "Point",
        "coordinates": [
          106.612304,
          10.839755
        ]
      },
      "properties": {
        "feature_type": "bus_stop",
        "stop_id": 1903,
        "stop_code": "Q12 093",
        "stop_name": "Trạm măng",
        "stop_type": "Trụ dừng",
        "route_no": "151",
        "display_code": "B 151",
        "direction": "Lượt đi",
        "address": "2797 Quốc lộ 1A",
        "street": "Quốc lộ 1A",
        "zone": "Quận 12",
        "ward": null,
        "all_routes": "151, 60-1",
        "marker_color": "#FF5722"
      }
    },
    {
      "type": "Feature",
      "geometry": {
        "type": "Point",
        "coordinates": [
          106.614311,
          10.841483
        ]
      },
      "properties": {
        "feature_type": "bus_stop",
        "stop_id": 1905,
        "stop_code": "Q12 094",
        "stop_name": "Cầu vượt ngã tư An Sương",
        "stop_type": "Trụ dừng",
        "route_no": "151",
        "display_code": "B 151",
        "direction": "Lượt đi",
        "address": "10P Quốc lộ 1A",
        "street": "Quốc lộ 1A",
        "zone": "Quận 12",
        "ward": null,
        "all_routes": "151",
        "marker_color": "#FF5722"
      }
    },
    {
      "type": "Feature",
      "geometry": {
        "type": "Point",
        "coordinates": [
          106.613361,
          10.846035
        ]
      },
      "properties": {
        "feature_type": "bus_stop",
        "stop_id": 1116,
        "stop_code": "Q12 123",
        "stop_name": "Bến xe An Sương",
        "stop_type": "Trụ dừng",
        "route_no": "151",
        "display_code": "B 151",
        "direction": "Lượt đi",
        "address": "142 Quốc lộ 22",
        "street": "Quốc lộ 22",
        "zone": "Quận 12",
        "ward": null,
        "all_routes": "151, 27, 41, 65, 71",
        "marker_color": "#FF5722"
      }
    },
    {
      "type": "Feature",
      "geometry": {
        "type": "Point",
        "coordinates": [
          106.613522,
          10.845187
        ]
      },
      "properties": {
        "feature_type": "bus_stop",
        "stop_id": 1239,
        "stop_code": "HHM 058",
        "stop_name": "Bến xe An Sương",
        "stop_type": "Trụ dừng",
        "route_no": "151",
        "display_code": "B 151",
        "direction": "Lượt đi",
        "address": "1B Quốc lộ 22",
        "street": "Quốc lộ 22",
        "zone": "Huyện Hóc Môn",
        "ward": "Xã Bà Điểm",
        "all_routes": "04, 104, 122, 13, 145, 151, 33, 41, 61-3, 62-5, 65, 71, 74, 85, 94",
        "marker_color": "#FF5722"
      }
    },
    {
      "type": "Feature",
      "geometry": {
        "type": "Point",
        "coordinates": [
          106.61337280273438,
          10.843737602233887
        ]
      },
      "properties": {
        "feature_type": "bus_stop",
        "stop_id": 166,
        "stop_code": "BX41",
        "stop_name": "Bến xe An Sương",
        "stop_type": "Bến xe",
        "route_no": "151",
        "display_code": "B 151",
        "direction": "Lượt đi",
        "address": "Bến xe An Sương Quốc lộ 22",
        "street": "Quốc lộ 22",
        "zone": "Quận 12",
        "ward": null,
        "all_routes": "04, 104, 122, 151, 27, 33, 41, 61-3, 62-5, 65, 71, 74, 85",
        "marker_color": "#FF5722"
      }
    },
    {
      "type": "Feature",
      "geometry": {
        "type": "Point",
        "coordinates": [
          106.614225,
          10.841978
        ]
      },
      "properties": {
        "feature_type": "bus_stop",
        "stop_id": 3843,
        "stop_code": "HHM 0160",
        "stop_name": "cầu vượt An Sương",
        "stop_type": "Trụ dừng",
        "route_no": "151",
        "display_code": "B 151",
        "direction": "Lượt về",
        "address": "45/8C Quốc lộ 1A",
        "street": "Quốc lộ 1A",
        "zone": "Huyện Hóc Môn",
        "ward": "Xã Bà Điểm",
        "all_routes": "151, 60-1",
        "marker_color": "#FF5722"
      }
    },
    {
      "type": "Feature",
      "geometry": {
        "type": "Point",
        "coordinates": [
          106.612535,
          10.840398
        ]
      },
      "properties": {
        "feature_type": "bus_stop",
        "stop_id": 1926,
        "stop_code": "HHM 017",
        "stop_name": "Trạm măng",
        "stop_type": "Trụ dừng",
        "route_no": "151",
        "display_code": "B 151",
        "direction": "Lượt về",
        "address": "41/1B Quốc lộ 1A",
        "street": "Quốc lộ 1A",
        "zone": "Huyện Hóc Môn",
        "ward": "Xã Bà Điểm",
        "all_routes": "151, 60-1",
        "marker_color": "#FF5722"
      }
    },
    {
      "type": "Feature",
      "geometry": {
        "type": "Point",
        "coordinates": [
          106.60797,
          10.836167
        ]
      },
      "properties": {
        "feature_type": "bus_stop",
        "stop_id": 1921,
        "stop_code": "HHM 018",
        "stop_name": "Hồng Mộc",
        "stop_type": "Trụ dừng",
        "route_no": "151",
        "display_code": "B 151",
        "direction": "Lượt về",
        "address": "59/2A Quốc lộ 1A",
        "street": "Quốc lộ 1A",
        "zone": "Huyện Hóc Môn",
        "ward": "Xã Bà Điểm",
        "all_routes": "151, 60-1",
        "marker_color": "#FF5722"
      }
    },
    {
      "type": "Feature",
      "geometry": {
        "type": "Point",
        "coordinates": [
          106.605804,
          10.832674
        ]
      },
      "properties": {
        "feature_type": "bus_stop",
        "stop_id": 1928,
        "stop_code": "HHM 019",
        "stop_name": "Ngã tư Bà Điểm",
        "stop_type": "Trụ dừng",
        "route_no": "151",
        "display_code": "B 151",
        "direction": "Lượt về",
        "address": "57/7B Quốc lộ 1A",
        "street": "Quốc lộ 1A",
        "zone": "Huyện Hóc Môn",
        "ward": "Xã Bà Điểm",
        "all_routes": "151, 60-1",
        "marker_color": "#FF5722"
      }
    },
    {
      "type": "Feature",
      "geometry": {
        "type": "Point",
        "coordinates": [
          106.6034,
          10.827568
        ]
      },
      "properties": {
        "feature_type": "bus_stop",
        "stop_id": 4750,
        "stop_code": "HHM 021",
        "stop_name": "Công ty Lộc Ích",
        "stop_type": "Nhà chờ",
        "route_no": "151",
        "display_code": "B 151",
        "direction": "Lượt về",
        "address": "Đối diện Công ty Lộc Ích Quốc lộ 1A",
        "street": "Quốc lộ 1A",
        "zone": "Huyện Hóc Môn",
        "ward": "Xã Bà Điểm",
        "all_routes": "151",
        "marker_color": "#FF5722"
      }
    },
    {
      "type": "Feature",
      "geometry": {
        "type": "Point",
        "coordinates": [
          106.602554,
          10.823311
        ]
      },
      "properties": {
        "feature_type": "bus_stop",
        "stop_id": 1930,
        "stop_code": "QBT 073",
        "stop_name": "Quang Châu",
        "stop_type": "Ô sơn",
        "route_no": "151",
        "display_code": "B 151",
        "direction": "Lượt về",
        "address": "5/30K (SỐ 6) Quốc lộ 1A",
        "street": "Quốc lộ 1A",
        "zone": "Quận Bình Tân",
        "ward": "Phường Bình Hưng Hoà B",
        "all_routes": "151, 60-1",
        "marker_color": "#FF5722"
      }
    },
    {
      "type": "Feature",
      "geometry": {
        "type": "Point",
        "coordinates": [
          106.601619,
          10.819243
        ]
      },
      "properties": {
        "feature_type": "bus_stop",
        "stop_id": 1923,
        "stop_code": "QBT 074",
        "stop_name": "Vĩ Phong",
        "stop_type": "Trụ dừng",
        "route_no": "151",
        "display_code": "B 151",
        "direction": "Lượt về",
        "address": "136 Quốc lộ 1A",
        "street": "Quốc lộ 1A",
        "zone": "Quận Bình Tân",
        "ward": "Phường Bình Hưng Hoà B",
        "all_routes": "151",
        "marker_color": "#FF5722"
      }
    },
    {
      "type": "Feature",
      "geometry": {
        "type": "Point",
        "coordinates": [
          106.600696,
          10.815038
        ]
      },
      "properties": {
        "feature_type": "bus_stop",
        "stop_id": 1932,
        "stop_code": "QBT 075",
        "stop_name": "Gò Mây",
        "stop_type": "Trụ dừng",
        "route_no": "151",
        "display_code": "B 151",
        "direction": "Lượt về",
        "address": "230 Quốc lộ 1A",
        "street": "Quốc lộ 1A",
        "zone": "Quận Bình Tân",
        "ward": "Phường Bình Hưng Hoà B",
        "all_routes": "151, 60-1",
        "marker_color": "#FF5722"
      }
    },
    {
      "type": "Feature",
      "geometry": {
        "type": "Point",
        "coordinates": [
          106.599784,
          10.810807
        ]
      },
      "properties": {
        "feature_type": "bus_stop",
        "stop_id": 1934,
        "stop_code": "QBT 077",
        "stop_name": "Hương Quê",
        "stop_type": "Ô sơn",
        "route_no": "151",
        "display_code": "B 151",
        "direction": "Lượt về",
        "address": "320 Quốc lộ 1A",
        "street": "Quốc lộ 1A",
        "zone": "Quận Bình Tân",
        "ward": "Phường Bình Hưng Hoà B",
        "all_routes": "151, 60-1",
        "marker_color": "#FF5722"
      }
    },
    {
      "type": "Feature",
      "geometry": {
        "type": "Point",
        "coordinates": [
          106.59885,
          10.806465
        ]
      },
      "properties": {
        "feature_type": "bus_stop",
        "stop_id": 1927,
        "stop_code": "QBT 076",
        "stop_name": "Phú Cường",
        "stop_type": "Ô sơn",
        "route_no": "151",
        "display_code": "B 151",
        "direction": "Lượt về",
        "address": "386 Quốc lộ 1A",
        "street": "Quốc lộ 1A",
        "zone": "Quận Bình Tân",
        "ward": "Phường Bình Hưng Hoà B",
        "all_routes": "151, 60-1",
        "marker_color": "#FF5722"
      }
    },
    {
      "type": "Feature",
      "geometry": {
        "type": "Point",
        "coordinates": [
          106.597338,
          10.799167
        ]
      },
      "properties": {
        "feature_type": "bus_stop",
        "stop_id": 1929,
        "stop_code": "QBT 078",
        "stop_name": "Phát Đạt",
        "stop_type": "Trụ dừng",
        "route_no": "151",
        "display_code": "B 151",
        "direction": "Lượt về",
        "address": "502 Quốc lộ 1A",
        "street": "Quốc lộ 1A",
        "zone": "Quận Bình Tân",
        "ward": "Phường Bình Hưng Hoà B",
        "all_routes": "151, 60-1",
        "marker_color": "#FF5722"
      }
    },
    {
      "type": "Feature",
      "geometry": {
        "type": "Point",
        "coordinates": [
          106.596056,
          10.793181
        ]
      },
      "properties": {
        "feature_type": "bus_stop",
        "stop_id": 1937,
        "stop_code": "QBT 079",
        "stop_name": "Khu phố 5",
        "stop_type": "Trụ dừng",
        "route_no": "151",
        "display_code": "B 151",
        "direction": "Lượt về",
        "address": "576 Quốc lộ 1A",
        "street": "Quốc lộ 1A",
        "zone": "Quận Bình Tân",
        "ward": "Phường Bình Hưng Hoà B",
        "all_routes": "151, 60-1",
        "marker_color": "#FF5722"
      }
    },
    {
      "type": "Feature",
      "geometry": {
        "type": "Point",
        "coordinates": [
          106.595219,
          10.789197
        ]
      },
      "properties": {
        "feature_type": "bus_stop",
        "stop_id": 1931,
        "stop_code": "QBT 080",
        "stop_name": "Tân Kỳ Tân Quý (Hoàng Gia Phát)",
        "stop_type": "Trụ dừng",
        "route_no": "151",
        "display_code": "B 151",
        "direction": "Lượt về",
        "address": "642 Quốc lộ 1A",
        "street": "Quốc lộ 1A",
        "zone": "Quận Bình Tân",
        "ward": "Phường Bình Hưng Hoà B",
        "all_routes": "151, 60-1",
        "marker_color": "#FF5722"
      }
    },
    {
      "type": "Feature",
      "geometry": {
        "type": "Point",
        "coordinates": [
          106.593697,
          10.781952
        ]
      },
      "properties": {
        "feature_type": "bus_stop",
        "stop_id": 1939,
        "stop_code": "QBT 081",
        "stop_name": "Thiên Phúc Học",
        "stop_type": "Nhà chờ",
        "route_no": "151",
        "display_code": "B 151",
        "direction": "Lượt về",
        "address": "734 (kế 738) Quốc lộ 1A",
        "street": "Quốc lộ 1A",
        "zone": "Quận Bình Tân",
        "ward": "Phường Bình Hưng Hoà B",
        "all_routes": "151, 60-1",
        "marker_color": "#FF5722"
      }
    },
    {
      "type": "Feature",
      "geometry": {
        "type": "Point",
        "coordinates": [
          106.593262,
          10.779601
        ]
      },
      "properties": {
        "feature_type": "bus_stop",
        "stop_id": 1941,
        "stop_code": "QBT 082",
        "stop_name": "Ao Đôi",
        "stop_type": "Ô sơn",
        "route_no": "151",
        "display_code": "B 151",
        "direction": "Lượt về",
        "address": "790 (Đối diện Ao Đôi) Quốc lộ 1A",
        "street": "Quốc lộ 1A",
        "zone": "Quận Bình Tân",
        "ward": null,
        "all_routes": "151, 60-1",
        "marker_color": "#FF5722"
      }
    },
    {
      "type": "Feature",
      "geometry": {
        "type": "Point",
        "coordinates": [
          106.592377,
          10.775476
        ]
      },
      "properties": {
        "feature_type": "bus_stop",
        "stop_id": 1933,
        "stop_code": "QBT 083",
        "stop_name": "Hương lộ 2",
        "stop_type": "Trụ dừng",
        "route_no": "151",
        "display_code": "B 151",
        "direction": "Lượt về",
        "address": "854 Quốc lộ 1A",
        "street": "Quốc lộ 1A",
        "zone": "Quận Bình Tân",
        "ward": null,
        "all_routes": "151, 60-1",
        "marker_color": "#FF5722"
      }
    },
    {
      "type": "Feature",
      "geometry": {
        "type": "Point",
        "coordinates": [
          106.591667,
          10.77234
        ]
      },
      "properties": {
        "feature_type": "bus_stop",
        "stop_id": 1935,
        "stop_code": "QBT 084",
        "stop_name": "Qua ngã tư Hương lộ 2",
        "stop_type": "Trụ dừng",
        "route_no": "151",
        "display_code": "B 151",
        "direction": "Lượt về",
        "address": "892 Quốc lộ 1A",
        "street": "Quốc lộ 1A",
        "zone": "Quận Bình Tân",
        "ward": "Phường Bình Trị Đông A",
        "all_routes": "151, 60-1",
        "marker_color": "#FF5722"
      }
    },
    {
      "type": "Feature",
      "geometry": {
        "type": "Point",
        "coordinates": [
          106.590935,
          10.768545
        ]
      },
      "properties": {
        "feature_type": "bus_stop",
        "stop_id": 1789,
        "stop_code": "QBT 085",
        "stop_name": "Nghĩa trang Bình TÂn",
        "stop_type": "Trụ dừng",
        "route_no": "151",
        "display_code": "B 151",
        "direction": "Lượt về",
        "address": "950 Quốc lộ 1A",
        "street": "Quốc lộ 1A",
        "zone": "Quận Bình Tân",
        "ward": null,
        "all_routes": "15, 151, 25, 60-1",
        "marker_color": "#FF5722"
      }
    },
    {
      "type": "Feature",
      "geometry": {
        "type": "Point",
        "coordinates": [
          106.590683,
          10.762401
        ]
      },
      "properties": {
        "feature_type": "bus_stop",
        "stop_id": 1788,
        "stop_code": "QBT 086",
        "stop_name": "Bà Hom",
        "stop_type": "Trụ dừng",
        "route_no": "151",
        "display_code": "B 151",
        "direction": "Lượt về",
        "address": "950 Quốc lộ 1A",
        "street": "Quốc lộ 1A",
        "zone": "Quận Bình Tân",
        "ward": "Phường Tân Tạo",
        "all_routes": "15, 151, 25, 60-1",
        "marker_color": "#FF5722"
      }
    },
    {
      "type": "Feature",
      "geometry": {
        "type": "Point",
        "coordinates": [
          106.591492,
          10.758026
        ]
      },
      "properties": {
        "feature_type": "bus_stop",
        "stop_id": 1791,
        "stop_code": "QBT 087",
        "stop_name": "Tỉnh lộ 10",
        "stop_type": "Trụ dừng",
        "route_no": "151",
        "display_code": "B 151",
        "direction": "Lượt về",
        "address": "978A Quốc lộ 1A",
        "street": "Quốc lộ 1A",
        "zone": "Quận Bình Tân",
        "ward": "Phường Tân Tạo",
        "all_routes": "15, 151, 25, 60-1",
        "marker_color": "#FF5722"
      }
    },
    {
      "type": "Feature",
      "geometry": {
        "type": "Point",
        "coordinates": [
          106.591848,
          10.755766
        ]
      },
      "properties": {
        "feature_type": "bus_stop",
        "stop_id": 10068,
        "stop_code": "QBT 328",
        "stop_name": "Nhà sách Tân Tạo",
        "stop_type": "Trụ dừng",
        "route_no": "151",
        "display_code": "B 151",
        "direction": "Lượt về",
        "address": "1024 Lê Đức Anh",
        "street": "Lê Đức Anh",
        "zone": "Quận Bình Tân",
        "ward": "Phường Tân Tạo",
        "all_routes": "15, 151, 60-1, 73",
        "marker_color": "#FF5722"
      }
    },
    {
      "type": "Feature",
      "geometry": {
        "type": "Point",
        "coordinates": [
          106.592392,
          10.752793
        ]
      },
      "properties": {
        "feature_type": "bus_stop",
        "stop_id": 1790,
        "stop_code": "QBT 088",
        "stop_name": "Khu Công nghiệp Tân Tạo",
        "stop_type": "Nhà chờ",
        "route_no": "151",
        "display_code": "B 151",
        "direction": "Lượt về",
        "address": "1054B (số cũ 666) Quốc lộ 1A",
        "street": "Quốc lộ 1A",
        "zone": "Quận Bình Tân",
        "ward": "Phường Tân Tạo",
        "all_routes": "15, 151, 60-1, 73",
        "marker_color": "#FF5722"
      }
    },
    {
      "type": "Feature",
      "geometry": {
        "type": "Point",
        "coordinates": [
          106.595367,
          10.746899
        ]
      },
      "properties": {
        "feature_type": "bus_stop",
        "stop_id": 1792,
        "stop_code": "QBT 089",
        "stop_name": "Công ty Pouyuen",
        "stop_type": "Nhà chờ",
        "route_no": "151",
        "display_code": "B 151",
        "direction": "Lượt về",
        "address": "Đối diện Pouyen (1054N) Quốc lộ 1A",
        "street": "Quốc lộ 1A",
        "zone": "Quận Bình Tân",
        "ward": "Phường Tân Tạo",
        "all_routes": "15, 151, 60-1",
        "marker_color": "#FF5722"
      }
    },
    {
      "type": "Feature",
      "geometry": {
        "type": "Point",
        "coordinates": [
          106.597519,
          10.743526
        ]
      },
      "properties": {
        "feature_type": "bus_stop",
        "stop_id": 1793,
        "stop_code": "QBT 090",
        "stop_name": "Công ty Hai Thành",
        "stop_type": "Trụ dừng",
        "route_no": "151",
        "display_code": "B 151",
        "direction": "Lượt về",
        "address": "A5/13Q (1054N) Quốc lộ 1A",
        "street": "Quốc lộ 1A",
        "zone": "Quận Bình Tân",
        "ward": "Phường Tân Tạo A",
        "all_routes": "15, 151, 60-1",
        "marker_color": "#FF5722"
      }
    },
    {
      "type": "Feature",
      "geometry": {
        "type": "Point",
        "coordinates": [
          106.599724,
          10.740001
        ]
      },
      "properties": {
        "feature_type": "bus_stop",
        "stop_id": 1794,
        "stop_code": "QBT 091",
        "stop_name": "Trạm Điện Quốc lộ 1A",
        "stop_type": "Trụ dừng",
        "route_no": "151",
        "display_code": "B 151",
        "direction": "Lượt về",
        "address": "A5/3Q Quốc lộ 1A",
        "street": "Quốc lộ 1A",
        "zone": "Quận Bình Tân",
        "ward": "Phường Tân Tạo A",
        "all_routes": "15, 151, 60-1",
        "marker_color": "#FF5722"
      }
    },
    {
      "type": "Feature",
      "geometry": {
        "type": "Point",
        "coordinates": [
          106.602081,
          10.736204
        ]
      },
      "properties": {
        "feature_type": "bus_stop",
        "stop_id": 1795,
        "stop_code": "QBT 092",
        "stop_name": "Công an Quận Bình Tân",
        "stop_type": "Trụ dừng",
        "route_no": "151",
        "display_code": "B 151",
        "direction": "Lượt về",
        "address": "1054 (Quán ăn Xa lộ) Quốc lộ 1A",
        "street": "Quốc lộ 1A",
        "zone": "Quận Bình Tân",
        "ward": null,
        "all_routes": "15, 151, 60-1",
        "marker_color": "#FF5722"
      }
    },
    {
      "type": "Feature",
      "geometry": {
        "type": "Point",
        "coordinates": [
          106.603839,
          10.733414
        ]
      },
      "properties": {
        "feature_type": "bus_stop",
        "stop_id": 7177,
        "stop_code": "QBT 284",
        "stop_name": "Hồ Học Lãm",
        "stop_type": "Trụ dừng",
        "route_no": "151",
        "display_code": "B 151",
        "direction": "Lượt về",
        "address": "Siêu thị Big C Hồ Học Lãm",
        "street": "Hồ Học Lãm",
        "zone": "Quận Bình Tân",
        "ward": "Phường An Lạc",
        "all_routes": "15, 151",
        "marker_color": "#FF5722"
      }
    },
    {
      "type": "Feature",
      "geometry": {
        "type": "Point",
        "coordinates": [
          106.605358,
          10.731063
        ]
      },
      "properties": {
        "feature_type": "bus_stop",
        "stop_id": 1797,
        "stop_code": "QBT 043",
        "stop_name": "Siêu thị Big C",
        "stop_type": "Trụ dừng",
        "route_no": "151",
        "display_code": "B 151",
        "direction": "Lượt về",
        "address": "Siêu thị Big C Hồ Học Lãm",
        "street": "Hồ Học Lãm",
        "zone": "Quận Bình Tân",
        "ward": "Phường An Lạc",
        "all_routes": "15, 151",
        "marker_color": "#FF5722"
      }
    },
    {
      "type": "Feature",
      "geometry": {
        "type": "Point",
        "coordinates": [
          106.606819,
          10.728676
        ]
      },
      "properties": {
        "feature_type": "bus_stop",
        "stop_id": 1796,
        "stop_code": "QBT 044",
        "stop_name": "Ngã tư An Lạc",
        "stop_type": "Trụ dừng",
        "route_no": "151",
        "display_code": "B 151",
        "direction": "Lượt về",
        "address": "551 Hồ Học Lãm",
        "street": "Hồ Học Lãm",
        "zone": "Quận Bình Tân",
        "ward": "Phường An Lạc",
        "all_routes": "15, 151",
        "marker_color": "#FF5722"
      }
    },
    {
      "type": "Feature",
      "geometry": {
        "type": "Point",
        "coordinates": [
          106.607605,
          10.72832
        ]
      },
      "properties": {
        "feature_type": "bus_stop",
        "stop_id": 709,
        "stop_code": "QBT 003",
        "stop_name": "Hàng Dương",
        "stop_type": "Trụ dừng",
        "route_no": "151",
        "display_code": "B 151",
        "direction": "Lượt về",
        "address": "703 Kinh Dương Vương",
        "street": "Kinh Dương Vương",
        "zone": "Quận Bình Tân",
        "ward": "Phường An Lạc",
        "all_routes": "09, 102, 151, 39, 60-1, 61, 62-1, 62-10, 62-2, 62-8, 63-1, 84",
        "marker_color": "#FF5722"
      }
    },
    {
      "type": "Feature",
      "geometry": {
        "type": "Point",
        "coordinates": [
          106.610255,
          10.729977
        ]
      },
      "properties": {
        "feature_type": "bus_stop",
        "stop_id": 714,
        "stop_code": "QBT 004",
        "stop_name": "Ủy ban",
        "stop_type": "Trụ dừng",
        "route_no": "151",
        "display_code": "B 151",
        "direction": "Lượt về",
        "address": "631-637 Kinh Dương Vương",
        "street": "Kinh Dương Vương",
        "zone": "Quận Bình Tân",
        "ward": "Phường An Lạc",
        "all_routes": "09, 102, 151, 39, 60-1, 61, 62-1, 62-10, 62-2, 62-8, 63-1, 84",
        "marker_color": "#FF5722"
      }
    },
    {
      "type": "Feature",
      "geometry": {
        "type": "Point",
        "coordinates": [
          106.61298,
          10.734278
        ]
      },
      "properties": {
        "feature_type": "bus_stop",
        "stop_id": 710,
        "stop_code": "QBT 005",
        "stop_name": "Lâm Thành",
        "stop_type": "Trụ dừng",
        "route_no": "151",
        "display_code": "B 151",
        "direction": "Lượt về",
        "address": "289(561) Kinh Dương Vương",
        "street": "Kinh Dương Vương",
        "zone": "Quận Bình Tân",
        "ward": "Phường An Lạc",
        "all_routes": "09, 102, 151, 39, 60-1, 61, 62-1, 62-10, 62-2, 62-8, 63-1, 84",
        "marker_color": "#FF5722"
      }
    },
    {
      "type": "Feature",
      "geometry": {
        "type": "Point",
        "coordinates": [
          106.614906,
          10.737541
        ]
      },
      "properties": {
        "feature_type": "bus_stop",
        "stop_id": 716,
        "stop_code": "QBT 006",
        "stop_name": "Tên Lửa",
        "stop_type": "Trụ dừng",
        "route_no": "151",
        "display_code": "B 151",
        "direction": "Lượt về",
        "address": "251(511) Kinh Dương Vương",
        "street": "Kinh Dương Vương",
        "zone": "Quận Bình Tân",
        "ward": "Phường An Lạc",
        "all_routes": "09, 102, 151, 39, 60-1, 61, 62-1, 62-10, 62-2, 62-8, 63-1, 84",
        "marker_color": "#FF5722"
      }
    },
    {
      "type": "Feature",
      "geometry": {
        "type": "Point",
        "coordinates": [
          106.61687,
          10.739665
        ]
      },
      "properties": {
        "feature_type": "bus_stop",
        "stop_id": 713,
        "stop_code": "QBT 007",
        "stop_name": "Bệnh viện Triều An",
        "stop_type": "Nhà chờ",
        "route_no": "151",
        "display_code": "B 151",
        "direction": "Lượt về",
        "address": "Bệnh viện Triều An Kinh Dương Vương",
        "street": "Kinh Dương Vương",
        "zone": "Quận Bình Tân",
        "ward": "Phường An Lạc",
        "all_routes": "09, 102, 151, 25, 39, 41, 60-1, 61, 62-1, 62-10, 62-2, 62-8, 63-1, 84",
        "marker_color": "#FF5722"
      }
    }
  ]
}