{
  "type": "FeatureCollection",
  "properties": {
    "stt": 16,
    "route_no": "70-2",
    "display_code": "B 70-2",
    "route_name": "Bến xe Củ Chi - Tòa Thánh - Khu du lịch Núi Bà Đen",
    "start_point": "Bến xe Củ Chi",
    "end_point": "Khu du lịch Núi Bà Đen",
    "listed_length_km": 73,
    "operating_hours": "2:55 - 19:00",
    "color": "#F4511E",
    "num_variants": 2,
    "total_stops": 34,
    "total_points": 649
  },
  "features": [
    {
      "type": "Feature",
      "geometry": {
        "type": "LineString",
        "coordinates": [
          [
            106.48210144,
            10.97161674
          ],
          [
            106.48210144,
            10.97161674
          ],
          [
            106.48210144,
            10.97161674
          ],
          [
            106.48210144,
            10.97161674
          ],
          [
            106.48187256,
            10.97175407
          ],
          [
            106.4832077,
            10.97370815
          ],
          [
            106.48303986,
            10.97380257
          ],
          [
            106.48154449,
            10.97150612
          ],
          [
            106.48094177,
            10.97202015
          ],
          [
            106.48064423,
            10.97227573
          ],
          [
            106.48030853,
            10.9724865
          ],
          [
            106.48034668,
            10.97253323
          ],
          [
            106.48034668,
            10.97253323
          ],
          [
            106.48034668,
            10.97253323
          ],
          [
            106.48034668,
            10.97253323
          ],
          [
            106.48034668,
            10.97253323
          ],
          [
            106.48031616,
            10.97248077
          ],
          [
            106.47977448,
            10.97278118
          ],
          [
            106.47917938,
            10.97306538
          ],
          [
            106.47802734,
            10.97359753
          ],
          [
            106.47686768,
            10.97415066
          ],
          [
            106.47570801,
            10.97469234
          ],
          [
            106.47573853,
            10.97475624
          ],
          [
            106.47573853,
            10.97475624
          ],
          [
            106.47572327,
            10.97468758
          ],
          [
            106.47505951,
            10.97502708
          ],
          [
            106.47438812,
            10.97536659
          ],
          [
            106.47373962,
            10.97572708
          ],
          [
            106.47309875,
            10.97608852
          ],
          [
            106.47312927,
            10.97613335
          ],
          [
            106.47312927,
            10.97613335
          ],
          [
            106.47310638,
            10.9760828
          ],
          [
            106.47216797,
            10.97659397
          ],
          [
            106.47125244,
            10.97710991
          ],
          [
            106.47033691,
            10.9776001
          ],
          [
            106.46942139,
            10.97811604
          ],
          [
            106.4694519,
            10.97817898
          ],
          [
            106.4694519,
            10.97817898
          ],
          [
            106.4694519,
            10.97817898
          ],
          [
            106.46940613,
            10.97810555
          ],
          [
            106.46873474,
            10.97847557
          ],
          [
            106.46807098,
            10.9788456
          ],
          [
            106.4673996,
            10.97921467
          ],
          [
            106.46672821,
            10.97958469
          ],
          [
            106.4661026,
            10.97994137
          ],
          [
            106.46547699,
            10.980299
          ],
          [
            106.46485901,
            10.98065567
          ],
          [
            106.4642334,
            10.98101711
          ],
          [
            106.46430206,
            10.98113346
          ],
          [
            106.46430206,
            10.98113346
          ],
          [
            106.46430206,
            10.98113346
          ],
          [
            106.46430206,
            10.98113346
          ],
          [
            106.46421814,
            10.98101234
          ],
          [
            106.46342468,
            10.98147869
          ],
          [
            106.46263885,
            10.98194408
          ],
          [
            106.46189117,
            10.98244476
          ],
          [
            106.46114349,
            10.98294449
          ],
          [
            106.46123505,
            10.98305035
          ],
          [
            106.46123505,
            10.98305035
          ],
          [
            106.46123505,
            10.98305035
          ],
          [
            106.46116638,
            10.98295498
          ],
          [
            106.46046448,
            10.98340797
          ],
          [
            106.4597702,
            10.98386097
          ],
          [
            106.45907593,
            10.9843111
          ],
          [
            106.45837402,
            10.98476124
          ],
          [
            106.4584198,
            10.98480892
          ],
          [
            106.4584198,
            10.98480892
          ],
          [
            106.4584198,
            10.98480892
          ],
          [
            106.45839691,
            10.98475075
          ],
          [
            106.45732117,
            10.98546505
          ],
          [
            106.45624542,
            10.9861784
          ],
          [
            106.45517731,
            10.9868679
          ],
          [
            106.45411682,
            10.98755836
          ],
          [
            106.45295715,
            10.98830032
          ],
          [
            106.45191193,
            10.9890852
          ],
          [
            106.4513092,
            10.98966408
          ],
          [
            106.45136261,
            10.98970699
          ],
          [
            106.45136261,
            10.98970699
          ],
          [
            106.4513092,
            10.98967457
          ],
          [
            106.45104218,
            10.98997879
          ],
          [
            106.45076752,
            10.99028301
          ],
          [
            106.45050049,
            10.99058723
          ],
          [
            106.45022583,
            10.99089146
          ],
          [
            106.44994354,
            10.99120426
          ],
          [
            106.44965363,
            10.99151707
          ],
          [
            106.44937134,
            10.99182987
          ],
          [
            106.44908142,
            10.99214172
          ],
          [
            106.44879913,
            10.99245453
          ],
          [
            106.44850922,
            10.99276733
          ],
          [
            106.44822693,
            10.99308014
          ],
          [
            106.44793701,
            10.99339294
          ],
          [
            106.44799042,
            10.99342442
          ],
          [
            106.44799042,
            10.99342442
          ],
          [
            106.44799042,
            10.99342442
          ],
          [
            106.44792938,
            10.99337673
          ],
          [
            106.44755554,
            10.99379253
          ],
          [
            106.4471817,
            10.99420929
          ],
          [
            106.44680786,
            10.99462509
          ],
          [
            106.44643402,
            10.99504089
          ],
          [
            106.44606018,
            10.9954567
          ],
          [
            106.44569397,
            10.99587345
          ],
          [
            106.44532013,
            10.99628925
          ],
          [
            106.44494629,
            10.99670506
          ],
          [
            106.44506073,
            10.99678898
          ],
          [
            106.44506073,
            10.99678898
          ],
          [
            106.44494629,
            10.99669933
          ],
          [
            106.44412994,
            10.99761105
          ],
          [
            106.44329071,
            10.9985323
          ],
          [
            106.44238281,
            10.99943256
          ],
          [
            106.44187164,
            10.99982262
          ],
          [
            106.44133759,
            11.00016499
          ],
          [
            106.43898773,
            11.0014286
          ],
          [
            106.43782043,
            11.00205517
          ],
          [
            106.43666077,
            11.00268173
          ],
          [
            106.43667603,
            11.00271893
          ],
          [
            106.43667603,
            11.00271893
          ],
          [
            106.43666077,
            11.00266647
          ],
          [
            106.4355545,
            11.00326061
          ],
          [
            106.4344635,
            11.00375557
          ],
          [
            106.43319702,
            11.00415325
          ],
          [
            106.4319458,
            11.00456142
          ],
          [
            106.43196869,
            11.00463009
          ],
          [
            106.43196869,
            11.00463009
          ],
          [
            106.43196869,
            11.00463009
          ],
          [
            106.43196869,
            11.00463009
          ],
          [
            106.4319458,
            11.00455666
          ],
          [
            106.43119812,
            11.00477505
          ],
          [
            106.43045807,
            11.00499344
          ],
          [
            106.42972565,
            11.00524902
          ],
          [
            106.42899323,
            11.00550461
          ],
          [
            106.42814636,
            11.00576687
          ],
          [
            106.42814636,
            11.00576687
          ],
          [
            106.42814636,
            11.00576687
          ],
          [
            106.42814636,
            11.00576687
          ],
          [
            106.42444611,
            11.00692558
          ],
          [
            106.42073822,
            11.0080843
          ],
          [
            106.41842651,
            11.00883198
          ],
          [
            106.41714478,
            11.00956917
          ],
          [
            106.41582489,
            11.01074123
          ],
          [
            106.41451263,
            11.01191235
          ],
          [
            106.41323853,
            11.01303387
          ],
          [
            106.41194153,
            11.01387691
          ],
          [
            106.40834808,
            11.01555157
          ],
          [
            106.40500641,
            11.01709938
          ],
          [
            106.40166473,
            11.01864719
          ],
          [
            106.39830017,
            11.02021122
          ],
          [
            106.39493561,
            11.02177525
          ],
          [
            106.39157104,
            11.02333927
          ],
          [
            106.38821411,
            11.02490234
          ],
          [
            106.38610077,
            11.02569294
          ],
          [
            106.38066101,
            11.02693558
          ],
          [
            106.37506104,
            11.02823067
          ],
          [
            106.37315369,
            11.02904606
          ],
          [
            106.36899567,
            11.03107357
          ],
          [
            106.36463165,
            11.03299046
          ],
          [
            106.3633728,
            11.03391647
          ],
          [
            106.36210632,
            11.03547573
          ],
          [
            106.35983276,
            11.03822422
          ],
          [
            106.35866547,
            11.03973007
          ],
          [
            106.35762024,
            11.04122543
          ],
          [
            106.35566711,
            11.04425812
          ],
          [
            106.35375214,
            11.04730606
          ],
          [
            106.35183716,
            11.05035496
          ],
          [
            106.34993744,
            11.05330944
          ],
          [
            106.34803009,
            11.05626488
          ],
          [
            106.34613037,
            11.05921936
          ],
          [
            106.34422302,
            11.06217384
          ],
          [
            106.3422699,
            11.06511211
          ],
          [
            106.34030914,
            11.06804943
          ],
          [
            106.33831787,
            11.07096863
          ],
          [
            106.3363266,
            11.07388783
          ],
          [
            106.33579254,
            11.07472515
          ],
          [
            106.33538055,
            11.07557774
          ],
          [
            106.33457184,
            11.07727337
          ],
          [
            106.33377075,
            11.07896328
          ],
          [
            106.33297729,
            11.08066368
          ],
          [
            106.33219147,
            11.08236122
          ],
          [
            106.33140564,
            11.08405876
          ],
          [
            106.33059692,
            11.0857563
          ],
          [
            106.32979584,
            11.0874548
          ],
          [
            106.32813263,
            11.0909977
          ],
          [
            106.32689667,
            11.09454536
          ],
          [
            106.3267746,
            11.09814644
          ],
          [
            106.32666016,
            11.10175705
          ],
          [
            106.32653046,
            11.1053791
          ],
          [
            106.32640076,
            11.10900021
          ],
          [
            106.32624054,
            11.11263752
          ],
          [
            106.32608032,
            11.11627483
          ],
          [
            106.32597351,
            11.11719608
          ],
          [
            106.32559204,
            11.11808014
          ],
          [
            106.32476044,
            11.11967564
          ],
          [
            106.32388306,
            11.12134171
          ],
          [
            106.32301331,
            11.12300682
          ],
          [
            106.32215118,
            11.12466431
          ],
          [
            106.32128143,
            11.12632084
          ],
          [
            106.32041931,
            11.12797737
          ],
          [
            106.31955719,
            11.1296339
          ],
          [
            106.31855011,
            11.13152885
          ],
          [
            106.31754303,
            11.13342381
          ],
          [
            106.31690979,
            11.13427639
          ],
          [
            106.31598663,
            11.13488674
          ],
          [
            106.31482697,
            11.13545513
          ],
          [
            106.31403351,
            11.13618183
          ],
          [
            106.31297302,
            11.13794518
          ],
          [
            106.31192017,
            11.13970852
          ],
          [
            106.31072998,
            11.14143467
          ],
          [
            106.30941772,
            11.14315033
          ],
          [
            106.30899048,
            11.14406681
          ],
          [
            106.30880737,
            11.14496613
          ],
          [
            106.30877686,
            11.14675617
          ],
          [
            106.30875397,
            11.14851856
          ],
          [
            106.30865479,
            11.15028763
          ],
          [
            106.30849457,
            11.15207195
          ],
          [
            106.30833435,
            11.15385628
          ],
          [
            106.30818176,
            11.15563965
          ],
          [
            106.30802155,
            11.15742397
          ],
          [
            106.3080368,
            11.15796089
          ],
          [
            106.30809784,
            11.15850353
          ],
          [
            106.30827332,
            11.15955544
          ],
          [
            106.30848694,
            11.16060352
          ],
          [
            106.30879974,
            11.16162968
          ],
          [
            106.30912018,
            11.16263676
          ],
          [
            106.30944061,
            11.16364479
          ],
          [
            106.30982971,
            11.16459751
          ],
          [
            106.31027222,
            11.165555
          ],
          [
            106.31069946,
            11.16649246
          ],
          [
            106.3110733,
            11.16745567
          ],
          [
            106.31143951,
            11.16842365
          ],
          [
            106.3117981,
            11.16939163
          ],
          [
            106.31221771,
            11.17033958
          ],
          [
            106.31263733,
            11.17128658
          ],
          [
            106.31292725,
            11.17229176
          ],
          [
            106.31308746,
            11.17334938
          ],
          [
            106.31323242,
            11.17427063
          ],
          [
            106.31328583,
            11.1751709
          ],
          [
            106.31295013,
            11.17560768
          ],
          [
            106.31255341,
            11.17602348
          ],
          [
            106.31170654,
            11.17687607
          ],
          [
            106.31032562,
            11.17831802
          ],
          [
            106.3089447,
            11.17975998
          ],
          [
            106.30757141,
            11.18120193
          ],
          [
            106.30619812,
            11.18264389
          ],
          [
            106.30344391,
            11.18554878
          ],
          [
            106.29853821,
            11.19069481
          ],
          [
            106.29360962,
            11.19586277
          ],
          [
            106.28374481,
            11.20622921
          ],
          [
            106.26387024,
            11.22682953
          ],
          [
            106.24385834,
            11.24733448
          ],
          [
            106.2338562,
            11.25758362
          ],
          [
            106.22880554,
            11.26269722
          ],
          [
            106.22612762,
            11.26515961
          ],
          [
            106.22348785,
            11.26764774
          ],
          [
            106.22213745,
            11.26898956
          ],
          [
            106.2208252,
            11.27035713
          ],
          [
            106.21819305,
            11.27308273
          ],
          [
            106.21281433,
            11.27846432
          ],
          [
            106.20197296,
            11.28920174
          ],
          [
            106.18015289,
            11.31062698
          ],
          [
            106.17880249,
            11.31196594
          ],
          [
            106.17745209,
            11.3133049
          ],
          [
            106.17605591,
            11.31474018
          ],
          [
            106.17555237,
            11.31546116
          ],
          [
            106.17517853,
            11.31624985
          ],
          [
            106.1735611,
            11.31934357
          ],
          [
            106.17276764,
            11.32090569
          ],
          [
            106.17228699,
            11.32164192
          ],
          [
            106.17195892,
            11.3222208
          ],
          [
            106.1717453,
            11.32233047
          ],
          [
            106.17095184,
            11.3220787
          ],
          [
            106.16944885,
            11.32142067
          ],
          [
            106.16701508,
            11.3203373
          ],
          [
            106.16441345,
            11.31913853
          ],
          [
            106.16191101,
            11.31789684
          ],
          [
            106.16040802,
            11.31707096
          ],
          [
            106.15962219,
            11.31631374
          ],
          [
            106.15876007,
            11.31529808
          ],
          [
            106.15761566,
            11.31444645
          ],
          [
            106.15304565,
            11.31133175
          ],
          [
            106.1512146,
            11.30991173
          ],
          [
            106.15044403,
            11.30933285
          ],
          [
            106.14967346,
            11.30875492
          ],
          [
            106.14881134,
            11.30832863
          ],
          [
            106.14632416,
            11.30704975
          ],
          [
            106.14492798,
            11.30617142
          ],
          [
            106.14438629,
            11.30594063
          ],
          [
            106.14376068,
            11.30580902
          ],
          [
            106.14220428,
            11.30551434
          ],
          [
            106.14064789,
            11.30522442
          ],
          [
            106.13942719,
            11.30526733
          ],
          [
            106.13819885,
            11.30535126
          ],
          [
            106.13538361,
            11.30547714
          ],
          [
            106.13478851,
            11.3055191
          ],
          [
            106.13275146,
            11.30537701
          ],
          [
            106.13245392,
            11.30773926
          ],
          [
            106.13219452,
            11.31011677
          ],
          [
            106.13162231,
            11.31486702
          ],
          [
            106.13103485,
            11.31961918
          ],
          [
            106.1307373,
            11.32199574
          ],
          [
            106.13044739,
            11.32437134
          ],
          [
            106.12986755,
            11.32912445
          ],
          [
            106.12928772,
            11.33387661
          ],
          [
            106.12900543,
            11.3362484
          ],
          [
            106.128685,
            11.33862591
          ],
          [
            106.12841797,
            11.3410511
          ],
          [
            106.1280899,
            11.34347534
          ],
          [
            106.1394043,
            11.34872437
          ],
          [
            106.15070343,
            11.35396862
          ],
          [
            106.15293121,
            11.35493565
          ],
          [
            106.15509796,
            11.35594559
          ],
          [
            106.15942383,
            11.35796547
          ],
          [
            106.16377258,
            11.35996914
          ],
          [
            106.16597748,
            11.36099434
          ],
          [
            106.1680603,
            11.36194706
          ],
          [
            106.16799927,
            11.36207294
          ]
        ]
      },
      "properties": {
        "feature_type": "route_path",
        "stt": 16,
        "route_id": 108,
        "route_no": "70-2",
        "display_code": "B 70-2",
        "route_name": "Bến xe Củ Chi - Tòa Thánh - Khu du lịch Núi Bà Đen",
        "direction": "Lượt đi",
        "outbound": true,
        "start_point": "Bến xe Củ Chi",
        "end_point": "Khu du lịch Núi Bà Đen",
        "start_stop": "Bến xe Củ Chi",
        "end_stop": "Khu du lịch Núi Bà Đen",
        "distance_km": 69.71,
        "listed_length_km": 73,
        "running_time_min": 105,
        "operating_hours": "2:55 - 19:00",
        "stroke": "#F4511E",
        "stroke_width": 4,
        "stroke_opacity": 0.85
      }
    },
    {
      "type": "Feature",
      "geometry": {
        "type": "LineString",
        "coordinates": [
          [
            106.16799927,
            11.36207294
          ],
          [
            106.16801453,
            11.36198902
          ],
          [
            106.16737366,
            11.36175251
          ],
          [
            106.16592407,
            11.36105824
          ],
          [
            106.1638031,
            11.36006355
          ],
          [
            106.16168976,
            11.35905933
          ],
          [
            106.1595459,
            11.35811806
          ],
          [
            106.15744019,
            11.35712337
          ],
          [
            106.15533447,
            11.35612965
          ],
          [
            106.15319824,
            11.35514927
          ],
          [
            106.15106964,
            11.35416794
          ],
          [
            106.13946533,
            11.3487978
          ],
          [
            106.13661194,
            11.34747028
          ],
          [
            106.13375854,
            11.34614182
          ],
          [
            106.13091278,
            11.3448143
          ],
          [
            106.12805939,
            11.34348583
          ],
          [
            106.1282196,
            11.34230232
          ],
          [
            106.12837219,
            11.34111881
          ],
          [
            106.12850189,
            11.3399353
          ],
          [
            106.12862396,
            11.33875179
          ],
          [
            106.12893677,
            11.33638
          ],
          [
            106.12923431,
            11.33401299
          ],
          [
            106.12980652,
            11.32927418
          ],
          [
            106.13008881,
            11.32690144
          ],
          [
            106.13037872,
            11.32454014
          ],
          [
            106.13153076,
            11.31511402
          ],
          [
            106.13210297,
            11.31040096
          ],
          [
            106.13237762,
            11.30804443
          ],
          [
            106.1325531,
            11.30665588
          ],
          [
            106.13272858,
            11.30526733
          ],
          [
            106.13516235,
            11.30541992
          ],
          [
            106.13778687,
            11.3052721
          ],
          [
            106.14041901,
            11.30512524
          ],
          [
            106.14286804,
            11.30555058
          ],
          [
            106.1444397,
            11.30588722
          ],
          [
            106.14511871,
            11.3061924
          ],
          [
            106.14584351,
            11.30665016
          ],
          [
            106.1485672,
            11.3081131
          ],
          [
            106.14992523,
            11.3087759
          ],
          [
            106.15113831,
            11.30975437
          ],
          [
            106.15289307,
            11.31117916
          ],
          [
            106.1536026,
            11.31164265
          ],
          [
            106.15500641,
            11.31246281
          ],
          [
            106.15628815,
            11.31339931
          ],
          [
            106.15879822,
            11.31523514
          ],
          [
            106.16033936,
            11.31692886
          ],
          [
            106.16124725,
            11.31744957
          ],
          [
            106.16363525,
            11.31868553
          ],
          [
            106.16604614,
            11.31980038
          ],
          [
            106.16847992,
            11.3208952
          ],
          [
            106.1709137,
            11.32198906
          ],
          [
            106.17119598,
            11.32203102
          ],
          [
            106.17153931,
            11.32201576
          ],
          [
            106.17203522,
            11.32179928
          ],
          [
            106.17235565,
            11.32147312
          ],
          [
            106.17285156,
            11.32063198
          ],
          [
            106.17329407,
            11.31979561
          ],
          [
            106.17470551,
            11.31704426
          ],
          [
            106.17539215,
            11.31569767
          ],
          [
            106.17578888,
            11.31504536
          ],
          [
            106.17630005,
            11.31442547
          ],
          [
            106.17855835,
            11.31215286
          ],
          [
            106.18399048,
            11.30679989
          ],
          [
            106.18942261,
            11.30144787
          ],
          [
            106.20030975,
            11.29073715
          ],
          [
            106.20307159,
            11.28809166
          ],
          [
            106.20580292,
            11.28538704
          ],
          [
            106.21122742,
            11.2799902
          ],
          [
            106.21660614,
            11.27462959
          ],
          [
            106.21928406,
            11.27190399
          ],
          [
            106.22187805,
            11.26922131
          ],
          [
            106.22449493,
            11.26663208
          ],
          [
            106.22719574,
            11.26413918
          ],
          [
            106.22856903,
            11.26287651
          ],
          [
            106.22985077,
            11.26158714
          ],
          [
            106.23239899,
            11.25903034
          ],
          [
            106.23748016,
            11.25383186
          ],
          [
            106.24002075,
            11.25121689
          ],
          [
            106.24255371,
            11.24861813
          ],
          [
            106.24760437,
            11.24341965
          ],
          [
            106.25269318,
            11.2382164
          ],
          [
            106.26285553,
            11.22782421
          ],
          [
            106.272995,
            11.21741676
          ],
          [
            106.27802277,
            11.21217537
          ],
          [
            106.28302002,
            11.20692921
          ],
          [
            106.29298401,
            11.19645214
          ],
          [
            106.30298615,
            11.18596458
          ],
          [
            106.30755615,
            11.18115902
          ],
          [
            106.30984497,
            11.17877579
          ],
          [
            106.31318665,
            11.17529202
          ],
          [
            106.31324768,
            11.17504406
          ],
          [
            106.31298828,
            11.17339134
          ],
          [
            106.31283569,
            11.17240238
          ],
          [
            106.31260681,
            11.17153358
          ],
          [
            106.31240845,
            11.17098713
          ],
          [
            106.31188202,
            11.16985512
          ],
          [
            106.31121826,
            11.16817665
          ],
          [
            106.31056213,
            11.16641331
          ],
          [
            106.30975342,
            11.16472435
          ],
          [
            106.30912781,
            11.16294003
          ],
          [
            106.30856323,
            11.16114521
          ],
          [
            106.30818939,
            11.15952396
          ],
          [
            106.30795288,
            11.15782452
          ],
          [
            106.30821228,
            11.15443516
          ],
          [
            106.30847931,
            11.15107727
          ],
          [
            106.30862427,
            11.14936161
          ],
          [
            106.30867004,
            11.14765549
          ],
          [
            106.3086853,
            11.14600849
          ],
          [
            106.30870056,
            11.14520359
          ],
          [
            106.30880737,
            11.14440823
          ],
          [
            106.30909729,
            11.14351368
          ],
          [
            106.3095932,
            11.14284515
          ],
          [
            106.31069183,
            11.14132977
          ],
          [
            106.31175232,
            11.13977146
          ],
          [
            106.31225586,
            11.13901901
          ],
          [
            106.31271362,
            11.13821316
          ],
          [
            106.31370544,
            11.13645554
          ],
          [
            106.31443787,
            11.1356554
          ],
          [
            106.31537628,
            11.1350975
          ],
          [
            106.31636047,
            11.13456059
          ],
          [
            106.31698608,
            11.13405037
          ],
          [
            106.31745911,
            11.13337612
          ],
          [
            106.31784821,
            11.13267136
          ],
          [
            106.31939697,
            11.12973404
          ],
          [
            106.32085419,
            11.12692356
          ],
          [
            106.32229614,
            11.12416553
          ],
          [
            106.32544708,
            11.11821175
          ],
          [
            106.32579803,
            11.11741161
          ],
          [
            106.32596588,
            11.1166544
          ],
          [
            106.32604218,
            11.11499023
          ],
          [
            106.32614136,
            11.11334801
          ],
          [
            106.32618713,
            11.11172676
          ],
          [
            106.32633209,
            11.10847378
          ],
          [
            106.32645416,
            11.10522652
          ],
          [
            106.3265686,
            11.10200405
          ],
          [
            106.32667542,
            11.0987463
          ],
          [
            106.3267746,
            11.09548759
          ],
          [
            106.3269043,
            11.09385586
          ],
          [
            106.32746124,
            11.09222889
          ],
          [
            106.32891083,
            11.0890913
          ],
          [
            106.33039093,
            11.08596992
          ],
          [
            106.33349609,
            11.07939434
          ],
          [
            106.3350296,
            11.07607841
          ],
          [
            106.33586884,
            11.07445145
          ],
          [
            106.33688354,
            11.07288742
          ],
          [
            106.34113312,
            11.06668091
          ],
          [
            106.34323883,
            11.06358528
          ],
          [
            106.34427643,
            11.0620079
          ],
          [
            106.34532166,
            11.06043148
          ],
          [
            106.3534317,
            11.04776382
          ],
          [
            106.35743713,
            11.04145622
          ],
          [
            106.35848999,
            11.0398407
          ],
          [
            106.35968781,
            11.0383606
          ],
          [
            106.36214447,
            11.03538036
          ],
          [
            106.36343384,
            11.03381157
          ],
          [
            106.36376953,
            11.03345394
          ],
          [
            106.36417389,
            11.03313255
          ],
          [
            106.36522675,
            11.03263187
          ],
          [
            106.36751556,
            11.03166294
          ],
          [
            106.36972809,
            11.0306263
          ],
          [
            106.37387085,
            11.02859879
          ],
          [
            106.37491608,
            11.02824593
          ],
          [
            106.3760376,
            11.02796173
          ],
          [
            106.37837982,
            11.02741909
          ],
          [
            106.38310242,
            11.02632999
          ],
          [
            106.38546753,
            11.02575588
          ],
          [
            106.3866272,
            11.02546597
          ],
          [
            106.38769531,
            11.02507687
          ],
          [
            106.39187622,
            11.02312851
          ],
          [
            106.39597321,
            11.02121735
          ],
          [
            106.4121933,
            11.01364994
          ],
          [
            106.41313171,
            11.01304436
          ],
          [
            106.41390991,
            11.01233959
          ],
          [
            106.41546631,
            11.01093292
          ],
          [
            106.41709137,
            11.00950623
          ],
          [
            106.41808319,
            11.00892162
          ],
          [
            106.41925049,
            11.00844765
          ],
          [
            106.42370605,
            11.00706291
          ],
          [
            106.42589569,
            11.00636005
          ],
          [
            106.42809296,
            11.0056572
          ],
          [
            106.42807007,
            11.0055666
          ],
          [
            106.42807007,
            11.0055666
          ],
          [
            106.42807007,
            11.0055666
          ],
          [
            106.42808533,
            11.00567245
          ],
          [
            106.4289856,
            11.00539112
          ],
          [
            106.42988586,
            11.00510979
          ],
          [
            106.43077087,
            11.00483036
          ],
          [
            106.43165588,
            11.00455093
          ],
          [
            106.43164825,
            11.0045042
          ],
          [
            106.43164825,
            11.0045042
          ],
          [
            106.43164825,
            11.0045042
          ],
          [
            106.43165588,
            11.00456142
          ],
          [
            106.43273163,
            11.00420856
          ],
          [
            106.43382263,
            11.00384045
          ],
          [
            106.43483734,
            11.00349808
          ],
          [
            106.43578339,
            11.00303459
          ],
          [
            106.43575287,
            11.00296593
          ],
          [
            106.43575287,
            11.00296593
          ],
          [
            106.43580627,
            11.0030241
          ],
          [
            106.43778229,
            11.00198174
          ],
          [
            106.43877411,
            11.00144196
          ],
          [
            106.43976593,
            11.00090218
          ],
          [
            106.44074249,
            11.0003624
          ],
          [
            106.44171143,
            10.99982262
          ],
          [
            106.44216156,
            10.99950123
          ],
          [
            106.44258118,
            10.99915886
          ],
          [
            106.44329071,
            10.99839497
          ],
          [
            106.4432373,
            10.99835873
          ],
          [
            106.4432373,
            10.99835873
          ],
          [
            106.44329834,
            10.9983902
          ],
          [
            106.44368744,
            10.99795341
          ],
          [
            106.44407654,
            10.99751568
          ],
          [
            106.44448853,
            10.99707413
          ],
          [
            106.44487,
            10.99661732
          ],
          [
            106.44487,
            10.99661732
          ],
          [
            106.44487,
            10.99661732
          ],
          [
            106.44487,
            10.99661732
          ],
          [
            106.44491577,
            10.99664211
          ],
          [
            106.44532776,
            10.99616814
          ],
          [
            106.44578552,
            10.99568844
          ],
          [
            106.44620514,
            10.99521255
          ],
          [
            106.44663239,
            10.99473572
          ],
          [
            106.44706726,
            10.99425697
          ],
          [
            106.44750214,
            10.99377728
          ],
          [
            106.44792175,
            10.99328899
          ],
          [
            106.44833374,
            10.99279976
          ],
          [
            106.44833374,
            10.99279976
          ],
          [
            106.44836426,
            10.99269772
          ],
          [
            106.44836426,
            10.99269772
          ],
          [
            106.44833374,
            10.99279976
          ],
          [
            106.44871521,
            10.99242496
          ],
          [
            106.44909668,
            10.99205017
          ],
          [
            106.44947815,
            10.99163151
          ],
          [
            106.44985199,
            10.99121284
          ],
          [
            106.45023346,
            10.99079418
          ],
          [
            106.4506073,
            10.99037552
          ],
          [
            106.45126343,
            10.9895668
          ],
          [
            106.45126343,
            10.9895668
          ],
          [
            106.45126343,
            10.9895668
          ],
          [
            106.45173645,
            10.98910618
          ],
          [
            106.45226288,
            10.98869038
          ],
          [
            106.45340729,
            10.98792171
          ],
          [
            106.45458984,
            10.9871521
          ],
          [
            106.45570374,
            10.9864254
          ],
          [
            106.45565796,
            10.98633575
          ],
          [
            106.45565796,
            10.98633575
          ],
          [
            106.45571899,
            10.98639965
          ],
          [
            106.45700073,
            10.98556232
          ],
          [
            106.45827484,
            10.98471451
          ],
          [
            106.45823669,
            10.98466206
          ],
          [
            106.45823669,
            10.98466206
          ],
          [
            106.45826721,
            10.98470879
          ],
          [
            106.45897675,
            10.98425579
          ],
          [
            106.45967865,
            10.9838028
          ],
          [
            106.46038055,
            10.98334503
          ],
          [
            106.46108246,
            10.98288727
          ],
          [
            106.46103668,
            10.98285484
          ],
          [
            106.46101379,
            10.98288345
          ],
          [
            106.46101379,
            10.98288345
          ],
          [
            106.46105194,
            10.98292923
          ],
          [
            106.46173096,
            10.98248196
          ],
          [
            106.46240997,
            10.98203373
          ],
          [
            106.46311188,
            10.98159981
          ],
          [
            106.46380615,
            10.98116493
          ],
          [
            106.46374512,
            10.98104858
          ],
          [
            106.46374512,
            10.98104858
          ],
          [
            106.46374512,
            10.98104858
          ],
          [
            106.46374512,
            10.98104858
          ],
          [
            106.46379852,
            10.98114395
          ],
          [
            106.46451569,
            10.98073292
          ],
          [
            106.46524048,
            10.98031712
          ],
          [
            106.4659729,
            10.97991467
          ],
          [
            106.46670532,
            10.97951126
          ],
          [
            106.46744537,
            10.97910309
          ],
          [
            106.46818542,
            10.97869492
          ],
          [
            106.46892548,
            10.97828674
          ],
          [
            106.46966553,
            10.97787857
          ],
          [
            106.46963501,
            10.97778416
          ],
          [
            106.46963501,
            10.97778416
          ],
          [
            106.46963501,
            10.97778416
          ],
          [
            106.46963501,
            10.97778416
          ],
          [
            106.46966553,
            10.97787857
          ],
          [
            106.47042084,
            10.97744942
          ],
          [
            106.47117615,
            10.97702026
          ],
          [
            106.47195435,
            10.97659683
          ],
          [
            106.47274017,
            10.97617245
          ],
          [
            106.47271729,
            10.97610855
          ],
          [
            106.47271729,
            10.97610855
          ],
          [
            106.47271729,
            10.97610855
          ],
          [
            106.47271729,
            10.97610855
          ],
          [
            106.47273254,
            10.97614956
          ],
          [
            106.47273254,
            10.97614956
          ],
          [
            106.47333527,
            10.97581673
          ],
          [
            106.47393799,
            10.97548294
          ],
          [
            106.47455597,
            10.97516727
          ],
          [
            106.47518158,
            10.97485065
          ],
          [
            106.47574615,
            10.97456169
          ],
          [
            106.47631073,
            10.97427177
          ],
          [
            106.47689056,
            10.97400284
          ],
          [
            106.4774704,
            10.97373295
          ],
          [
            106.4774704,
            10.97373295
          ],
          [
            106.47743988,
            10.97365475
          ],
          [
            106.47743988,
            10.97365475
          ],
          [
            106.47657776,
            10.97406101
          ],
          [
            106.47689819,
            10.97399235
          ],
          [
            106.47734833,
            10.97375488
          ],
          [
            106.47782135,
            10.97355556
          ],
          [
            106.47809601,
            10.97330761
          ],
          [
            106.47809601,
            10.97330761
          ],
          [
            106.4785614,
            10.97319698
          ],
          [
            106.47930908,
            10.97284985
          ],
          [
            106.4799881,
            10.97250748
          ],
          [
            106.48049164,
            10.97209072
          ],
          [
            106.48049164,
            10.97209072
          ],
          [
            106.48049164,
            10.97209072
          ],
          [
            106.48056793,
            10.97216511
          ],
          [
            106.48134613,
            10.97150135
          ],
          [
            106.48191071,
            10.97102737
          ],
          [
            106.48249054,
            10.9705534
          ],
          [
            106.48245239,
            10.97049522
          ],
          [
            106.48245239,
            10.97049522
          ],
          [
            106.48245239,
            10.97049522
          ],
          [
            106.48248291,
            10.97053242
          ],
          [
            106.48420715,
            10.96936321
          ],
          [
            106.48522949,
            10.9686842
          ],
          [
            106.48571014,
            10.96838856
          ],
          [
            106.48602295,
            10.96812534
          ],
          [
            106.48632813,
            10.96824646
          ],
          [
            106.48619843,
            10.96862602
          ],
          [
            106.48579407,
            10.9686203
          ],
          [
            106.48487091,
            10.9690733
          ],
          [
            106.48377991,
            10.96977901
          ],
          [
            106.48271942,
            10.9705162
          ],
          [
            106.48174286,
            10.97130108
          ],
          [
            106.48210144,
            10.97161674
          ]
        ]
      },
      "properties": {
        "feature_type": "route_path",
        "stt": 16,
        "route_id": 108,
        "route_no": "70-2",
        "display_code": "B 70-2",
        "route_name": "Bến xe Củ Chi - Tòa Thánh - Khu du lịch Núi Bà Đen",
        "direction": "Lượt về",
        "outbound": false,
        "start_point": "Bến xe Củ Chi",
        "end_point": "Khu du lịch Núi Bà Đen",
        "start_stop": "Khu du lịch Núi Bà Đen",
        "end_stop": "Bến xe Củ Chi",
        "distance_km": 70.53,
        "listed_length_km": 73,
        "running_time_min": 105,
        "operating_hours": "2:55 - 19:00",
        "stroke": "#F4511E",
        "stroke_width": 4,
        "stroke_opacity": 0.85
      }
    },
    {
      "type": "Feature",
      "geometry": {
        "type": "Point",
        "coordinates": [
          106.482099,
          10.971617
        ]
      },
      "properties": {
        "feature_type": "bus_stop",
        "stop_id": 732,
        "stop_code": "BX 63",
        "stop_name": "Bến xe Củ Chi",
        "stop_type": "Bến xe",
        "route_no": "70-2",
        "display_code": "B 70-2",
        "direction": "Lượt đi",
        "address": "Bến xe Củ Chi Quốc lộ 22",
        "street": "Quốc lộ 22",
        "zone": "Huyện Củ Chi",
        "ward": null,
        "all_routes": "100, 107, 126, 13, 70-1, 70-2, 74, 79, 87, 94",
        "marker_color": "#F4511E"
      }
    },
    {
      "type": "Feature",
      "geometry": {
        "type": "Point",
        "coordinates": [
          106.480347,
          10.972533
        ]
      },
      "properties": {
        "feature_type": "bus_stop",
        "stop_id": 734,
        "stop_code": "HCC 018",
        "stop_name": "Bến xe Củ Chi",
        "stop_type": "Nhà chờ",
        "route_no": "70-2",
        "display_code": "B 70-2",
        "direction": "Lượt đi",
        "address": "928 Quốc lộ 22",
        "street": "Quốc lộ 22",
        "zone": "Huyện Củ Chi",
        "ward": null,
        "all_routes": "100, 107, 70-1, 70-2, 79",
        "marker_color": "#F4511E"
      }
    },
    {
      "type": "Feature",
      "geometry": {
        "type": "Point",
        "coordinates": [
          106.475742,
          10.974756
        ]
      },
      "properties": {
        "feature_type": "bus_stop",
        "stop_id": 733,
        "stop_code": "HCC 019",
        "stop_name": "Bệnh viện Củ Chi",
        "stop_type": "Trụ dừng",
        "route_no": "70-2",
        "display_code": "B 70-2",
        "direction": "Lượt đi",
        "address": "18 Quốc lộ 22",
        "street": "Quốc lộ 22",
        "zone": "Huyện Củ Chi",
        "ward": "Thị trấn Củ Chi",
        "all_routes": "100, 107, 70-1, 70-2, 79",
        "marker_color": "#F4511E"
      }
    },
    {
      "type": "Feature",
      "geometry": {
        "type": "Point",
        "coordinates": [
          106.473129,
          10.976133
        ]
      },
      "properties": {
        "feature_type": "bus_stop",
        "stop_id": 738,
        "stop_code": "HCC 020",
        "stop_name": "Trạm xăng",
        "stop_type": "Ô sơn",
        "route_no": "70-2",
        "display_code": "B 70-2",
        "direction": "Lượt đi",
        "address": "86 Quốc lộ 22",
        "street": "Quốc lộ 22",
        "zone": "Huyện Củ Chi",
        "ward": null,
        "all_routes": "100, 107, 70-1, 70-2, 79",
        "marker_color": "#F4511E"
      }
    },
    {
      "type": "Feature",
      "geometry": {
        "type": "Point",
        "coordinates": [
          106.469455,
          10.978179
        ]
      },
      "properties": {
        "feature_type": "bus_stop",
        "stop_id": 735,
        "stop_code": "HCC 021",
        "stop_name": "Công ty phân bón Sinh hóa Củ Chi",
        "stop_type": "Trụ dừng",
        "route_no": "70-2",
        "display_code": "B 70-2",
        "direction": "Lượt đi",
        "address": "128 Quốc lộ 22",
        "street": "Quốc lộ 22",
        "zone": "Huyện Củ Chi",
        "ward": null,
        "all_routes": "100, 107, 70-1, 70-2",
        "marker_color": "#F4511E"
      }
    },
    {
      "type": "Feature",
      "geometry": {
        "type": "Point",
        "coordinates": [
          106.4643,
          10.981133
        ]
      },
      "properties": {
        "feature_type": "bus_stop",
        "stop_id": 7679,
        "stop_code": "HCC 297",
        "stop_name": "Ấp Bàu Tre",
        "stop_type": "Trụ dừng",
        "route_no": "70-2",
        "display_code": "B 70-2",
        "direction": "Lượt đi",
        "address": "246B Quốc lộ 22",
        "street": "Quốc lộ 22",
        "zone": "Huyện Củ Chi",
        "ward": "Xã Phước Hiệp",
        "all_routes": "100, 107, 70-1, 70-2",
        "marker_color": "#F4511E"
      }
    },
    {
      "type": "Feature",
      "geometry": {
        "type": "Point",
        "coordinates": [
          106.461232,
          10.98305
        ]
      },
      "properties": {
        "feature_type": "bus_stop",
        "stop_id": 741,
        "stop_code": "HCC 022",
        "stop_name": "Trạm xăng Phước Hiệp 1",
        "stop_type": "Trụ dừng",
        "route_no": "70-2",
        "display_code": "B 70-2",
        "direction": "Lượt đi",
        "address": "282 Quốc lộ 22",
        "street": "Quốc lộ 22",
        "zone": "Huyện Củ Chi",
        "ward": null,
        "all_routes": "100, 107, 70-1, 70-2",
        "marker_color": "#F4511E"
      }
    },
    {
      "type": "Feature",
      "geometry": {
        "type": "Point",
        "coordinates": [
          106.458421,
          10.984809
        ]
      },
      "properties": {
        "feature_type": "bus_stop",
        "stop_id": 7833,
        "stop_code": "HCC 344",
        "stop_name": "Đường số 606",
        "stop_type": "Nhà chờ",
        "route_no": "70-2",
        "display_code": "B 70-2",
        "direction": "Lượt đi",
        "address": "Cạnh đường số 606 Quốc lộ 22",
        "street": "Quốc lộ 22",
        "zone": "Huyện Củ Chi",
        "ward": "Xã Tân An Hội",
        "all_routes": "100, 107, 70-1, 70-2",
        "marker_color": "#F4511E"
      }
    },
    {
      "type": "Feature",
      "geometry": {
        "type": "Point",
        "coordinates": [
          106.451361,
          10.989707
        ]
      },
      "properties": {
        "feature_type": "bus_stop",
        "stop_id": 736,
        "stop_code": "HCC 023",
        "stop_name": "Đối diện UBND xa Phước Hiệp",
        "stop_type": "Trụ dừng",
        "route_no": "70-2",
        "display_code": "B 70-2",
        "direction": "Lượt đi",
        "address": "Đối diện UBND xa Phước Hiệp (số 438) Quốc lộ 22",
        "street": "Quốc lộ 22",
        "zone": "Huyện Củ Chi",
        "ward": "Xã Phước Hiệp",
        "all_routes": "100, 107, 70-1, 70-2",
        "marker_color": "#F4511E"
      }
    },
    {
      "type": "Feature",
      "geometry": {
        "type": "Point",
        "coordinates": [
          106.447987,
          10.993424
        ]
      },
      "properties": {
        "feature_type": "bus_stop",
        "stop_id": 743,
        "stop_code": "HCC 024",
        "stop_name": "Đối diện Trường Tiểu học Phước Hiệp",
        "stop_type": "Nhà chờ",
        "route_no": "70-2",
        "display_code": "B 70-2",
        "direction": "Lượt đi",
        "address": "Đối diện cây xăng 54 (508) Quốc lộ 22",
        "street": "Quốc lộ 22",
        "zone": "Huyện Củ Chi",
        "ward": "Xã Phước Hiệp",
        "all_routes": "100, 107, 70-1, 70-2",
        "marker_color": "#F4511E"
      }
    },
    {
      "type": "Feature",
      "geometry": {
        "type": "Point",
        "coordinates": [
          106.445058,
          10.996789
        ]
      },
      "properties": {
        "feature_type": "bus_stop",
        "stop_id": 737,
        "stop_code": "HCC 025",
        "stop_name": "Cây xăng Phước Thạnh",
        "stop_type": "Trụ dừng",
        "route_no": "70-2",
        "display_code": "B 70-2",
        "direction": "Lượt đi",
        "address": "576 Quốc lộ 22",
        "street": "Quốc lộ 22",
        "zone": "Huyện Củ Chi",
        "ward": "Xã Phước Hiệp",
        "all_routes": "100, 107, 70-1, 70-2",
        "marker_color": "#F4511E"
      }
    },
    {
      "type": "Feature",
      "geometry": {
        "type": "Point",
        "coordinates": [
          106.436679,
          11.002719
        ]
      },
      "properties": {
        "feature_type": "bus_stop",
        "stop_id": 7845,
        "stop_code": "HCC 349",
        "stop_name": "Đường 622",
        "stop_type": "Ô sơn",
        "route_no": "70-2",
        "display_code": "B 70-2",
        "direction": "Lượt đi",
        "address": "Đối diện 671 Quốc lộ 22",
        "street": "Quốc lộ 22",
        "zone": "Huyện Củ Chi",
        "ward": "Xã Phước Thạnh",
        "all_routes": "100, 107, 70-1, 70-2",
        "marker_color": "#F4511E"
      }
    },
    {
      "type": "Feature",
      "geometry": {
        "type": "Point",
        "coordinates": [
          106.431969,
          11.00463
        ]
      },
      "properties": {
        "feature_type": "bus_stop",
        "stop_id": 745,
        "stop_code": "HCC 026",
        "stop_name": "UBND xã Phước Thạnh",
        "stop_type": "Nhà chờ",
        "route_no": "70-2",
        "display_code": "B 70-2",
        "direction": "Lượt đi",
        "address": "UBND xã Phước Thạnh Quốc lộ 22",
        "street": "Quốc lộ 22",
        "zone": "Huyện Củ Chi",
        "ward": "Xã Phước Thạnh",
        "all_routes": "100, 107, 70-1, 70-2",
        "marker_color": "#F4511E"
      }
    },
    {
      "type": "Feature",
      "geometry": {
        "type": "Point",
        "coordinates": [
          106.428146,
          11.005767
        ]
      },
      "properties": {
        "feature_type": "bus_stop",
        "stop_id": 739,
        "stop_code": "QCCT028",
        "stop_name": "Ngã tư Phước Thạnh",
        "stop_type": "Trụ dừng",
        "route_no": "70-2",
        "display_code": "B 70-2",
        "direction": "Lượt đi",
        "address": "826 Quốc lộ 22",
        "street": "Quốc lộ 22",
        "zone": "Huyện Củ Chi",
        "ward": "Xã Phước Thạnh",
        "all_routes": "100, 107, 70-1, 70-2",
        "marker_color": "#F4511E"
      }
    },
    {
      "type": "Feature",
      "geometry": {
        "type": "Point",
        "coordinates": [
          106.168,
          11.362073
        ]
      },
      "properties": {
        "feature_type": "bus_stop",
        "stop_id": 8102,
        "stop_code": "BX 70-2",
        "stop_name": "Khu du lịch Núi Bà Đen",
        "stop_type": "Bến xe",
        "route_no": "70-2",
        "display_code": "B 70-2",
        "direction": "Lượt đi",
        "address": "Khu du lịch Núi Bà Đen (chân núi) Bời Lời",
        "street": "Bời Lời",
        "zone": "Ngoại thành",
        "ward": null,
        "all_routes": "70-2",
        "marker_color": "#F4511E"
      }
    },
    {
      "type": "Feature",
      "geometry": {
        "type": "Point",
        "coordinates": [
          106.428069,
          11.005567
        ]
      },
      "properties": {
        "feature_type": "bus_stop",
        "stop_id": 790,
        "stop_code": "HCC 028",
        "stop_name": "Ngã tư Phước Thạnh",
        "stop_type": "Nhà chờ",
        "route_no": "70-2",
        "display_code": "B 70-2",
        "direction": "Lượt về",
        "address": "863 Quốc lộ 22",
        "street": "Quốc lộ 22",
        "zone": "Huyện Củ Chi",
        "ward": "Xã Phước Thạnh",
        "all_routes": "100, 107, 70-1, 70-2",
        "marker_color": "#F4511E"
      }
    },
    {
      "type": "Feature",
      "geometry": {
        "type": "Point",
        "coordinates": [
          106.431647,
          11.004504
        ]
      },
      "properties": {
        "feature_type": "bus_stop",
        "stop_id": 783,
        "stop_code": "HCC 029",
        "stop_name": "Ủy Ban nhân dân Xã Phước Thạnh",
        "stop_type": "Trụ dừng",
        "route_no": "70-2",
        "display_code": "B 70-2",
        "direction": "Lượt về",
        "address": "755 Quốc lộ 22",
        "street": "Quốc lộ 22",
        "zone": "Huyện Củ Chi",
        "ward": "Xã Phước Thạnh",
        "all_routes": "100, 107, 70-1, 70-2",
        "marker_color": "#F4511E"
      }
    },
    {
      "type": "Feature",
      "geometry": {
        "type": "Point",
        "coordinates": [
          106.435756,
          11.002966
        ]
      },
      "properties": {
        "feature_type": "bus_stop",
        "stop_id": 7844,
        "stop_code": "HCC 348",
        "stop_name": "Đường 622",
        "stop_type": "Ô sơn",
        "route_no": "70-2",
        "display_code": "B 70-2",
        "direction": "Lượt về",
        "address": "cạnh 685 (cạnh đường 622) Quốc lộ 22",
        "street": "Quốc lộ 22",
        "zone": "Huyện Củ Chi",
        "ward": "Xã Phước Thạnh",
        "all_routes": "100, 107, 70-1, 70-2",
        "marker_color": "#F4511E"
      }
    },
    {
      "type": "Feature",
      "geometry": {
        "type": "Point",
        "coordinates": [
          106.443239,
          10.998359
        ]
      },
      "properties": {
        "feature_type": "bus_stop",
        "stop_id": 7843,
        "stop_code": "HCC 353",
        "stop_name": "Cây xăng Phước Thạnh 2",
        "stop_type": "Nhà chờ",
        "route_no": "70-2",
        "display_code": "B 70-2",
        "direction": "Lượt về",
        "address": "613 (cạnh hẻm 53) Quốc lộ 22",
        "street": "Quốc lộ 22",
        "zone": "Huyện Củ Chi",
        "ward": "Xã Tân An Hội",
        "all_routes": "100, 107, 70-1, 70-2",
        "marker_color": "#F4511E"
      }
    },
    {
      "type": "Feature",
      "geometry": {
        "type": "Point",
        "coordinates": [
          106.44487,
          10.996617
        ]
      },
      "properties": {
        "feature_type": "bus_stop",
        "stop_id": 784,
        "stop_code": "HCC 030",
        "stop_name": "ấp cây trôm",
        "stop_type": "Trụ dừng",
        "route_no": "70-2",
        "display_code": "B 70-2",
        "direction": "Lượt về",
        "address": "585 Quốc lộ 22",
        "street": "Quốc lộ 22",
        "zone": "Huyện Củ Chi",
        "ward": "Xã Phước Hiệp",
        "all_routes": "100, 107, 70-1, 70-2",
        "marker_color": "#F4511E"
      }
    },
    {
      "type": "Feature",
      "geometry": {
        "type": "Point",
        "coordinates": [
          106.448362,
          10.992698
        ]
      },
      "properties": {
        "feature_type": "bus_stop",
        "stop_id": 792,
        "stop_code": "HCC 031",
        "stop_name": "Trường Tiểu học Phước Hiệp",
        "stop_type": "Nhà chờ",
        "route_no": "70-2",
        "display_code": "B 70-2",
        "direction": "Lượt về",
        "address": "499 Quốc lộ 22",
        "street": "Quốc lộ 22",
        "zone": "Huyện Củ Chi",
        "ward": "Xã Phước Hiệp",
        "all_routes": "100, 107, 70-1, 70-2",
        "marker_color": "#F4511E"
      }
    },
    {
      "type": "Feature",
      "geometry": {
        "type": "Point",
        "coordinates": [
          106.451263,
          10.989567
        ]
      },
      "properties": {
        "feature_type": "bus_stop",
        "stop_id": 794,
        "stop_code": "HCC 032",
        "stop_name": "UBND xã Phước Hiệp",
        "stop_type": "Nhà chờ",
        "route_no": "70-2",
        "display_code": "B 70-2",
        "direction": "Lượt về",
        "address": "UBND xã Phước Hiệp Quốc lộ 22",
        "street": "Quốc lộ 22",
        "zone": "Huyện Củ Chi",
        "ward": null,
        "all_routes": "100, 107, 70-1, 70-2",
        "marker_color": "#F4511E"
      }
    },
    {
      "type": "Feature",
      "geometry": {
        "type": "Point",
        "coordinates": [
          106.455658,
          10.986336
        ]
      },
      "properties": {
        "feature_type": "bus_stop",
        "stop_id": 7836,
        "stop_code": "HCC 347",
        "stop_name": "Cây xăng Phước Thạnh 3",
        "stop_type": "Ô sơn",
        "route_no": "70-2",
        "display_code": "B 70-2",
        "direction": "Lượt về",
        "address": "351 Quốc lộ 22",
        "street": "Quốc lộ 22",
        "zone": "Huyện Củ Chi",
        "ward": "Xã Phước Hiệp",
        "all_routes": "100, 107, 70-1, 70-2",
        "marker_color": "#F4511E"
      }
    },
    {
      "type": "Feature",
      "geometry": {
        "type": "Point",
        "coordinates": [
          106.458238,
          10.984662
        ]
      },
      "properties": {
        "feature_type": "bus_stop",
        "stop_id": 7834,
        "stop_code": "HCC 345",
        "stop_name": "Đường số 606",
        "stop_type": "Nhà chờ",
        "route_no": "70-2",
        "display_code": "B 70-2",
        "direction": "Lượt về",
        "address": "Đối diện đường số 606 Quốc lộ 22",
        "street": "Quốc lộ 22",
        "zone": "Huyện Củ Chi",
        "ward": "Xã Tân An Hội",
        "all_routes": "100, 107, 70-1, 70-2",
        "marker_color": "#F4511E"
      }
    },
    {
      "type": "Feature",
      "geometry": {
        "type": "Point",
        "coordinates": [
          106.461033,
          10.982855
        ]
      },
      "properties": {
        "feature_type": "bus_stop",
        "stop_id": 785,
        "stop_code": "HCC 033",
        "stop_name": "Cây xăng Tài Lộc 3",
        "stop_type": "Nhà chờ",
        "route_no": "70-2",
        "display_code": "B 70-2",
        "direction": "Lượt về",
        "address": "281 Quốc lộ 22",
        "street": "Quốc lộ 22",
        "zone": "Huyện Củ Chi",
        "ward": "Xã Phước Hiệp",
        "all_routes": "100, 107, 70-1, 70-2",
        "marker_color": "#F4511E"
      }
    },
    {
      "type": "Feature",
      "geometry": {
        "type": "Point",
        "coordinates": [
          106.463742,
          10.981049
        ]
      },
      "properties": {
        "feature_type": "bus_stop",
        "stop_id": 7680,
        "stop_code": "HCC 298",
        "stop_name": "Ấp Bàu Tre",
        "stop_type": "Trụ dừng",
        "route_no": "70-2",
        "display_code": "B 70-2",
        "direction": "Lượt về",
        "address": "227 Quốc lộ 22",
        "street": "Quốc lộ 22",
        "zone": "Huyện Củ Chi",
        "ward": "Xã Phước Hiệp",
        "all_routes": "100, 107, 70-1, 70-2",
        "marker_color": "#F4511E"
      }
    },
    {
      "type": "Feature",
      "geometry": {
        "type": "Point",
        "coordinates": [
          106.469632,
          10.977784
        ]
      },
      "properties": {
        "feature_type": "bus_stop",
        "stop_id": 796,
        "stop_code": "HCC 034",
        "stop_name": "Công ty phân bón sinh hóa Củ Chi",
        "stop_type": "Nhà chờ",
        "route_no": "70-2",
        "display_code": "B 70-2",
        "direction": "Lượt về",
        "address": "121 Quốc lộ 22",
        "street": "Quốc lộ 22",
        "zone": "Huyện Củ Chi",
        "ward": null,
        "all_routes": "100, 107, 70-1, 70-2",
        "marker_color": "#F4511E"
      }
    },
    {
      "type": "Feature",
      "geometry": {
        "type": "Point",
        "coordinates": [
          106.472717,
          10.976109
        ]
      },
      "properties": {
        "feature_type": "bus_stop",
        "stop_id": 787,
        "stop_code": "HCC 035",
        "stop_name": "Ngã 3 Nguyễn Thị Rành",
        "stop_type": "Nhà chờ",
        "route_no": "70-2",
        "display_code": "B 70-2",
        "direction": "Lượt về",
        "address": "55 Quốc lộ 22",
        "street": "Quốc lộ 22",
        "zone": "Huyện Củ Chi",
        "ward": "Xã Tân An Hội",
        "all_routes": "100, 107, 70-1, 70-2, 79",
        "marker_color": "#F4511E"
      }
    },
    {
      "type": "Feature",
      "geometry": {
        "type": "Point",
        "coordinates": [
          106.476579,
          10.974061
        ]
      },
      "properties": {
        "feature_type": "bus_stop",
        "stop_id": 788,
        "stop_code": "HCC 036",
        "stop_name": "Bệnh viện Củ Chi",
        "stop_type": "Trụ dừng",
        "route_no": "70-2",
        "display_code": "B 70-2",
        "direction": "Lượt về",
        "address": "991 (số 5-7 xe máy Quang Phương) Quốc lộ 22",
        "street": "Quốc lộ 22",
        "zone": "Huyện Củ Chi",
        "ward": "Xã Tân An Hội",
        "all_routes": "100, 107, 70-1, 70-2, 79",
        "marker_color": "#F4511E"
      }
    },
    {
      "type": "Feature",
      "geometry": {
        "type": "Point",
        "coordinates": [
          106.478097,
          10.973308
        ]
      },
      "properties": {
        "feature_type": "bus_stop",
        "stop_id": 9465,
        "stop_code": "HCC 365",
        "stop_name": "Bệnh viện đa khoa khu vực Củ Chi",
        "stop_type": "Trụ dừng",
        "route_no": "70-2",
        "display_code": "B 70-2",
        "direction": "Lượt về",
        "address": "965 Phan Văn Khải",
        "street": "Phan Văn Khải",
        "zone": "Huyện Củ Chi",
        "ward": "Xã Tân An Hội",
        "all_routes": "100, 107, 70-1, 70-2, 79",
        "marker_color": "#F4511E"
      }
    },
    {
      "type": "Feature",
      "geometry": {
        "type": "Point",
        "coordinates": [
          106.48049,
          10.972091
        ]
      },
      "properties": {
        "feature_type": "bus_stop",
        "stop_id": 963,
        "stop_code": "HCC 037",
        "stop_name": "Bến xe Củ Chi",
        "stop_type": "Trụ dừng",
        "route_no": "70-2",
        "display_code": "B 70-2",
        "direction": "Lượt về",
        "address": "907 (Chợ Củ Chi) Quốc lộ 22",
        "street": "Quốc lộ 22",
        "zone": "Huyện Củ Chi",
        "ward": "Thị trấn Củ Chi",
        "all_routes": "100, 107, 70-1, 70-2, 79",
        "marker_color": "#F4511E"
      }
    },
    {
      "type": "Feature",
      "geometry": {
        "type": "Point",
        "coordinates": [
          106.482453,
          10.970495
        ]
      },
      "properties": {
        "feature_type": "bus_stop",
        "stop_id": 7617,
        "stop_code": "HCC 279",
        "stop_name": "chợ Củ Chi",
        "stop_type": "Nhà chờ",
        "route_no": "70-2",
        "display_code": "B 70-2",
        "direction": "Lượt về",
        "address": "chợ Củ Chi Quốc lộ 22",
        "street": "Quốc lộ 22",
        "zone": "Huyện Củ Chi",
        "ward": "Thị trấn Củ Chi",
        "all_routes": "100, 107, 126, 13, 70-1, 70-2, 74, 79, 87, 94",
        "marker_color": "#F4511E"
      }
    }
  ]
}