{
  "type": "FeatureCollection",
  "properties": {
    "stt": 24,
    "route_no": "100",
    "display_code": "B 100",
    "route_name": "Bến xe Củ Chi - Cầu Tân Thái",
    "start_point": "Bến xe Củ Chi",
    "end_point": "Cầu Tân Thái",
    "listed_length_km": 16,
    "operating_hours": "4:45 - 21:00",
    "color": "#2196F3",
    "num_variants": 2,
    "total_stops": 75,
    "total_points": 635
  },
  "features": [
    {
      "type": "Feature",
      "geometry": {
        "type": "LineString",
        "coordinates": [
          [
            106.48210144,
            10.97161674
          ],
          [
            106.48210144,
            10.97161674
          ],
          [
            106.48210144,
            10.97161674
          ],
          [
            106.48210144,
            10.97161674
          ],
          [
            106.48187256,
            10.97175407
          ],
          [
            106.4832077,
            10.97370815
          ],
          [
            106.48303986,
            10.97380257
          ],
          [
            106.48154449,
            10.97150612
          ],
          [
            106.48094177,
            10.97202015
          ],
          [
            106.48064423,
            10.97227573
          ],
          [
            106.48030853,
            10.9724865
          ],
          [
            106.48034668,
            10.97253323
          ],
          [
            106.48034668,
            10.97253323
          ],
          [
            106.48034668,
            10.97253323
          ],
          [
            106.48034668,
            10.97253323
          ],
          [
            106.48034668,
            10.97253323
          ],
          [
            106.48031616,
            10.97248077
          ],
          [
            106.47977448,
            10.97278118
          ],
          [
            106.47917938,
            10.97306538
          ],
          [
            106.47802734,
            10.97359753
          ],
          [
            106.47686768,
            10.97415066
          ],
          [
            106.47570801,
            10.97469234
          ],
          [
            106.47573853,
            10.97475624
          ],
          [
            106.47573853,
            10.97475624
          ],
          [
            106.47572327,
            10.97468758
          ],
          [
            106.47505951,
            10.97502708
          ],
          [
            106.47438812,
            10.97536659
          ],
          [
            106.47373962,
            10.97572708
          ],
          [
            106.47309875,
            10.97608852
          ],
          [
            106.47312927,
            10.97613335
          ],
          [
            106.47312927,
            10.97613335
          ],
          [
            106.47310638,
            10.9760828
          ],
          [
            106.47216797,
            10.97659397
          ],
          [
            106.47125244,
            10.97710991
          ],
          [
            106.47033691,
            10.9776001
          ],
          [
            106.46942139,
            10.97811604
          ],
          [
            106.4694519,
            10.97817898
          ],
          [
            106.4694519,
            10.97817898
          ],
          [
            106.4694519,
            10.97817898
          ],
          [
            106.46940613,
            10.97810555
          ],
          [
            106.46873474,
            10.97847557
          ],
          [
            106.46807098,
            10.9788456
          ],
          [
            106.4673996,
            10.97921467
          ],
          [
            106.46672821,
            10.97958469
          ],
          [
            106.4661026,
            10.97994137
          ],
          [
            106.46547699,
            10.980299
          ],
          [
            106.46485901,
            10.98065567
          ],
          [
            106.4642334,
            10.98101711
          ],
          [
            106.46430206,
            10.98113346
          ],
          [
            106.46430206,
            10.98113346
          ],
          [
            106.46430206,
            10.98113346
          ],
          [
            106.46430206,
            10.98113346
          ],
          [
            106.46421814,
            10.98101234
          ],
          [
            106.46342468,
            10.98147869
          ],
          [
            106.46263885,
            10.98194408
          ],
          [
            106.46189117,
            10.98244476
          ],
          [
            106.46114349,
            10.98294449
          ],
          [
            106.46123505,
            10.98305035
          ],
          [
            106.46123505,
            10.98305035
          ],
          [
            106.46123505,
            10.98305035
          ],
          [
            106.46116638,
            10.98295498
          ],
          [
            106.46046448,
            10.98340797
          ],
          [
            106.4597702,
            10.98386097
          ],
          [
            106.45907593,
            10.9843111
          ],
          [
            106.45837402,
            10.98476124
          ],
          [
            106.4584198,
            10.98480892
          ],
          [
            106.4584198,
            10.98480892
          ],
          [
            106.4584198,
            10.98480892
          ],
          [
            106.45839691,
            10.98475075
          ],
          [
            106.45732117,
            10.98546505
          ],
          [
            106.45624542,
            10.9861784
          ],
          [
            106.45517731,
            10.9868679
          ],
          [
            106.45411682,
            10.98755836
          ],
          [
            106.45295715,
            10.98830032
          ],
          [
            106.45191193,
            10.9890852
          ],
          [
            106.4513092,
            10.9896698
          ],
          [
            106.45136261,
            10.98970699
          ],
          [
            106.45136261,
            10.98970699
          ],
          [
            106.4513092,
            10.9896698
          ],
          [
            106.45103455,
            10.98997498
          ],
          [
            106.45076752,
            10.99028015
          ],
          [
            106.45049286,
            10.99058628
          ],
          [
            106.45022583,
            10.99089146
          ],
          [
            106.44994354,
            10.99120426
          ],
          [
            106.44965363,
            10.99151707
          ],
          [
            106.44937134,
            10.99182987
          ],
          [
            106.44908142,
            10.99214172
          ],
          [
            106.44879913,
            10.99245453
          ],
          [
            106.44850922,
            10.99276733
          ],
          [
            106.44822693,
            10.99308014
          ],
          [
            106.44793701,
            10.99339294
          ],
          [
            106.44799042,
            10.99342442
          ],
          [
            106.44799042,
            10.99342442
          ],
          [
            106.44799042,
            10.99342442
          ],
          [
            106.44792938,
            10.99337673
          ],
          [
            106.44755554,
            10.99379253
          ],
          [
            106.4471817,
            10.99420929
          ],
          [
            106.44680786,
            10.99462509
          ],
          [
            106.44643402,
            10.99504089
          ],
          [
            106.44606018,
            10.9954567
          ],
          [
            106.44569397,
            10.99587345
          ],
          [
            106.44532013,
            10.99628925
          ],
          [
            106.44494629,
            10.99670506
          ],
          [
            106.44506073,
            10.99678898
          ],
          [
            106.44506073,
            10.99678898
          ],
          [
            106.44494629,
            10.99669933
          ],
          [
            106.44412994,
            10.99761105
          ],
          [
            106.44329071,
            10.9985323
          ],
          [
            106.44238281,
            10.99943256
          ],
          [
            106.44187164,
            10.99982262
          ],
          [
            106.44133759,
            11.00016499
          ],
          [
            106.43898773,
            11.0014286
          ],
          [
            106.43782043,
            11.00205517
          ],
          [
            106.43666077,
            11.00268173
          ],
          [
            106.43667603,
            11.00271893
          ],
          [
            106.43667603,
            11.00271893
          ],
          [
            106.43666077,
            11.00266647
          ],
          [
            106.4355545,
            11.00326061
          ],
          [
            106.4344635,
            11.00375557
          ],
          [
            106.43319702,
            11.00415325
          ],
          [
            106.4319458,
            11.00456142
          ],
          [
            106.43196869,
            11.00463009
          ],
          [
            106.43196869,
            11.00463009
          ],
          [
            106.43196869,
            11.00463009
          ],
          [
            106.43196869,
            11.00463009
          ],
          [
            106.4319458,
            11.00455666
          ],
          [
            106.43119812,
            11.00477505
          ],
          [
            106.43045807,
            11.00499344
          ],
          [
            106.42972565,
            11.00524902
          ],
          [
            106.42899323,
            11.00550461
          ],
          [
            106.42814636,
            11.00576687
          ],
          [
            106.42814636,
            11.00576687
          ],
          [
            106.42814636,
            11.00576687
          ],
          [
            106.42814636,
            11.00576687
          ],
          [
            106.42814636,
            11.00576687
          ],
          [
            106.42776489,
            11.00587368
          ],
          [
            106.42736816,
            11.00602531
          ],
          [
            106.42710114,
            11.00539875
          ],
          [
            106.42699432,
            11.00516224
          ],
          [
            106.42669678,
            11.0050478
          ],
          [
            106.42669678,
            11.0050478
          ],
          [
            106.42669678,
            11.0050478
          ],
          [
            106.4263916,
            11.00485134
          ],
          [
            106.42578125,
            11.00458241
          ],
          [
            106.42533112,
            11.00438309
          ],
          [
            106.42487335,
            11.00418282
          ],
          [
            106.42485809,
            11.00422478
          ],
          [
            106.42485809,
            11.00422478
          ],
          [
            106.42487335,
            11.00417233
          ],
          [
            106.42444611,
            11.00400352
          ],
          [
            106.42401123,
            11.00376129
          ],
          [
            106.42379761,
            11.00331879
          ],
          [
            106.42358398,
            11.00287628
          ],
          [
            106.42355347,
            11.00290012
          ],
          [
            106.42355347,
            11.00290012
          ],
          [
            106.42355347,
            11.00290012
          ],
          [
            106.42355347,
            11.00290012
          ],
          [
            106.42358398,
            11.00288677
          ],
          [
            106.42334747,
            11.00240898
          ],
          [
            106.42310333,
            11.00193119
          ],
          [
            106.42286682,
            11.0014534
          ],
          [
            106.42262268,
            11.00097561
          ],
          [
            106.4223938,
            11.00049496
          ],
          [
            106.42215729,
            11.00001431
          ],
          [
            106.42215729,
            11.00001431
          ],
          [
            106.42215729,
            11.00001431
          ],
          [
            106.42192078,
            10.99956322
          ],
          [
            106.42168427,
            10.99911213
          ],
          [
            106.42144775,
            10.99866199
          ],
          [
            106.42121124,
            10.99821091
          ],
          [
            106.42095947,
            10.9976902
          ],
          [
            106.42072296,
            10.99711609
          ],
          [
            106.42048645,
            10.99654198
          ],
          [
            106.4200058,
            10.9962492
          ],
          [
            106.41952515,
            10.99595737
          ],
          [
            106.41901398,
            10.99568367
          ],
          [
            106.41850281,
            10.99540997
          ],
          [
            106.41850281,
            10.99540997
          ],
          [
            106.41788483,
            10.99499893
          ],
          [
            106.41719818,
            10.99460411
          ],
          [
            106.41651154,
            10.99421978
          ],
          [
            106.41581726,
            10.99386692
          ],
          [
            106.41581726,
            10.99386692
          ],
          [
            106.41581726,
            10.99386692
          ],
          [
            106.41581726,
            10.99386692
          ],
          [
            106.41534424,
            10.99355316
          ],
          [
            106.41484833,
            10.99328232
          ],
          [
            106.41437531,
            10.99302959
          ],
          [
            106.41389465,
            10.99277687
          ],
          [
            106.41394043,
            10.99270344
          ],
          [
            106.41394043,
            10.99270344
          ],
          [
            106.41394043,
            10.99270344
          ],
          [
            106.41394043,
            10.99270344
          ],
          [
            106.41394043,
            10.99270344
          ],
          [
            106.41388702,
            10.99276638
          ],
          [
            106.41349792,
            10.99253178
          ],
          [
            106.4131012,
            10.99229717
          ],
          [
            106.41268158,
            10.99206066
          ],
          [
            106.41225433,
            10.9918232
          ],
          [
            106.41183472,
            10.99159336
          ],
          [
            106.41140747,
            10.99136257
          ],
          [
            106.4109726,
            10.99111652
          ],
          [
            106.41053772,
            10.99087048
          ],
          [
            106.409935,
            10.99091721
          ],
          [
            106.409935,
            10.99091721
          ],
          [
            106.409935,
            10.99091721
          ],
          [
            106.4090271,
            10.99096012
          ],
          [
            106.40821075,
            10.99101734
          ],
          [
            106.40739441,
            10.99107552
          ],
          [
            106.40657806,
            10.99113274
          ],
          [
            106.40576172,
            10.99118996
          ],
          [
            106.40523529,
            10.99125099
          ],
          [
            106.40523529,
            10.99125099
          ],
          [
            106.40444946,
            10.99127579
          ],
          [
            106.40367889,
            10.99127388
          ],
          [
            106.4029007,
            10.99128532
          ],
          [
            106.4021225,
            10.99129677
          ],
          [
            106.40213776,
            10.99136353
          ],
          [
            106.40213776,
            10.99136353
          ],
          [
            106.40213776,
            10.99136353
          ],
          [
            106.40213013,
            10.99128628
          ],
          [
            106.4015274,
            10.99127579
          ],
          [
            106.40090942,
            10.99127579
          ],
          [
            106.40029144,
            10.99127579
          ],
          [
            106.39967346,
            10.99127579
          ],
          [
            106.39967346,
            10.99130726
          ],
          [
            106.39967346,
            10.99130726
          ],
          [
            106.39967346,
            10.99130726
          ],
          [
            106.39967346,
            10.99127579
          ],
          [
            106.39906311,
            10.99127293
          ],
          [
            106.39846039,
            10.99127102
          ],
          [
            106.39846039,
            10.99132824
          ],
          [
            106.39846039,
            10.99132824
          ],
          [
            106.39846802,
            10.99127102
          ],
          [
            106.39788818,
            10.99127483
          ],
          [
            106.39731598,
            10.99127865
          ],
          [
            106.39673615,
            10.99128246
          ],
          [
            106.39616394,
            10.99128628
          ],
          [
            106.39558411,
            10.99129009
          ],
          [
            106.3950119,
            10.99129391
          ],
          [
            106.39443207,
            10.99129772
          ],
          [
            106.39385986,
            10.99130154
          ],
          [
            106.39385986,
            10.99130154
          ],
          [
            106.39317322,
            10.9913044
          ],
          [
            106.3924942,
            10.99130726
          ],
          [
            106.3914032,
            10.99151421
          ],
          [
            106.39031219,
            10.99172115
          ],
          [
            106.39031219,
            10.99172115
          ],
          [
            106.39031219,
            10.99172115
          ],
          [
            106.38986969,
            10.99176025
          ],
          [
            106.38884735,
            10.99192047
          ],
          [
            106.38805389,
            10.9920578
          ],
          [
            106.38726807,
            10.99219608
          ],
          [
            106.38647461,
            10.99233341
          ],
          [
            106.38568115,
            10.99247074
          ],
          [
            106.38568115,
            10.99247074
          ],
          [
            106.38568115,
            10.99247074
          ],
          [
            106.3852005,
            10.99253464
          ],
          [
            106.38472748,
            10.9926033
          ],
          [
            106.38424683,
            10.99267673
          ],
          [
            106.38376617,
            10.99275017
          ],
          [
            106.38327789,
            10.9928236
          ],
          [
            106.38279724,
            10.99289799
          ],
          [
            106.38235474,
            10.99298763
          ],
          [
            106.3819046,
            10.99307823
          ],
          [
            106.3819046,
            10.99307823
          ],
          [
            106.38129425,
            10.99317074
          ],
          [
            106.38067627,
            10.9932642
          ],
          [
            106.38005066,
            10.99336052
          ],
          [
            106.37943268,
            10.99345589
          ],
          [
            106.37944794,
            10.99353027
          ],
          [
            106.37944794,
            10.99353027
          ],
          [
            106.37944794,
            10.99353027
          ],
          [
            106.37944031,
            10.9934454
          ],
          [
            106.37882996,
            10.99352455
          ],
          [
            106.3782196,
            10.99360371
          ],
          [
            106.37760162,
            10.99368191
          ],
          [
            106.37699127,
            10.99376106
          ],
          [
            106.3763504,
            10.99377537
          ],
          [
            106.37571716,
            10.99379063
          ],
          [
            106.37507629,
            10.99380493
          ],
          [
            106.37443542,
            10.99381924
          ],
          [
            106.3744278,
            10.99387741
          ],
          [
            106.3744278,
            10.99387741
          ],
          [
            106.3744278,
            10.99387741
          ],
          [
            106.3744278,
            10.99387741
          ],
          [
            106.3744278,
            10.99381447
          ],
          [
            106.37348938,
            10.99383545
          ],
          [
            106.37254333,
            10.99385643
          ],
          [
            106.37215424,
            10.99359798
          ],
          [
            106.37211609,
            10.99363041
          ],
          [
            106.37211609,
            10.99363041
          ],
          [
            106.37211609,
            10.99363041
          ],
          [
            106.37214661,
            10.99359322
          ],
          [
            106.37158203,
            10.99325085
          ],
          [
            106.37102509,
            10.99290848
          ],
          [
            106.3704834,
            10.99257088
          ],
          [
            106.36994934,
            10.99222565
          ],
          [
            106.36994934,
            10.99222565
          ],
          [
            106.36964417,
            10.99182701
          ],
          [
            106.36934662,
            10.99142838
          ],
          [
            106.36907196,
            10.99101257
          ],
          [
            106.36878967,
            10.99059677
          ],
          [
            106.36851501,
            10.99017906
          ],
          [
            106.36824036,
            10.98976231
          ],
          [
            106.3679657,
            10.9893446
          ],
          [
            106.36768341,
            10.98892689
          ],
          [
            106.36741638,
            10.98850727
          ],
          [
            106.36714172,
            10.98808765
          ],
          [
            106.36687469,
            10.98766899
          ],
          [
            106.36660004,
            10.98724747
          ],
          [
            106.36632538,
            10.98682594
          ],
          [
            106.36605072,
            10.98640442
          ],
          [
            106.36580658,
            10.98598385
          ],
          [
            106.36555481,
            10.98556328
          ],
          [
            106.36555481,
            10.98556328
          ],
          [
            106.36558533,
            10.98534012
          ]
        ]
      },
      "properties": {
        "feature_type": "route_path",
        "stt": 24,
        "route_id": 11,
        "route_no": "100",
        "display_code": "B 100",
        "route_name": "Bến xe Củ Chi - Cầu Tân Thái",
        "direction": "Lượt đi",
        "outbound": true,
        "start_point": "Bến xe Củ Chi",
        "end_point": "Cầu Tân Thái",
        "start_stop": "Bến xe Củ Chi",
        "end_stop": "Điểm đầu cuối cầu Tân Thái (điều chỉnh)",
        "distance_km": 16.16,
        "listed_length_km": 16,
        "running_time_min": 35,
        "operating_hours": "4:45 - 21:00",
        "stroke": "#2196F3",
        "stroke_width": 4,
        "stroke_opacity": 0.85
      }
    },
    {
      "type": "Feature",
      "geometry": {
        "type": "LineString",
        "coordinates": [
          [
            106.36558533,
            10.98534012
          ],
          [
            106.36553192,
            10.98535156
          ],
          [
            106.36553192,
            10.98535156
          ],
          [
            106.36602783,
            10.98622608
          ],
          [
            106.36656952,
            10.98706818
          ],
          [
            106.36711884,
            10.98792171
          ],
          [
            106.36766815,
            10.9887743
          ],
          [
            106.3682251,
            10.98961449
          ],
          [
            106.36878967,
            10.99045467
          ],
          [
            106.36936188,
            10.99128151
          ],
          [
            106.36965942,
            10.99172878
          ],
          [
            106.36998749,
            10.99210072
          ],
          [
            106.36998749,
            10.99210072
          ],
          [
            106.37017822,
            10.99230289
          ],
          [
            106.37043762,
            10.99247074
          ],
          [
            106.37097931,
            10.99280262
          ],
          [
            106.37152863,
            10.99311924
          ],
          [
            106.37207794,
            10.99343491
          ],
          [
            106.37207794,
            10.99343491
          ],
          [
            106.37232971,
            10.99361134
          ],
          [
            106.37258148,
            10.99378777
          ],
          [
            106.37329865,
            10.99378204
          ],
          [
            106.37402344,
            10.99377728
          ],
          [
            106.37474823,
            10.99376106
          ],
          [
            106.37547302,
            10.9937458
          ],
          [
            106.37547302,
            10.99370289
          ],
          [
            106.37547302,
            10.99370289
          ],
          [
            106.37547302,
            10.99370289
          ],
          [
            106.37548828,
            10.99376678
          ],
          [
            106.37617493,
            10.9937458
          ],
          [
            106.37686157,
            10.99372482
          ],
          [
            106.37763214,
            10.99362946
          ],
          [
            106.37840271,
            10.99353504
          ],
          [
            106.37916565,
            10.99343395
          ],
          [
            106.37993622,
            10.99333286
          ],
          [
            106.37992859,
            10.99326611
          ],
          [
            106.37992859,
            10.99326611
          ],
          [
            106.37992859,
            10.99326611
          ],
          [
            106.37993622,
            10.99330807
          ],
          [
            106.38046265,
            10.99322414
          ],
          [
            106.38098907,
            10.99314022
          ],
          [
            106.3815155,
            10.99304485
          ],
          [
            106.38204193,
            10.99295425
          ],
          [
            106.38204193,
            10.99295425
          ],
          [
            106.38285828,
            10.9928236
          ],
          [
            106.38366699,
            10.9926939
          ],
          [
            106.38448334,
            10.99256325
          ],
          [
            106.38529968,
            10.99243259
          ],
          [
            106.38529968,
            10.99243259
          ],
          [
            106.38635254,
            10.99226475
          ],
          [
            106.3874054,
            10.9920969
          ],
          [
            106.38845825,
            10.9919281
          ],
          [
            106.38951111,
            10.99176025
          ],
          [
            106.38951874,
            10.99167633
          ],
          [
            106.38951874,
            10.99167633
          ],
          [
            106.389534,
            10.99176025
          ],
          [
            106.39037323,
            10.99161243
          ],
          [
            106.39117432,
            10.99149132
          ],
          [
            106.39202881,
            10.99131298
          ],
          [
            106.39328003,
            10.99123383
          ],
          [
            106.3932724,
            10.99118614
          ],
          [
            106.3932724,
            10.99118614
          ],
          [
            106.3932724,
            10.99118614
          ],
          [
            106.39326477,
            10.99122334
          ],
          [
            106.39385223,
            10.99122906
          ],
          [
            106.3944397,
            10.99123383
          ],
          [
            106.39501953,
            10.99123955
          ],
          [
            106.39560699,
            10.99124432
          ],
          [
            106.39617157,
            10.9912405
          ],
          [
            106.39673615,
            10.99123669
          ],
          [
            106.39730072,
            10.99123192
          ],
          [
            106.3978653,
            10.9912281
          ],
          [
            106.39788818,
            10.99111843
          ],
          [
            106.39788818,
            10.99111843
          ],
          [
            106.39788818,
            10.99111843
          ],
          [
            106.3978653,
            10.9912281
          ],
          [
            106.39839172,
            10.99122334
          ],
          [
            106.39892578,
            10.99121761
          ],
          [
            106.39945221,
            10.99121189
          ],
          [
            106.39998627,
            10.99120712
          ],
          [
            106.39998627,
            10.99120712
          ],
          [
            106.4006424,
            10.99121475
          ],
          [
            106.40129089,
            10.99122334
          ],
          [
            106.40194702,
            10.99123096
          ],
          [
            106.40259552,
            10.99123859
          ],
          [
            106.40261078,
            10.99113941
          ],
          [
            106.40261078,
            10.99113941
          ],
          [
            106.40259552,
            10.99124432
          ],
          [
            106.4031601,
            10.99123955
          ],
          [
            106.40372467,
            10.99123383
          ],
          [
            106.40428162,
            10.99122906
          ],
          [
            106.40484619,
            10.99122334
          ],
          [
            106.40545654,
            10.9911499
          ],
          [
            106.40545654,
            10.99109745
          ],
          [
            106.40545654,
            10.99109745
          ],
          [
            106.40545654,
            10.99109745
          ],
          [
            106.40546417,
            10.99113369
          ],
          [
            106.4054718,
            10.99117088
          ],
          [
            106.40683746,
            10.99106503
          ],
          [
            106.40777588,
            10.99100494
          ],
          [
            106.40871429,
            10.99094391
          ],
          [
            106.40964508,
            10.99088383
          ],
          [
            106.4105835,
            10.99082279
          ],
          [
            106.41114044,
            10.99114418
          ],
          [
            106.41125488,
            10.99094868
          ],
          [
            106.41125488,
            10.99094868
          ],
          [
            106.41125488,
            10.99094868
          ],
          [
            106.41125488,
            10.99094868
          ],
          [
            106.41121674,
            10.99103355
          ],
          [
            106.41114044,
            10.99117088
          ],
          [
            106.41196442,
            10.99162483
          ],
          [
            106.41278076,
            10.99207878
          ],
          [
            106.41360474,
            10.99253273
          ],
          [
            106.41442871,
            10.99298763
          ],
          [
            106.41452026,
            10.99289227
          ],
          [
            106.41452026,
            10.99289227
          ],
          [
            106.41452026,
            10.99289227
          ],
          [
            106.41444397,
            10.99299812
          ],
          [
            106.41498566,
            10.99329948
          ],
          [
            106.41553497,
            10.99360085
          ],
          [
            106.41607666,
            10.99390221
          ],
          [
            106.41661835,
            10.99420357
          ],
          [
            106.41667175,
            10.99411869
          ],
          [
            106.41667175,
            10.99411869
          ],
          [
            106.41663361,
            10.9941988
          ],
          [
            106.41720581,
            10.99452496
          ],
          [
            106.41777039,
            10.99485111
          ],
          [
            106.41835785,
            10.9951992
          ],
          [
            106.41894531,
            10.99554729
          ],
          [
            106.41894531,
            10.99554729
          ],
          [
            106.4197464,
            10.99603367
          ],
          [
            106.42053986,
            10.996521
          ],
          [
            106.42081451,
            10.99716282
          ],
          [
            106.42108154,
            10.9978056
          ],
          [
            106.42140198,
            10.99843502
          ],
          [
            106.42172241,
            10.99906445
          ],
          [
            106.42204285,
            10.99968338
          ],
          [
            106.42236328,
            11.00030136
          ],
          [
            106.42258453,
            11.00022316
          ],
          [
            106.42258453,
            11.00022316
          ],
          [
            106.42234802,
            11.00031185
          ],
          [
            106.42271423,
            11.00104141
          ],
          [
            106.42308807,
            11.00177097
          ],
          [
            106.42344666,
            11.00251579
          ],
          [
            106.42381287,
            11.00326061
          ],
          [
            106.42386627,
            11.00323009
          ],
          [
            106.42386627,
            11.00323009
          ],
          [
            106.42386627,
            11.00323009
          ],
          [
            106.42378998,
            11.00325584
          ],
          [
            106.42405701,
            11.00374508
          ],
          [
            106.42449951,
            11.00398731
          ],
          [
            106.42498016,
            11.00419998
          ],
          [
            106.42546844,
            11.0044117
          ],
          [
            106.4259491,
            11.00462341
          ],
          [
            106.42643738,
            11.00483513
          ],
          [
            106.4264679,
            11.00479317
          ],
          [
            106.4264679,
            11.00479317
          ],
          [
            106.4264679,
            11.00479317
          ],
          [
            106.42642212,
            11.00483036
          ],
          [
            106.42703247,
            11.00517273
          ],
          [
            106.42736816,
            11.00589371
          ],
          [
            106.42808533,
            11.00567245
          ],
          [
            106.42807007,
            11.0055666
          ],
          [
            106.42807007,
            11.0055666
          ],
          [
            106.42807007,
            11.0055666
          ],
          [
            106.42808533,
            11.00567245
          ],
          [
            106.4289856,
            11.00539112
          ],
          [
            106.42988586,
            11.00510979
          ],
          [
            106.43077087,
            11.00483036
          ],
          [
            106.43165588,
            11.00455093
          ],
          [
            106.43164825,
            11.0045042
          ],
          [
            106.43164825,
            11.0045042
          ],
          [
            106.43164825,
            11.0045042
          ],
          [
            106.43165588,
            11.00456142
          ],
          [
            106.43273163,
            11.00420856
          ],
          [
            106.43382263,
            11.00384045
          ],
          [
            106.43483734,
            11.00349808
          ],
          [
            106.43578339,
            11.00303459
          ],
          [
            106.43575287,
            11.00296593
          ],
          [
            106.43575287,
            11.00296593
          ],
          [
            106.43580627,
            11.0030241
          ],
          [
            106.43778229,
            11.00198174
          ],
          [
            106.43877411,
            11.00144196
          ],
          [
            106.43976593,
            11.00090218
          ],
          [
            106.44074249,
            11.0003624
          ],
          [
            106.44171143,
            10.99982262
          ],
          [
            106.44216156,
            10.99950123
          ],
          [
            106.44258118,
            10.99915886
          ],
          [
            106.44329071,
            10.99839497
          ],
          [
            106.4432373,
            10.99835873
          ],
          [
            106.4432373,
            10.99835873
          ],
          [
            106.44329834,
            10.9983902
          ],
          [
            106.44368744,
            10.99795341
          ],
          [
            106.44407654,
            10.99751568
          ],
          [
            106.44448853,
            10.99707413
          ],
          [
            106.44487,
            10.99661732
          ],
          [
            106.44487,
            10.99661732
          ],
          [
            106.44487,
            10.99661732
          ],
          [
            106.44487,
            10.99661732
          ],
          [
            106.44491577,
            10.99664211
          ],
          [
            106.44532776,
            10.99616814
          ],
          [
            106.44578552,
            10.99568844
          ],
          [
            106.44620514,
            10.99521255
          ],
          [
            106.44663239,
            10.99473572
          ],
          [
            106.44706726,
            10.99425697
          ],
          [
            106.44750214,
            10.99377728
          ],
          [
            106.44792175,
            10.99328899
          ],
          [
            106.44833374,
            10.99279976
          ],
          [
            106.44833374,
            10.99279976
          ],
          [
            106.44836426,
            10.99269772
          ],
          [
            106.44836426,
            10.99269772
          ],
          [
            106.44841003,
            10.99272919
          ],
          [
            106.44876862,
            10.99233723
          ],
          [
            106.44913483,
            10.99194431
          ],
          [
            106.44949341,
            10.99155235
          ],
          [
            106.44985199,
            10.99116039
          ],
          [
            106.45021057,
            10.99076271
          ],
          [
            106.45056915,
            10.99036503
          ],
          [
            106.45091248,
            10.98996544
          ],
          [
            106.45126343,
            10.9895668
          ],
          [
            106.45126343,
            10.9895668
          ],
          [
            106.45173645,
            10.98910618
          ],
          [
            106.45226288,
            10.98869038
          ],
          [
            106.45340729,
            10.98792171
          ],
          [
            106.45458984,
            10.9871521
          ],
          [
            106.45570374,
            10.9864254
          ],
          [
            106.45565796,
            10.98633575
          ],
          [
            106.45565796,
            10.98633575
          ],
          [
            106.45571899,
            10.98639965
          ],
          [
            106.45700073,
            10.98556232
          ],
          [
            106.45827484,
            10.98471451
          ],
          [
            106.45823669,
            10.98466206
          ],
          [
            106.45823669,
            10.98466206
          ],
          [
            106.45823669,
            10.98466206
          ],
          [
            106.45826721,
            10.98470879
          ],
          [
            106.45897675,
            10.98425579
          ],
          [
            106.45967865,
            10.9838028
          ],
          [
            106.46038055,
            10.98334503
          ],
          [
            106.4610672,
            10.98290253
          ],
          [
            106.46103668,
            10.98285484
          ],
          [
            106.46103668,
            10.98285484
          ],
          [
            106.46103668,
            10.98285484
          ],
          [
            106.4610672,
            10.98290825
          ],
          [
            106.46174622,
            10.98246288
          ],
          [
            106.46242523,
            10.98201847
          ],
          [
            106.46311188,
            10.98158646
          ],
          [
            106.46379852,
            10.98115444
          ],
          [
            106.46374512,
            10.98104858
          ],
          [
            106.46374512,
            10.98104858
          ],
          [
            106.46374512,
            10.98104858
          ],
          [
            106.46379852,
            10.98114395
          ],
          [
            106.46451569,
            10.98073292
          ],
          [
            106.46524048,
            10.98031712
          ],
          [
            106.4659729,
            10.97991467
          ],
          [
            106.46670532,
            10.97951126
          ],
          [
            106.46744537,
            10.97910309
          ],
          [
            106.46818542,
            10.97869492
          ],
          [
            106.46892548,
            10.97828674
          ],
          [
            106.46966553,
            10.97787857
          ],
          [
            106.46963501,
            10.97778416
          ],
          [
            106.46963501,
            10.97778416
          ],
          [
            106.46963501,
            10.97778416
          ],
          [
            106.46963501,
            10.97778416
          ],
          [
            106.46966553,
            10.97787857
          ],
          [
            106.47042084,
            10.97744942
          ],
          [
            106.47117615,
            10.97702026
          ],
          [
            106.47195435,
            10.97659683
          ],
          [
            106.47274017,
            10.97617245
          ],
          [
            106.47271729,
            10.97610855
          ],
          [
            106.47271729,
            10.97610855
          ],
          [
            106.47271729,
            10.97610855
          ],
          [
            106.47271729,
            10.97610855
          ],
          [
            106.47276306,
            10.97615719
          ],
          [
            106.47372437,
            10.97564316
          ],
          [
            106.4746933,
            10.97513008
          ],
          [
            106.47564697,
            10.97464848
          ],
          [
            106.47660065,
            10.97416592
          ],
          [
            106.47657776,
            10.97406101
          ],
          [
            106.47657776,
            10.97406101
          ],
          [
            106.47657776,
            10.97406101
          ],
          [
            106.47657776,
            10.97406101
          ],
          [
            106.47662354,
            10.97413445
          ],
          [
            106.47734833,
            10.97375488
          ],
          [
            106.47812653,
            10.97338104
          ],
          [
            106.47809601,
            10.97330761
          ],
          [
            106.47809601,
            10.97330761
          ],
          [
            106.47809601,
            10.97330761
          ],
          [
            106.47809601,
            10.97330761
          ],
          [
            106.47814178,
            10.97338104
          ],
          [
            106.47930908,
            10.97284985
          ],
          [
            106.47994995,
            10.97254944
          ],
          [
            106.48053741,
            10.9721384
          ],
          [
            106.48049164,
            10.97209072
          ],
          [
            106.48049164,
            10.97209072
          ],
          [
            106.48049164,
            10.97209072
          ],
          [
            106.48049164,
            10.97209072
          ],
          [
            106.48049164,
            10.97209072
          ],
          [
            106.48054504,
            10.97214413
          ],
          [
            106.48134613,
            10.97150135
          ],
          [
            106.48191071,
            10.97102737
          ],
          [
            106.48249054,
            10.9705534
          ],
          [
            106.48245239,
            10.97049522
          ],
          [
            106.48245239,
            10.97049522
          ],
          [
            106.48245239,
            10.97049522
          ],
          [
            106.48245239,
            10.97049522
          ],
          [
            106.48248291,
            10.97053242
          ],
          [
            106.48420715,
            10.96936321
          ],
          [
            106.48522949,
            10.9686842
          ],
          [
            106.48571014,
            10.96838856
          ],
          [
            106.48602295,
            10.96812534
          ],
          [
            106.48632813,
            10.96824646
          ],
          [
            106.48619843,
            10.96862602
          ],
          [
            106.48579407,
            10.9686203
          ],
          [
            106.48487091,
            10.9690733
          ],
          [
            106.48377991,
            10.96977901
          ],
          [
            106.48271942,
            10.9705162
          ],
          [
            106.48174286,
            10.97130108
          ],
          [
            106.48210144,
            10.97161674
          ]
        ]
      },
      "properties": {
        "feature_type": "route_path",
        "stt": 24,
        "route_id": 11,
        "route_no": "100",
        "display_code": "B 100",
        "route_name": "Bến xe Củ Chi - Cầu Tân Thái",
        "direction": "Lượt về",
        "outbound": false,
        "start_point": "Bến xe Củ Chi",
        "end_point": "Cầu Tân Thái",
        "start_stop": "Điểm đầu cuối cầu Tân Thái (điều chỉnh)",
        "end_stop": "Bến xe Củ Chi",
        "distance_km": 17.04,
        "listed_length_km": 16,
        "running_time_min": 35,
        "operating_hours": "4:45 - 21:00",
        "stroke": "#2196F3",
        "stroke_width": 4,
        "stroke_opacity": 0.85
      }
    },
    {
      "type": "Feature",
      "geometry": {
        "type": "Point",
        "coordinates": [
          106.482099,
          10.971617
        ]
      },
      "properties": {
        "feature_type": "bus_stop",
        "stop_id": 732,
        "stop_code": "BX 63",
        "stop_name": "Bến xe Củ Chi",
        "stop_type": "Bến xe",
        "route_no": "100",
        "display_code": "B 100",
        "direction": "Lượt đi",
        "address": "Bến xe Củ Chi Quốc lộ 22",
        "street": "Quốc lộ 22",
        "zone": "Huyện Củ Chi",
        "ward": null,
        "all_routes": "100, 107, 126, 13, 70-1, 70-2, 74, 79, 87, 94",
        "marker_color": "#2196F3"
      }
    },
    {
      "type": "Feature",
      "geometry": {
        "type": "Point",
        "coordinates": [
          106.480347,
          10.972533
        ]
      },
      "properties": {
        "feature_type": "bus_stop",
        "stop_id": 734,
        "stop_code": "HCC 018",
        "stop_name": "Bến xe Củ Chi",
        "stop_type": "Nhà chờ",
        "route_no": "100",
        "display_code": "B 100",
        "direction": "Lượt đi",
        "address": "928 Quốc lộ 22",
        "street": "Quốc lộ 22",
        "zone": "Huyện Củ Chi",
        "ward": null,
        "all_routes": "100, 107, 70-1, 70-2, 79",
        "marker_color": "#2196F3"
      }
    },
    {
      "type": "Feature",
      "geometry": {
        "type": "Point",
        "coordinates": [
          106.475742,
          10.974756
        ]
      },
      "properties": {
        "feature_type": "bus_stop",
        "stop_id": 733,
        "stop_code": "HCC 019",
        "stop_name": "Bệnh viện Củ Chi",
        "stop_type": "Trụ dừng",
        "route_no": "100",
        "display_code": "B 100",
        "direction": "Lượt đi",
        "address": "18 Quốc lộ 22",
        "street": "Quốc lộ 22",
        "zone": "Huyện Củ Chi",
        "ward": "Thị trấn Củ Chi",
        "all_routes": "100, 107, 70-1, 70-2, 79",
        "marker_color": "#2196F3"
      }
    },
    {
      "type": "Feature",
      "geometry": {
        "type": "Point",
        "coordinates": [
          106.473129,
          10.976133
        ]
      },
      "properties": {
        "feature_type": "bus_stop",
        "stop_id": 738,
        "stop_code": "HCC 020",
        "stop_name": "Trạm xăng",
        "stop_type": "Ô sơn",
        "route_no": "100",
        "display_code": "B 100",
        "direction": "Lượt đi",
        "address": "86 Quốc lộ 22",
        "street": "Quốc lộ 22",
        "zone": "Huyện Củ Chi",
        "ward": null,
        "all_routes": "100, 107, 70-1, 70-2, 79",
        "marker_color": "#2196F3"
      }
    },
    {
      "type": "Feature",
      "geometry": {
        "type": "Point",
        "coordinates": [
          106.469455,
          10.978179
        ]
      },
      "properties": {
        "feature_type": "bus_stop",
        "stop_id": 735,
        "stop_code": "HCC 021",
        "stop_name": "Công ty phân bón Sinh hóa Củ Chi",
        "stop_type": "Trụ dừng",
        "route_no": "100",
        "display_code": "B 100",
        "direction": "Lượt đi",
        "address": "128 Quốc lộ 22",
        "street": "Quốc lộ 22",
        "zone": "Huyện Củ Chi",
        "ward": null,
        "all_routes": "100, 107, 70-1, 70-2",
        "marker_color": "#2196F3"
      }
    },
    {
      "type": "Feature",
      "geometry": {
        "type": "Point",
        "coordinates": [
          106.4643,
          10.981133
        ]
      },
      "properties": {
        "feature_type": "bus_stop",
        "stop_id": 7679,
        "stop_code": "HCC 297",
        "stop_name": "Ấp Bàu Tre",
        "stop_type": "Trụ dừng",
        "route_no": "100",
        "display_code": "B 100",
        "direction": "Lượt đi",
        "address": "246B Quốc lộ 22",
        "street": "Quốc lộ 22",
        "zone": "Huyện Củ Chi",
        "ward": "Xã Phước Hiệp",
        "all_routes": "100, 107, 70-1, 70-2",
        "marker_color": "#2196F3"
      }
    },
    {
      "type": "Feature",
      "geometry": {
        "type": "Point",
        "coordinates": [
          106.461232,
          10.98305
        ]
      },
      "properties": {
        "feature_type": "bus_stop",
        "stop_id": 741,
        "stop_code": "HCC 022",
        "stop_name": "Trạm xăng Phước Hiệp 1",
        "stop_type": "Trụ dừng",
        "route_no": "100",
        "display_code": "B 100",
        "direction": "Lượt đi",
        "address": "282 Quốc lộ 22",
        "street": "Quốc lộ 22",
        "zone": "Huyện Củ Chi",
        "ward": null,
        "all_routes": "100, 107, 70-1, 70-2",
        "marker_color": "#2196F3"
      }
    },
    {
      "type": "Feature",
      "geometry": {
        "type": "Point",
        "coordinates": [
          106.458421,
          10.984809
        ]
      },
      "properties": {
        "feature_type": "bus_stop",
        "stop_id": 7833,
        "stop_code": "HCC 344",
        "stop_name": "Đường số 606",
        "stop_type": "Nhà chờ",
        "route_no": "100",
        "display_code": "B 100",
        "direction": "Lượt đi",
        "address": "Cạnh đường số 606 Quốc lộ 22",
        "street": "Quốc lộ 22",
        "zone": "Huyện Củ Chi",
        "ward": "Xã Tân An Hội",
        "all_routes": "100, 107, 70-1, 70-2",
        "marker_color": "#2196F3"
      }
    },
    {
      "type": "Feature",
      "geometry": {
        "type": "Point",
        "coordinates": [
          106.451361,
          10.989707
        ]
      },
      "properties": {
        "feature_type": "bus_stop",
        "stop_id": 736,
        "stop_code": "HCC 023",
        "stop_name": "Đối diện UBND xa Phước Hiệp",
        "stop_type": "Trụ dừng",
        "route_no": "100",
        "display_code": "B 100",
        "direction": "Lượt đi",
        "address": "Đối diện UBND xa Phước Hiệp (số 438) Quốc lộ 22",
        "street": "Quốc lộ 22",
        "zone": "Huyện Củ Chi",
        "ward": "Xã Phước Hiệp",
        "all_routes": "100, 107, 70-1, 70-2",
        "marker_color": "#2196F3"
      }
    },
    {
      "type": "Feature",
      "geometry": {
        "type": "Point",
        "coordinates": [
          106.447987,
          10.993424
        ]
      },
      "properties": {
        "feature_type": "bus_stop",
        "stop_id": 743,
        "stop_code": "HCC 024",
        "stop_name": "Đối diện Trường Tiểu học Phước Hiệp",
        "stop_type": "Nhà chờ",
        "route_no": "100",
        "display_code": "B 100",
        "direction": "Lượt đi",
        "address": "Đối diện cây xăng 54 (508) Quốc lộ 22",
        "street": "Quốc lộ 22",
        "zone": "Huyện Củ Chi",
        "ward": "Xã Phước Hiệp",
        "all_routes": "100, 107, 70-1, 70-2",
        "marker_color": "#2196F3"
      }
    },
    {
      "type": "Feature",
      "geometry": {
        "type": "Point",
        "coordinates": [
          106.445058,
          10.996789
        ]
      },
      "properties": {
        "feature_type": "bus_stop",
        "stop_id": 737,
        "stop_code": "HCC 025",
        "stop_name": "Cây xăng Phước Thạnh",
        "stop_type": "Trụ dừng",
        "route_no": "100",
        "display_code": "B 100",
        "direction": "Lượt đi",
        "address": "576 Quốc lộ 22",
        "street": "Quốc lộ 22",
        "zone": "Huyện Củ Chi",
        "ward": "Xã Phước Hiệp",
        "all_routes": "100, 107, 70-1, 70-2",
        "marker_color": "#2196F3"
      }
    },
    {
      "type": "Feature",
      "geometry": {
        "type": "Point",
        "coordinates": [
          106.436679,
          11.002719
        ]
      },
      "properties": {
        "feature_type": "bus_stop",
        "stop_id": 7845,
        "stop_code": "HCC 349",
        "stop_name": "Đường 622",
        "stop_type": "Ô sơn",
        "route_no": "100",
        "display_code": "B 100",
        "direction": "Lượt đi",
        "address": "Đối diện 671 Quốc lộ 22",
        "street": "Quốc lộ 22",
        "zone": "Huyện Củ Chi",
        "ward": "Xã Phước Thạnh",
        "all_routes": "100, 107, 70-1, 70-2",
        "marker_color": "#2196F3"
      }
    },
    {
      "type": "Feature",
      "geometry": {
        "type": "Point",
        "coordinates": [
          106.431969,
          11.00463
        ]
      },
      "properties": {
        "feature_type": "bus_stop",
        "stop_id": 745,
        "stop_code": "HCC 026",
        "stop_name": "UBND xã Phước Thạnh",
        "stop_type": "Nhà chờ",
        "route_no": "100",
        "display_code": "B 100",
        "direction": "Lượt đi",
        "address": "UBND xã Phước Thạnh Quốc lộ 22",
        "street": "Quốc lộ 22",
        "zone": "Huyện Củ Chi",
        "ward": "Xã Phước Thạnh",
        "all_routes": "100, 107, 70-1, 70-2",
        "marker_color": "#2196F3"
      }
    },
    {
      "type": "Feature",
      "geometry": {
        "type": "Point",
        "coordinates": [
          106.428146,
          11.005767
        ]
      },
      "properties": {
        "feature_type": "bus_stop",
        "stop_id": 739,
        "stop_code": "QCCT028",
        "stop_name": "Ngã tư Phước Thạnh",
        "stop_type": "Trụ dừng",
        "route_no": "100",
        "display_code": "B 100",
        "direction": "Lượt đi",
        "address": "826 Quốc lộ 22",
        "street": "Quốc lộ 22",
        "zone": "Huyện Củ Chi",
        "ward": "Xã Phước Thạnh",
        "all_routes": "100, 107, 70-1, 70-2",
        "marker_color": "#2196F3"
      }
    },
    {
      "type": "Feature",
      "geometry": {
        "type": "Point",
        "coordinates": [
          106.426697,
          11.005048
        ]
      },
      "properties": {
        "feature_type": "bus_stop",
        "stop_id": 746,
        "stop_code": "HCC 144",
        "stop_name": "Chợ Phước Thạnh",
        "stop_type": "Ô sơn",
        "route_no": "100",
        "display_code": "B 100",
        "direction": "Lượt đi",
        "address": "771 Tỉnh lộ 7",
        "street": "Tỉnh lộ 7",
        "zone": "Huyện Củ Chi",
        "ward": "Xã Phước Thạnh",
        "all_routes": "100",
        "marker_color": "#2196F3"
      }
    },
    {
      "type": "Feature",
      "geometry": {
        "type": "Point",
        "coordinates": [
          106.424856,
          11.004225
        ]
      },
      "properties": {
        "feature_type": "bus_stop",
        "stop_id": 7707,
        "stop_code": "HCC 282",
        "stop_name": "Trường THCS Phước Thạnh",
        "stop_type": "Nhà chờ",
        "route_no": "100",
        "display_code": "B 100",
        "direction": "Lượt đi",
        "address": "Trường THCS Phước Thạnh Tỉnh lộ 7",
        "street": "Tỉnh lộ 7",
        "zone": "Huyện Củ Chi",
        "ward": "Xã Phước Thạnh",
        "all_routes": "100",
        "marker_color": "#2196F3"
      }
    },
    {
      "type": "Feature",
      "geometry": {
        "type": "Point",
        "coordinates": [
          106.423553,
          11.0029
        ]
      },
      "properties": {
        "feature_type": "bus_stop",
        "stop_id": 789,
        "stop_code": "HCC 102",
        "stop_name": "Trường Quang Trung",
        "stop_type": "Trụ dừng",
        "route_no": "100",
        "display_code": "B 100",
        "direction": "Lượt đi",
        "address": "Đối diện trường PTTH Quang Trung (kế 749) Tỉnh lộ 7 Củ Chi",
        "street": "Tỉnh lộ 7 Củ Chi",
        "zone": "Huyện Củ Chi",
        "ward": null,
        "all_routes": "100",
        "marker_color": "#2196F3"
      }
    },
    {
      "type": "Feature",
      "geometry": {
        "type": "Point",
        "coordinates": [
          106.422159,
          11.000014
        ]
      },
      "properties": {
        "feature_type": "bus_stop",
        "stop_id": 742,
        "stop_code": "HCC 146",
        "stop_name": "Cây xăng petrolimet 59",
        "stop_type": "Trụ dừng",
        "route_no": "100",
        "display_code": "B 100",
        "direction": "Lượt đi",
        "address": "Đối diện xăng dầu 59 Tỉnh lộ 7",
        "street": "Tỉnh lộ 7",
        "zone": "Huyện Củ Chi",
        "ward": null,
        "all_routes": "100",
        "marker_color": "#2196F3"
      }
    },
    {
      "type": "Feature",
      "geometry": {
        "type": "Point",
        "coordinates": [
          106.418504,
          10.99541
        ]
      },
      "properties": {
        "feature_type": "bus_stop",
        "stop_id": 9583,
        "stop_code": "HCC 386",
        "stop_name": "Cầu Bà Đập",
        "stop_type": "Ô sơn",
        "route_no": "100",
        "display_code": "B 100",
        "direction": "Lượt đi",
        "address": "681 Tỉnh lộ 7",
        "street": "Tỉnh lộ 7",
        "zone": "Huyện Củ Chi",
        "ward": "Xã Thái Mỹ",
        "all_routes": "100",
        "marker_color": "#2196F3"
      }
    },
    {
      "type": "Feature",
      "geometry": {
        "type": "Point",
        "coordinates": [
          106.415817,
          10.993867
        ]
      },
      "properties": {
        "feature_type": "bus_stop",
        "stop_id": 748,
        "stop_code": "HCC 147",
        "stop_name": "Cổng chào Xã Thái Mỹ",
        "stop_type": "Trụ dừng",
        "route_no": "100",
        "display_code": "B 100",
        "direction": "Lượt đi",
        "address": "631 - 631A Tỉnh lộ 7",
        "street": "Tỉnh lộ 7",
        "zone": "Huyện Củ Chi",
        "ward": null,
        "all_routes": "100",
        "marker_color": "#2196F3"
      }
    },
    {
      "type": "Feature",
      "geometry": {
        "type": "Point",
        "coordinates": [
          106.413944,
          10.992703
        ]
      },
      "properties": {
        "feature_type": "bus_stop",
        "stop_id": 750,
        "stop_code": "HCC 148",
        "stop_name": "Hẻm 582",
        "stop_type": "Trụ dừng",
        "route_no": "100",
        "display_code": "B 100",
        "direction": "Lượt đi",
        "address": "591-593 Tỉnh lộ 7",
        "street": "Tỉnh lộ 7",
        "zone": "Huyện Củ Chi",
        "ward": null,
        "all_routes": "100",
        "marker_color": "#2196F3"
      }
    },
    {
      "type": "Feature",
      "geometry": {
        "type": "Point",
        "coordinates": [
          106.409935,
          10.990917
        ]
      },
      "properties": {
        "feature_type": "bus_stop",
        "stop_id": 744,
        "stop_code": "HCC 149",
        "stop_name": "Giáo xứ Mỹ Khánh",
        "stop_type": "Trụ dừng",
        "route_no": "100",
        "display_code": "B 100",
        "direction": "Lượt đi",
        "address": "553 Tỉnh lộ 7",
        "street": "Tỉnh lộ 7",
        "zone": "Huyện Củ Chi",
        "ward": null,
        "all_routes": "100",
        "marker_color": "#2196F3"
      }
    },
    {
      "type": "Feature",
      "geometry": {
        "type": "Point",
        "coordinates": [
          106.405235,
          10.991251
        ]
      },
      "properties": {
        "feature_type": "bus_stop",
        "stop_id": 752,
        "stop_code": "HCC 150",
        "stop_name": "Trường mầm non Thái Mỹ",
        "stop_type": "Trụ dừng",
        "route_no": "100",
        "display_code": "B 100",
        "direction": "Lượt đi",
        "address": "493 Tỉnh lộ 7",
        "street": "Tỉnh lộ 7",
        "zone": "Huyện Củ Chi",
        "ward": null,
        "all_routes": "100",
        "marker_color": "#2196F3"
      }
    },
    {
      "type": "Feature",
      "geometry": {
        "type": "Point",
        "coordinates": [
          106.402136,
          10.991364
        ]
      },
      "properties": {
        "feature_type": "bus_stop",
        "stop_id": 5789,
        "stop_code": "HCC 1510",
        "stop_name": "Trường Trung học phổ thông Nguyễn Văn Xơ",
        "stop_type": "Trụ dừng",
        "route_no": "100",
        "display_code": "B 100",
        "direction": "Lượt đi",
        "address": "455 Tỉnh lộ 7 ",
        "street": "Tỉnh lộ 7 ",
        "zone": "Huyện Củ Chi",
        "ward": "Xã Thái Mỹ",
        "all_routes": "100",
        "marker_color": "#2196F3"
      }
    },
    {
      "type": "Feature",
      "geometry": {
        "type": "Point",
        "coordinates": [
          106.39967,
          10.991307
        ]
      },
      "properties": {
        "feature_type": "bus_stop",
        "stop_id": 7706,
        "stop_code": "HCC 281",
        "stop_name": "ĐD Trường Tiểu học Thái Mỹ",
        "stop_type": "Nhà chờ",
        "route_no": "100",
        "display_code": "B 100",
        "direction": "Lượt đi",
        "address": "ĐD Trường Tiểu học Thái Mỹ Tỉnh lộ 7",
        "street": "Tỉnh lộ 7",
        "zone": "Huyện Củ Chi",
        "ward": "Xã Thái Mỹ",
        "all_routes": "100",
        "marker_color": "#2196F3"
      }
    },
    {
      "type": "Feature",
      "geometry": {
        "type": "Point",
        "coordinates": [
          106.398463,
          10.991328
        ]
      },
      "properties": {
        "feature_type": "bus_stop",
        "stop_id": 754,
        "stop_code": "HCC 152",
        "stop_name": "Ủy Ban nhân dân Xã Thái Mỹ",
        "stop_type": "Trụ dừng",
        "route_no": "100",
        "display_code": "B 100",
        "direction": "Lượt đi",
        "address": "399A Tỉnh lộ 7",
        "street": "Tỉnh lộ 7",
        "zone": "Huyện Củ Chi",
        "ward": null,
        "all_routes": "100",
        "marker_color": "#2196F3"
      }
    },
    {
      "type": "Feature",
      "geometry": {
        "type": "Point",
        "coordinates": [
          106.393857,
          10.991302
        ]
      },
      "properties": {
        "feature_type": "bus_stop",
        "stop_id": 756,
        "stop_code": "HCC 153",
        "stop_name": "Ấp Bình Thượng 1",
        "stop_type": "Trụ dừng",
        "route_no": "100",
        "display_code": "B 100",
        "direction": "Lượt đi",
        "address": "339 Tỉnh lộ 7",
        "street": "Tỉnh lộ 7",
        "zone": "Huyện Củ Chi",
        "ward": "Xã Thái Mỹ",
        "all_routes": "100",
        "marker_color": "#2196F3"
      }
    },
    {
      "type": "Feature",
      "geometry": {
        "type": "Point",
        "coordinates": [
          106.390312,
          10.991721
        ]
      },
      "properties": {
        "feature_type": "bus_stop",
        "stop_id": 747,
        "stop_code": "HCC 154",
        "stop_name": "Trương Thị Kiện",
        "stop_type": "Trụ dừng",
        "route_no": "100",
        "display_code": "B 100",
        "direction": "Lượt đi",
        "address": "kế 311 (319) Tỉnh lộ 7",
        "street": "Tỉnh lộ 7",
        "zone": "Huyện Củ Chi",
        "ward": "Xã Thái Mỹ",
        "all_routes": "100",
        "marker_color": "#2196F3"
      }
    },
    {
      "type": "Feature",
      "geometry": {
        "type": "Point",
        "coordinates": [
          106.385681,
          10.992471
        ]
      },
      "properties": {
        "feature_type": "bus_stop",
        "stop_id": 749,
        "stop_code": "HCC 155",
        "stop_name": "Ngã 3 Ông Cống",
        "stop_type": "Trụ dừng",
        "route_no": "100",
        "display_code": "B 100",
        "direction": "Lượt đi",
        "address": "257-257A (253) Tỉnh lộ 7 ",
        "street": "Tỉnh lộ 7 ",
        "zone": "Huyện Củ Chi",
        "ward": "Xã Thái Mỹ",
        "all_routes": "100",
        "marker_color": "#2196F3"
      }
    },
    {
      "type": "Feature",
      "geometry": {
        "type": "Point",
        "coordinates": [
          106.381908,
          10.993078
        ]
      },
      "properties": {
        "feature_type": "bus_stop",
        "stop_id": 9584,
        "stop_code": "HCC 388",
        "stop_name": "Số 205",
        "stop_type": "Ô sơn",
        "route_no": "100",
        "display_code": "B 100",
        "direction": "Lượt đi",
        "address": "205 Tỉnh lộ 7",
        "street": "Tỉnh lộ 7",
        "zone": "Huyện Củ Chi",
        "ward": "Xã Thái Mỹ",
        "all_routes": "100",
        "marker_color": "#2196F3"
      }
    },
    {
      "type": "Feature",
      "geometry": {
        "type": "Point",
        "coordinates": [
          106.379446,
          10.99353
        ]
      },
      "properties": {
        "feature_type": "bus_stop",
        "stop_id": 758,
        "stop_code": "HCC 156",
        "stop_name": "đường 687",
        "stop_type": "Trụ dừng",
        "route_no": "100",
        "display_code": "B 100",
        "direction": "Lượt đi",
        "address": "kế 187 Tỉnh lộ 7",
        "street": "Tỉnh lộ 7",
        "zone": "Huyện Củ Chi",
        "ward": "Xã Thái Mỹ",
        "all_routes": "100",
        "marker_color": "#2196F3"
      }
    },
    {
      "type": "Feature",
      "geometry": {
        "type": "Point",
        "coordinates": [
          106.37443,
          10.993877
        ]
      },
      "properties": {
        "feature_type": "bus_stop",
        "stop_id": 751,
        "stop_code": "HCC 157",
        "stop_name": "Trương Thị Kiện",
        "stop_type": "Trụ dừng",
        "route_no": "100",
        "display_code": "B 100",
        "direction": "Lượt đi",
        "address": "Đối diện 96 (143) Tỉnh lộ 7",
        "street": "Tỉnh lộ 7",
        "zone": "Huyện Củ Chi",
        "ward": "Xã Thái Mỹ",
        "all_routes": "100",
        "marker_color": "#2196F3"
      }
    },
    {
      "type": "Feature",
      "geometry": {
        "type": "Point",
        "coordinates": [
          106.372118,
          10.99363
        ]
      },
      "properties": {
        "feature_type": "bus_stop",
        "stop_id": 760,
        "stop_code": "HCC 158",
        "stop_name": "Ngã 3 Vuông Lầu",
        "stop_type": "Trụ dừng",
        "route_no": "100",
        "display_code": "B 100",
        "direction": "Lượt đi",
        "address": "103 Tỉnh lộ 7",
        "street": "Tỉnh lộ 7",
        "zone": "Huyện Củ Chi",
        "ward": "Xã Thái Mỹ",
        "all_routes": "100",
        "marker_color": "#2196F3"
      }
    },
    {
      "type": "Feature",
      "geometry": {
        "type": "Point",
        "coordinates": [
          106.369946,
          10.992226
        ]
      },
      "properties": {
        "feature_type": "bus_stop",
        "stop_id": 9585,
        "stop_code": "HCC 390",
        "stop_name": "QLN2",
        "stop_type": "Ô sơn",
        "route_no": "100",
        "display_code": "B 100",
        "direction": "Lượt đi",
        "address": "Sửa xe Thái Sơn Tỉnh lộ 7",
        "street": "Tỉnh lộ 7",
        "zone": "Huyện Củ Chi",
        "ward": "Xã Thái Mỹ",
        "all_routes": "100",
        "marker_color": "#2196F3"
      }
    },
    {
      "type": "Feature",
      "geometry": {
        "type": "Point",
        "coordinates": [
          106.365555,
          10.985563
        ]
      },
      "properties": {
        "feature_type": "bus_stop",
        "stop_id": 9586,
        "stop_code": "HCC 392",
        "stop_name": "Cầu Tân Thái",
        "stop_type": "Ô sơn",
        "route_no": "100",
        "display_code": "B 100",
        "direction": "Lượt đi",
        "address": "Đối diện số 18 Tỉnh Lộ 7",
        "street": "Tỉnh Lộ 7",
        "zone": "Huyện Củ Chi",
        "ward": "Xã Thái Mỹ",
        "all_routes": "100",
        "marker_color": "#2196F3"
      }
    },
    {
      "type": "Feature",
      "geometry": {
        "type": "Point",
        "coordinates": [
          106.365588,
          10.98534
        ]
      },
      "properties": {
        "feature_type": "bus_stop",
        "stop_id": 9582,
        "stop_code": "BX 100-1",
        "stop_name": "Điểm đầu cuối cầu Tân Thái (điều chỉnh)",
        "stop_type": "Bến xe",
        "route_no": "100",
        "display_code": "B 100",
        "direction": "Lượt đi",
        "address": "18 Tỉnh lộ 7",
        "street": "Tỉnh lộ 7",
        "zone": "Huyện Củ Chi",
        "ward": "Xã Thái Mỹ",
        "all_routes": "100",
        "marker_color": "#2196F3"
      }
    },
    {
      "type": "Feature",
      "geometry": {
        "type": "Point",
        "coordinates": [
          106.365529,
          10.985352
        ]
      },
      "properties": {
        "feature_type": "bus_stop",
        "stop_id": 9590,
        "stop_code": "HCC 393",
        "stop_name": "Cầu Tân Thái",
        "stop_type": "Ô sơn",
        "route_no": "100",
        "display_code": "B 100",
        "direction": "Lượt về",
        "address": "18 Tỉnh lộ 7",
        "street": "Tỉnh lộ 7",
        "zone": "Huyện Củ Chi",
        "ward": "Xã Thái Mỹ",
        "all_routes": "100",
        "marker_color": "#2196F3"
      }
    },
    {
      "type": "Feature",
      "geometry": {
        "type": "Point",
        "coordinates": [
          106.369986,
          10.992101
        ]
      },
      "properties": {
        "feature_type": "bus_stop",
        "stop_id": 9589,
        "stop_code": "HCC 391",
        "stop_name": "QLN2",
        "stop_type": "Ô sơn",
        "route_no": "100",
        "display_code": "B 100",
        "direction": "Lượt về",
        "address": "Đối diện sửa xe Thái Sơn Tỉnh Lộ 7",
        "street": "Tỉnh Lộ 7",
        "zone": "Huyện Củ Chi",
        "ward": "Xã Thái Mỹ",
        "all_routes": "100",
        "marker_color": "#2196F3"
      }
    },
    {
      "type": "Feature",
      "geometry": {
        "type": "Point",
        "coordinates": [
          106.372075,
          10.993435
        ]
      },
      "properties": {
        "feature_type": "bus_stop",
        "stop_id": 5777,
        "stop_code": "HCC 089",
        "stop_name": "Ngã ba Vuông Lầu",
        "stop_type": "Ô sơn",
        "route_no": "100",
        "display_code": "B 100",
        "direction": "Lượt về",
        "address": "đối diện 87 (82B) Tỉnh lộ 7",
        "street": "Tỉnh lộ 7",
        "zone": "Huyện Củ Chi",
        "ward": "Thị trấn Củ Chi",
        "all_routes": "100",
        "marker_color": "#2196F3"
      }
    },
    {
      "type": "Feature",
      "geometry": {
        "type": "Point",
        "coordinates": [
          106.375471,
          10.993703
        ]
      },
      "properties": {
        "feature_type": "bus_stop",
        "stop_id": 772,
        "stop_code": "HCC 090",
        "stop_name": "Trương Thị Kiện",
        "stop_type": "Trụ dừng",
        "route_no": "100",
        "display_code": "B 100",
        "direction": "Lượt về",
        "address": "108 Tỉnh lộ 7",
        "street": "Tỉnh lộ 7",
        "zone": "Huyện Củ Chi",
        "ward": null,
        "all_routes": "100",
        "marker_color": "#2196F3"
      }
    },
    {
      "type": "Feature",
      "geometry": {
        "type": "Point",
        "coordinates": [
          106.379929,
          10.993266
        ]
      },
      "properties": {
        "feature_type": "bus_stop",
        "stop_id": 774,
        "stop_code": "HCC 091",
        "stop_name": "đường 687",
        "stop_type": "Trụ dừng",
        "route_no": "100",
        "display_code": "B 100",
        "direction": "Lượt về",
        "address": "186 (dd 177A) Tỉnh lộ 7",
        "street": "Tỉnh lộ 7",
        "zone": "Huyện Củ Chi",
        "ward": "Xã Thái Mỹ",
        "all_routes": "100",
        "marker_color": "#2196F3"
      }
    },
    {
      "type": "Feature",
      "geometry": {
        "type": "Point",
        "coordinates": [
          106.38204,
          10.992954
        ]
      },
      "properties": {
        "feature_type": "bus_stop",
        "stop_id": 9588,
        "stop_code": "HCC 389",
        "stop_name": "số 218",
        "stop_type": "Ô sơn",
        "route_no": "100",
        "display_code": "B 100",
        "direction": "Lượt về",
        "address": "218 Tỉnh lộ 7",
        "street": "Tỉnh lộ 7",
        "zone": "Huyện Củ Chi",
        "ward": "Xã Thái Mỹ",
        "all_routes": "100",
        "marker_color": "#2196F3"
      }
    },
    {
      "type": "Feature",
      "geometry": {
        "type": "Point",
        "coordinates": [
          106.3853,
          10.992433
        ]
      },
      "properties": {
        "feature_type": "bus_stop",
        "stop_id": 773,
        "stop_code": "HCC 092",
        "stop_name": "Ngã 3 Ông Cống",
        "stop_type": "Trụ dừng",
        "route_no": "100",
        "display_code": "B 100",
        "direction": "Lượt về",
        "address": "250 Tỉnh lộ 7",
        "street": "Tỉnh lộ 7",
        "zone": "Huyện Củ Chi",
        "ward": "Xã Thái Mỹ",
        "all_routes": "100",
        "marker_color": "#2196F3"
      }
    },
    {
      "type": "Feature",
      "geometry": {
        "type": "Point",
        "coordinates": [
          106.38952,
          10.991676
        ]
      },
      "properties": {
        "feature_type": "bus_stop",
        "stop_id": 5778,
        "stop_code": "HCC 093",
        "stop_name": "Trương Thị Kiện",
        "stop_type": "Trụ dừng",
        "route_no": "100",
        "display_code": "B 100",
        "direction": "Lượt về",
        "address": "Đối diện 291 Tỉnh lộ 7",
        "street": "Tỉnh lộ 7",
        "zone": "Huyện Củ Chi",
        "ward": "Xã Thái Mỹ",
        "all_routes": "100",
        "marker_color": "#2196F3"
      }
    },
    {
      "type": "Feature",
      "geometry": {
        "type": "Point",
        "coordinates": [
          106.393275,
          10.991186
        ]
      },
      "properties": {
        "feature_type": "bus_stop",
        "stop_id": 775,
        "stop_code": "HCC 094",
        "stop_name": "Ấp Bình Thượng 1",
        "stop_type": "Trụ dừng",
        "route_no": "100",
        "display_code": "B 100",
        "direction": "Lượt về",
        "address": "kế 326A Tỉnh lộ 7",
        "street": "Tỉnh lộ 7",
        "zone": "Huyện Củ Chi",
        "ward": "Xã Thái Mỹ",
        "all_routes": "100",
        "marker_color": "#2196F3"
      }
    },
    {
      "type": "Feature",
      "geometry": {
        "type": "Point",
        "coordinates": [
          106.397889,
          10.991118
        ]
      },
      "properties": {
        "feature_type": "bus_stop",
        "stop_id": 777,
        "stop_code": "HCC 095",
        "stop_name": "Ủy Ban nhân dân Xã Thái Mỹ",
        "stop_type": "Trụ dừng",
        "route_no": "100",
        "display_code": "B 100",
        "direction": "Lượt về",
        "address": "402 Tỉnh lộ 7",
        "street": "Tỉnh lộ 7",
        "zone": "Huyện Củ Chi",
        "ward": "Xã Thái Mỹ",
        "all_routes": "100",
        "marker_color": "#2196F3"
      }
    },
    {
      "type": "Feature",
      "geometry": {
        "type": "Point",
        "coordinates": [
          106.399986,
          10.991207
        ]
      },
      "properties": {
        "feature_type": "bus_stop",
        "stop_id": 7705,
        "stop_code": "HCC 280",
        "stop_name": "Trường Tiểu học Thái Mỹ",
        "stop_type": "Nhà chờ",
        "route_no": "100",
        "display_code": "B 100",
        "direction": "Lượt về",
        "address": "Trường Tiểu học Thái Mỹ Tỉnh lộ 7",
        "street": "Tỉnh lộ 7",
        "zone": "Huyện Củ Chi",
        "ward": "Xã Thái Mỹ",
        "all_routes": "100",
        "marker_color": "#2196F3"
      }
    },
    {
      "type": "Feature",
      "geometry": {
        "type": "Point",
        "coordinates": [
          106.402609,
          10.991139
        ]
      },
      "properties": {
        "feature_type": "bus_stop",
        "stop_id": 5779,
        "stop_code": "HCC 096",
        "stop_name": "Trường trung học phổ thông Nguyễn Văn Xơ",
        "stop_type": "Trụ dừng",
        "route_no": "100",
        "display_code": "B 100",
        "direction": "Lượt về",
        "address": "450 Tỉnh lộ 7",
        "street": "Tỉnh lộ 7",
        "zone": "Huyện Củ Chi",
        "ward": "Xã Thái Mỹ",
        "all_routes": "100",
        "marker_color": "#2196F3"
      }
    },
    {
      "type": "Feature",
      "geometry": {
        "type": "Point",
        "coordinates": [
          106.405458,
          10.991097
        ]
      },
      "properties": {
        "feature_type": "bus_stop",
        "stop_id": 778,
        "stop_code": "HCC 097",
        "stop_name": "Trường Mầm non Thái Mỹ",
        "stop_type": "Trụ dừng",
        "route_no": "100",
        "display_code": "B 100",
        "direction": "Lượt về",
        "address": "480 Tỉnh lộ 7",
        "street": "Tỉnh lộ 7",
        "zone": "Huyện Củ Chi",
        "ward": null,
        "all_routes": "100",
        "marker_color": "#2196F3"
      }
    },
    {
      "type": "Feature",
      "geometry": {
        "type": "Point",
        "coordinates": [
          106.411257,
          10.990949
        ]
      },
      "properties": {
        "feature_type": "bus_stop",
        "stop_id": 780,
        "stop_code": "HCC 098",
        "stop_name": "Giáo xứ Mỹ Khánh",
        "stop_type": "Trụ dừng",
        "route_no": "100",
        "display_code": "B 100",
        "direction": "Lượt về",
        "address": "530-532 Tỉnh lộ 7",
        "street": "Tỉnh lộ 7",
        "zone": "Huyện Củ Chi",
        "ward": null,
        "all_routes": "100",
        "marker_color": "#2196F3"
      }
    },
    {
      "type": "Feature",
      "geometry": {
        "type": "Point",
        "coordinates": [
          106.414518,
          10.992892
        ]
      },
      "properties": {
        "feature_type": "bus_stop",
        "stop_id": 779,
        "stop_code": "HCC 099",
        "stop_name": "Hẻm 582",
        "stop_type": "Trụ dừng",
        "route_no": "100",
        "display_code": "B 100",
        "direction": "Lượt về",
        "address": "Đối diện 599 Tỉnh lộ 7",
        "street": "Tỉnh lộ 7",
        "zone": "Huyện Củ Chi",
        "ward": "Xã Thái Mỹ",
        "all_routes": "100",
        "marker_color": "#2196F3"
      }
    },
    {
      "type": "Feature",
      "geometry": {
        "type": "Point",
        "coordinates": [
          106.416675,
          10.994119
        ]
      },
      "properties": {
        "feature_type": "bus_stop",
        "stop_id": 786,
        "stop_code": "HCC 100",
        "stop_name": "Cổng chào Xã Thái Mỹ",
        "stop_type": "Trụ dừng",
        "route_no": "100",
        "display_code": "B 100",
        "direction": "Lượt về",
        "address": "608A Tỉnh lộ 7",
        "street": "Tỉnh lộ 7",
        "zone": "Huyện Củ Chi",
        "ward": null,
        "all_routes": "100",
        "marker_color": "#2196F3"
      }
    },
    {
      "type": "Feature",
      "geometry": {
        "type": "Point",
        "coordinates": [
          106.418944,
          10.995547
        ]
      },
      "properties": {
        "feature_type": "bus_stop",
        "stop_id": 9587,
        "stop_code": "HCC 387",
        "stop_name": "Cầu Bà Đập",
        "stop_type": "Ô sơn",
        "route_no": "100",
        "display_code": "B 100",
        "direction": "Lượt về",
        "address": "644 Tỉnh Lộ 7",
        "street": "Tỉnh Lộ 7",
        "zone": "Huyện Củ Chi",
        "ward": "Xã Thái Mỹ",
        "all_routes": "100",
        "marker_color": "#2196F3"
      }
    },
    {
      "type": "Feature",
      "geometry": {
        "type": "Point",
        "coordinates": [
          106.422581,
          11.000223
        ]
      },
      "properties": {
        "feature_type": "bus_stop",
        "stop_id": 781,
        "stop_code": "HCC 101",
        "stop_name": "Cây xăng petrolimet 59",
        "stop_type": "Trụ dừng",
        "route_no": "100",
        "display_code": "B 100",
        "direction": "Lượt về",
        "address": "Xăng dầu 59 (696) Tỉnh lộ 7",
        "street": "Tỉnh lộ 7",
        "zone": "Huyện Củ Chi",
        "ward": null,
        "all_routes": "100",
        "marker_color": "#2196F3"
      }
    },
    {
      "type": "Feature",
      "geometry": {
        "type": "Point",
        "coordinates": [
          106.423866,
          11.00323
        ]
      },
      "properties": {
        "feature_type": "bus_stop",
        "stop_id": 740,
        "stop_code": "QCCT193",
        "stop_name": "Trường THPT Quang Trung",
        "stop_type": "Trụ dừng",
        "route_no": "100",
        "display_code": "B 100",
        "direction": "Lượt về",
        "address": "Trường THPT Quang Trung Tỉnh lộ 7 Củ Chi",
        "street": "Tỉnh lộ 7 Củ Chi",
        "zone": "Huyện Củ Chi",
        "ward": "Xã Phước Thạnh",
        "all_routes": "100",
        "marker_color": "#2196F3"
      }
    },
    {
      "type": "Feature",
      "geometry": {
        "type": "Point",
        "coordinates": [
          106.426465,
          11.004793
        ]
      },
      "properties": {
        "feature_type": "bus_stop",
        "stop_id": 782,
        "stop_code": "HCC 103",
        "stop_name": "Chợ Phước Thạnh",
        "stop_type": "Trụ dừng",
        "route_no": "100",
        "display_code": "B 100",
        "direction": "Lượt về",
        "address": "772 Tỉnh lộ 7",
        "street": "Tỉnh lộ 7",
        "zone": "Huyện Củ Chi",
        "ward": "Xã Phước Thạnh",
        "all_routes": "100",
        "marker_color": "#2196F3"
      }
    },
    {
      "type": "Feature",
      "geometry": {
        "type": "Point",
        "coordinates": [
          106.428069,
          11.005567
        ]
      },
      "properties": {
        "feature_type": "bus_stop",
        "stop_id": 790,
        "stop_code": "HCC 028",
        "stop_name": "Ngã tư Phước Thạnh",
        "stop_type": "Nhà chờ",
        "route_no": "100",
        "display_code": "B 100",
        "direction": "Lượt về",
        "address": "863 Quốc lộ 22",
        "street": "Quốc lộ 22",
        "zone": "Huyện Củ Chi",
        "ward": "Xã Phước Thạnh",
        "all_routes": "100, 107, 70-1, 70-2",
        "marker_color": "#2196F3"
      }
    },
    {
      "type": "Feature",
      "geometry": {
        "type": "Point",
        "coordinates": [
          106.431647,
          11.004504
        ]
      },
      "properties": {
        "feature_type": "bus_stop",
        "stop_id": 783,
        "stop_code": "HCC 029",
        "stop_name": "Ủy Ban nhân dân Xã Phước Thạnh",
        "stop_type": "Trụ dừng",
        "route_no": "100",
        "display_code": "B 100",
        "direction": "Lượt về",
        "address": "755 Quốc lộ 22",
        "street": "Quốc lộ 22",
        "zone": "Huyện Củ Chi",
        "ward": "Xã Phước Thạnh",
        "all_routes": "100, 107, 70-1, 70-2",
        "marker_color": "#2196F3"
      }
    },
    {
      "type": "Feature",
      "geometry": {
        "type": "Point",
        "coordinates": [
          106.435756,
          11.002966
        ]
      },
      "properties": {
        "feature_type": "bus_stop",
        "stop_id": 7844,
        "stop_code": "HCC 348",
        "stop_name": "Đường 622",
        "stop_type": "Ô sơn",
        "route_no": "100",
        "display_code": "B 100",
        "direction": "Lượt về",
        "address": "cạnh 685 (cạnh đường 622) Quốc lộ 22",
        "street": "Quốc lộ 22",
        "zone": "Huyện Củ Chi",
        "ward": "Xã Phước Thạnh",
        "all_routes": "100, 107, 70-1, 70-2",
        "marker_color": "#2196F3"
      }
    },
    {
      "type": "Feature",
      "geometry": {
        "type": "Point",
        "coordinates": [
          106.443239,
          10.998359
        ]
      },
      "properties": {
        "feature_type": "bus_stop",
        "stop_id": 7843,
        "stop_code": "HCC 353",
        "stop_name": "Cây xăng Phước Thạnh 2",
        "stop_type": "Nhà chờ",
        "route_no": "100",
        "display_code": "B 100",
        "direction": "Lượt về",
        "address": "613 (cạnh hẻm 53) Quốc lộ 22",
        "street": "Quốc lộ 22",
        "zone": "Huyện Củ Chi",
        "ward": "Xã Tân An Hội",
        "all_routes": "100, 107, 70-1, 70-2",
        "marker_color": "#2196F3"
      }
    },
    {
      "type": "Feature",
      "geometry": {
        "type": "Point",
        "coordinates": [
          106.44487,
          10.996617
        ]
      },
      "properties": {
        "feature_type": "bus_stop",
        "stop_id": 784,
        "stop_code": "HCC 030",
        "stop_name": "ấp cây trôm",
        "stop_type": "Trụ dừng",
        "route_no": "100",
        "display_code": "B 100",
        "direction": "Lượt về",
        "address": "585 Quốc lộ 22",
        "street": "Quốc lộ 22",
        "zone": "Huyện Củ Chi",
        "ward": "Xã Phước Hiệp",
        "all_routes": "100, 107, 70-1, 70-2",
        "marker_color": "#2196F3"
      }
    },
    {
      "type": "Feature",
      "geometry": {
        "type": "Point",
        "coordinates": [
          106.448362,
          10.992698
        ]
      },
      "properties": {
        "feature_type": "bus_stop",
        "stop_id": 792,
        "stop_code": "HCC 031",
        "stop_name": "Trường Tiểu học Phước Hiệp",
        "stop_type": "Nhà chờ",
        "route_no": "100",
        "display_code": "B 100",
        "direction": "Lượt về",
        "address": "499 Quốc lộ 22",
        "street": "Quốc lộ 22",
        "zone": "Huyện Củ Chi",
        "ward": "Xã Phước Hiệp",
        "all_routes": "100, 107, 70-1, 70-2",
        "marker_color": "#2196F3"
      }
    },
    {
      "type": "Feature",
      "geometry": {
        "type": "Point",
        "coordinates": [
          106.451263,
          10.989567
        ]
      },
      "properties": {
        "feature_type": "bus_stop",
        "stop_id": 794,
        "stop_code": "HCC 032",
        "stop_name": "UBND xã Phước Hiệp",
        "stop_type": "Nhà chờ",
        "route_no": "100",
        "display_code": "B 100",
        "direction": "Lượt về",
        "address": "UBND xã Phước Hiệp Quốc lộ 22",
        "street": "Quốc lộ 22",
        "zone": "Huyện Củ Chi",
        "ward": null,
        "all_routes": "100, 107, 70-1, 70-2",
        "marker_color": "#2196F3"
      }
    },
    {
      "type": "Feature",
      "geometry": {
        "type": "Point",
        "coordinates": [
          106.455658,
          10.986336
        ]
      },
      "properties": {
        "feature_type": "bus_stop",
        "stop_id": 7836,
        "stop_code": "HCC 347",
        "stop_name": "Cây xăng Phước Thạnh 3",
        "stop_type": "Ô sơn",
        "route_no": "100",
        "display_code": "B 100",
        "direction": "Lượt về",
        "address": "351 Quốc lộ 22",
        "street": "Quốc lộ 22",
        "zone": "Huyện Củ Chi",
        "ward": "Xã Phước Hiệp",
        "all_routes": "100, 107, 70-1, 70-2",
        "marker_color": "#2196F3"
      }
    },
    {
      "type": "Feature",
      "geometry": {
        "type": "Point",
        "coordinates": [
          106.458238,
          10.984662
        ]
      },
      "properties": {
        "feature_type": "bus_stop",
        "stop_id": 7834,
        "stop_code": "HCC 345",
        "stop_name": "Đường số 606",
        "stop_type": "Nhà chờ",
        "route_no": "100",
        "display_code": "B 100",
        "direction": "Lượt về",
        "address": "Đối diện đường số 606 Quốc lộ 22",
        "street": "Quốc lộ 22",
        "zone": "Huyện Củ Chi",
        "ward": "Xã Tân An Hội",
        "all_routes": "100, 107, 70-1, 70-2",
        "marker_color": "#2196F3"
      }
    },
    {
      "type": "Feature",
      "geometry": {
        "type": "Point",
        "coordinates": [
          106.461033,
          10.982855
        ]
      },
      "properties": {
        "feature_type": "bus_stop",
        "stop_id": 785,
        "stop_code": "HCC 033",
        "stop_name": "Cây xăng Tài Lộc 3",
        "stop_type": "Nhà chờ",
        "route_no": "100",
        "display_code": "B 100",
        "direction": "Lượt về",
        "address": "281 Quốc lộ 22",
        "street": "Quốc lộ 22",
        "zone": "Huyện Củ Chi",
        "ward": "Xã Phước Hiệp",
        "all_routes": "100, 107, 70-1, 70-2",
        "marker_color": "#2196F3"
      }
    },
    {
      "type": "Feature",
      "geometry": {
        "type": "Point",
        "coordinates": [
          106.463742,
          10.981049
        ]
      },
      "properties": {
        "feature_type": "bus_stop",
        "stop_id": 7680,
        "stop_code": "HCC 298",
        "stop_name": "Ấp Bàu Tre",
        "stop_type": "Trụ dừng",
        "route_no": "100",
        "display_code": "B 100",
        "direction": "Lượt về",
        "address": "227 Quốc lộ 22",
        "street": "Quốc lộ 22",
        "zone": "Huyện Củ Chi",
        "ward": "Xã Phước Hiệp",
        "all_routes": "100, 107, 70-1, 70-2",
        "marker_color": "#2196F3"
      }
    },
    {
      "type": "Feature",
      "geometry": {
        "type": "Point",
        "coordinates": [
          106.469632,
          10.977784
        ]
      },
      "properties": {
        "feature_type": "bus_stop",
        "stop_id": 796,
        "stop_code": "HCC 034",
        "stop_name": "Công ty phân bón sinh hóa Củ Chi",
        "stop_type": "Nhà chờ",
        "route_no": "100",
        "display_code": "B 100",
        "direction": "Lượt về",
        "address": "121 Quốc lộ 22",
        "street": "Quốc lộ 22",
        "zone": "Huyện Củ Chi",
        "ward": null,
        "all_routes": "100, 107, 70-1, 70-2",
        "marker_color": "#2196F3"
      }
    },
    {
      "type": "Feature",
      "geometry": {
        "type": "Point",
        "coordinates": [
          106.472717,
          10.976109
        ]
      },
      "properties": {
        "feature_type": "bus_stop",
        "stop_id": 787,
        "stop_code": "HCC 035",
        "stop_name": "Ngã 3 Nguyễn Thị Rành",
        "stop_type": "Nhà chờ",
        "route_no": "100",
        "display_code": "B 100",
        "direction": "Lượt về",
        "address": "55 Quốc lộ 22",
        "street": "Quốc lộ 22",
        "zone": "Huyện Củ Chi",
        "ward": "Xã Tân An Hội",
        "all_routes": "100, 107, 70-1, 70-2, 79",
        "marker_color": "#2196F3"
      }
    },
    {
      "type": "Feature",
      "geometry": {
        "type": "Point",
        "coordinates": [
          106.476579,
          10.974061
        ]
      },
      "properties": {
        "feature_type": "bus_stop",
        "stop_id": 788,
        "stop_code": "HCC 036",
        "stop_name": "Bệnh viện Củ Chi",
        "stop_type": "Trụ dừng",
        "route_no": "100",
        "display_code": "B 100",
        "direction": "Lượt về",
        "address": "991 (số 5-7 xe máy Quang Phương) Quốc lộ 22",
        "street": "Quốc lộ 22",
        "zone": "Huyện Củ Chi",
        "ward": "Xã Tân An Hội",
        "all_routes": "100, 107, 70-1, 70-2, 79",
        "marker_color": "#2196F3"
      }
    },
    {
      "type": "Feature",
      "geometry": {
        "type": "Point",
        "coordinates": [
          106.478097,
          10.973308
        ]
      },
      "properties": {
        "feature_type": "bus_stop",
        "stop_id": 9465,
        "stop_code": "HCC 365",
        "stop_name": "Bệnh viện đa khoa khu vực Củ Chi",
        "stop_type": "Trụ dừng",
        "route_no": "100",
        "display_code": "B 100",
        "direction": "Lượt về",
        "address": "965 Phan Văn Khải",
        "street": "Phan Văn Khải",
        "zone": "Huyện Củ Chi",
        "ward": "Xã Tân An Hội",
        "all_routes": "100, 107, 70-1, 70-2, 79",
        "marker_color": "#2196F3"
      }
    },
    {
      "type": "Feature",
      "geometry": {
        "type": "Point",
        "coordinates": [
          106.48049,
          10.972091
        ]
      },
      "properties": {
        "feature_type": "bus_stop",
        "stop_id": 963,
        "stop_code": "HCC 037",
        "stop_name": "Bến xe Củ Chi",
        "stop_type": "Trụ dừng",
        "route_no": "100",
        "display_code": "B 100",
        "direction": "Lượt về",
        "address": "907 (Chợ Củ Chi) Quốc lộ 22",
        "street": "Quốc lộ 22",
        "zone": "Huyện Củ Chi",
        "ward": "Thị trấn Củ Chi",
        "all_routes": "100, 107, 70-1, 70-2, 79",
        "marker_color": "#2196F3"
      }
    },
    {
      "type": "Feature",
      "geometry": {
        "type": "Point",
        "coordinates": [
          106.482453,
          10.970495
        ]
      },
      "properties": {
        "feature_type": "bus_stop",
        "stop_id": 7617,
        "stop_code": "HCC 279",
        "stop_name": "chợ Củ Chi",
        "stop_type": "Nhà chờ",
        "route_no": "100",
        "display_code": "B 100",
        "direction": "Lượt về",
        "address": "chợ Củ Chi Quốc lộ 22",
        "street": "Quốc lộ 22",
        "zone": "Huyện Củ Chi",
        "ward": "Thị trấn Củ Chi",
        "all_routes": "100, 107, 126, 13, 70-1, 70-2, 74, 79, 87, 94",
        "marker_color": "#2196F3"
      }
    }
  ]
}