{
  "type": "FeatureCollection",
  "properties": {
    "stt": 21,
    "route_no": "85",
    "display_code": "B 85",
    "route_name": "Bến xe An Sương - Khu công nghiệp Nhị Xuân",
    "start_point": "Bến xe An Sương",
    "end_point": "Khu công nghiệp Nhị Xuân",
    "listed_length_km": 14,
    "operating_hours": "4:35 - 20:30",
    "color": "#9C27B0",
    "num_variants": 2,
    "total_stops": 60,
    "total_points": 595
  },
  "features": [
    {
      "type": "Feature",
      "geometry": {
        "type": "LineString",
        "coordinates": [
          [
            106.6133728,
            10.8437376
          ],
          [
            106.61407471,
            10.84440231
          ],
          [
            106.61444092,
            10.84387493
          ],
          [
            106.61480713,
            10.8433485
          ],
          [
            106.61507416,
            10.84273148
          ],
          [
            106.61525726,
            10.84234715
          ],
          [
            106.61556244,
            10.84234715
          ],
          [
            106.61566925,
            10.84260559
          ],
          [
            106.61547852,
            10.84297371
          ],
          [
            106.61494446,
            10.8434906
          ],
          [
            106.61457825,
            10.84401226
          ],
          [
            106.61421204,
            10.84453392
          ],
          [
            106.61393738,
            10.8449688
          ],
          [
            106.61365509,
            10.84540272
          ],
          [
            106.61339569,
            10.84583473
          ],
          [
            106.61314392,
            10.84626675
          ],
          [
            106.61319733,
            10.84629345
          ],
          [
            106.61319733,
            10.84629345
          ],
          [
            106.61319733,
            10.84629345
          ],
          [
            106.61314392,
            10.84625626
          ],
          [
            106.61218262,
            10.84778976
          ],
          [
            106.61121368,
            10.84932804
          ],
          [
            106.61127472,
            10.84936047
          ],
          [
            106.61127472,
            10.84936047
          ],
          [
            106.61127472,
            10.84936047
          ],
          [
            106.61127472,
            10.84936047
          ],
          [
            106.61127472,
            10.84936047
          ],
          [
            106.61118317,
            10.84931755
          ],
          [
            106.61030579,
            10.85063457
          ],
          [
            106.60943604,
            10.8519516
          ],
          [
            106.6085968,
            10.85328484
          ],
          [
            106.60775757,
            10.85461712
          ],
          [
            106.60786438,
            10.85466003
          ],
          [
            106.60786438,
            10.85466003
          ],
          [
            106.60786438,
            10.85466003
          ],
          [
            106.60786438,
            10.85466003
          ],
          [
            106.60786438,
            10.85466003
          ],
          [
            106.60786438,
            10.85466003
          ],
          [
            106.60786438,
            10.85466003
          ],
          [
            106.60777283,
            10.85460186
          ],
          [
            106.60756683,
            10.85491085
          ],
          [
            106.60736084,
            10.85522079
          ],
          [
            106.60715485,
            10.85553074
          ],
          [
            106.60695648,
            10.85583973
          ],
          [
            106.60675049,
            10.85614967
          ],
          [
            106.60654449,
            10.85645866
          ],
          [
            106.6063385,
            10.85676861
          ],
          [
            106.60613251,
            10.8570776
          ],
          [
            106.60620117,
            10.85711479
          ],
          [
            106.60620117,
            10.85711479
          ],
          [
            106.60620117,
            10.85711479
          ],
          [
            106.60620117,
            10.85711479
          ],
          [
            106.60620117,
            10.85711479
          ],
          [
            106.60620117,
            10.85711479
          ],
          [
            106.60612488,
            10.85706234
          ],
          [
            106.60565186,
            10.85773945
          ],
          [
            106.6051712,
            10.85841656
          ],
          [
            106.60469818,
            10.85909271
          ],
          [
            106.60421753,
            10.85976982
          ],
          [
            106.60430908,
            10.85982323
          ],
          [
            106.60430908,
            10.85982323
          ],
          [
            106.60430908,
            10.85982323
          ],
          [
            106.60430908,
            10.85982323
          ],
          [
            106.60430908,
            10.85982323
          ],
          [
            106.6042099,
            10.85976505
          ],
          [
            106.60401154,
            10.86004162
          ],
          [
            106.60381317,
            10.86031914
          ],
          [
            106.60362244,
            10.86059666
          ],
          [
            106.60342407,
            10.86087418
          ],
          [
            106.60322571,
            10.86115074
          ],
          [
            106.60302734,
            10.86142826
          ],
          [
            106.60283661,
            10.86170578
          ],
          [
            106.60263824,
            10.86198235
          ],
          [
            106.60269928,
            10.86201382
          ],
          [
            106.60269928,
            10.86201382
          ],
          [
            106.60269928,
            10.86201382
          ],
          [
            106.60263824,
            10.86197758
          ],
          [
            106.60173798,
            10.86324978
          ],
          [
            106.60083771,
            10.86452198
          ],
          [
            106.60092163,
            10.86456871
          ],
          [
            106.60092163,
            10.86456871
          ],
          [
            106.60083771,
            10.86452198
          ],
          [
            106.60004425,
            10.86564445
          ],
          [
            106.59926605,
            10.86674023
          ],
          [
            106.59934998,
            10.86678219
          ],
          [
            106.59934998,
            10.86678219
          ],
          [
            106.59934998,
            10.86678219
          ],
          [
            106.59934998,
            10.86678219
          ],
          [
            106.59934998,
            10.86678219
          ],
          [
            106.59927368,
            10.86674023
          ],
          [
            106.59898376,
            10.86714935
          ],
          [
            106.59870148,
            10.86755753
          ],
          [
            106.59841156,
            10.86796665
          ],
          [
            106.59812927,
            10.86837578
          ],
          [
            106.59783936,
            10.8687849
          ],
          [
            106.59754944,
            10.86919403
          ],
          [
            106.59726715,
            10.8696022
          ],
          [
            106.59700012,
            10.87001705
          ],
          [
            106.59707642,
            10.87007523
          ],
          [
            106.59707642,
            10.87007523
          ],
          [
            106.59707642,
            10.87007523
          ],
          [
            106.59707642,
            10.87007523
          ],
          [
            106.59707642,
            10.87007523
          ],
          [
            106.59700012,
            10.87002754
          ],
          [
            106.59670258,
            10.87043285
          ],
          [
            106.59700775,
            10.87103844
          ],
          [
            106.5973053,
            10.87164497
          ],
          [
            106.5973053,
            10.87164497
          ],
          [
            106.59749603,
            10.87211132
          ],
          [
            106.59767914,
            10.87257671
          ],
          [
            106.59785461,
            10.87305164
          ],
          [
            106.59802246,
            10.87352562
          ],
          [
            106.59822845,
            10.8739996
          ],
          [
            106.59837341,
            10.87447357
          ],
          [
            106.59855652,
            10.87494278
          ],
          [
            106.59873962,
            10.87541103
          ],
          [
            106.59873962,
            10.87541103
          ],
          [
            106.59889221,
            10.87587452
          ],
          [
            106.59905243,
            10.87634373
          ],
          [
            106.59925079,
            10.87680721
          ],
          [
            106.59931946,
            10.87727642
          ],
          [
            106.59932709,
            10.87775612
          ],
          [
            106.59934235,
            10.87822437
          ],
          [
            106.59934998,
            10.87869835
          ],
          [
            106.5993576,
            10.87917328
          ],
          [
            106.5993576,
            10.87917328
          ],
          [
            106.59936523,
            10.87955475
          ],
          [
            106.59936523,
            10.87993622
          ],
          [
            106.59937286,
            10.88031101
          ],
          [
            106.59934235,
            10.88068485
          ],
          [
            106.59928131,
            10.88105297
          ],
          [
            106.5991745,
            10.88138008
          ],
          [
            106.59899902,
            10.88172245
          ],
          [
            106.59882355,
            10.88206482
          ],
          [
            106.59882355,
            10.88206482
          ],
          [
            106.59863281,
            10.88248348
          ],
          [
            106.59843445,
            10.88290215
          ],
          [
            106.59849548,
            10.88345528
          ],
          [
            106.59863281,
            10.88411903
          ],
          [
            106.59857178,
            10.88481998
          ],
          [
            106.5984726,
            10.88550758
          ],
          [
            106.59836578,
            10.88619518
          ],
          [
            106.59827423,
            10.88688278
          ],
          [
            106.59818268,
            10.88757038
          ],
          [
            106.59818268,
            10.88757038
          ],
          [
            106.59812164,
            10.8879652
          ],
          [
            106.59805298,
            10.88836002
          ],
          [
            106.59715271,
            10.88838863
          ],
          [
            106.59626007,
            10.8884182
          ],
          [
            106.59525299,
            10.88855457
          ],
          [
            106.59509277,
            10.8885603
          ],
          [
            106.59496307,
            10.88867092
          ],
          [
            106.59480286,
            10.88848686
          ],
          [
            106.59436798,
            10.88833332
          ],
          [
            106.59436798,
            10.88833332
          ],
          [
            106.59351349,
            10.88802528
          ],
          [
            106.59266663,
            10.88771725
          ],
          [
            106.59176636,
            10.88743401
          ],
          [
            106.59086609,
            10.88714981
          ],
          [
            106.59086609,
            10.88714981
          ],
          [
            106.59086609,
            10.88714981
          ],
          [
            106.59086609,
            10.88714981
          ],
          [
            106.59086609,
            10.88714981
          ],
          [
            106.58932495,
            10.88658428
          ],
          [
            106.58894348,
            10.88643742
          ],
          [
            106.58866882,
            10.88613701
          ],
          [
            106.58760071,
            10.88470936
          ],
          [
            106.58757019,
            10.8847332
          ],
          [
            106.58757019,
            10.8847332
          ],
          [
            106.58757019,
            10.8847332
          ],
          [
            106.58757019,
            10.8847332
          ],
          [
            106.58757019,
            10.8847332
          ],
          [
            106.58757019,
            10.8847332
          ],
          [
            106.58757019,
            10.8847332
          ],
          [
            106.58757019,
            10.8847332
          ],
          [
            106.58760834,
            10.88469887
          ],
          [
            106.58713531,
            10.88405132
          ],
          [
            106.58690643,
            10.8838768
          ],
          [
            106.58605957,
            10.88344479
          ],
          [
            106.58601379,
            10.88349247
          ],
          [
            106.58601379,
            10.88349247
          ],
          [
            106.58601379,
            10.88349247
          ],
          [
            106.58601379,
            10.88349247
          ],
          [
            106.58601379,
            10.88349247
          ],
          [
            106.58601379,
            10.88349247
          ],
          [
            106.58600616,
            10.88342381
          ],
          [
            106.58570862,
            10.88335037
          ],
          [
            106.58511353,
            10.88332939
          ],
          [
            106.5845108,
            10.88325024
          ],
          [
            106.58413696,
            10.8830452
          ],
          [
            106.58390808,
            10.88281822
          ],
          [
            106.58349609,
            10.88213825
          ],
          [
            106.58344269,
            10.88216496
          ],
          [
            106.58344269,
            10.88216496
          ],
          [
            106.58344269,
            10.88216496
          ],
          [
            106.58344269,
            10.88216496
          ],
          [
            106.58344269,
            10.88216496
          ],
          [
            106.58344269,
            10.88216496
          ],
          [
            106.58348083,
            10.88212776
          ],
          [
            106.58290863,
            10.88114834
          ],
          [
            106.58233643,
            10.88016796
          ],
          [
            106.58167267,
            10.87943649
          ],
          [
            106.58164978,
            10.8794632
          ],
          [
            106.58164978,
            10.8794632
          ],
          [
            106.58164978,
            10.8794632
          ],
          [
            106.58164978,
            10.8794632
          ],
          [
            106.58164978,
            10.8794632
          ],
          [
            106.58164978,
            10.8794632
          ],
          [
            106.58100128,
            10.87888336
          ],
          [
            106.58036041,
            10.87830353
          ],
          [
            106.5798645,
            10.87780094
          ],
          [
            106.57927704,
            10.87730217
          ],
          [
            106.5787735,
            10.87695503
          ],
          [
            106.57807922,
            10.87655735
          ],
          [
            106.57748413,
            10.87618446
          ],
          [
            106.57688904,
            10.87581158
          ],
          [
            106.57627869,
            10.87544727
          ],
          [
            106.57567596,
            10.87508202
          ],
          [
            106.57507324,
            10.87471771
          ],
          [
            106.57446289,
            10.87435246
          ],
          [
            106.57443237,
            10.87439537
          ],
          [
            106.57443237,
            10.87439537
          ],
          [
            106.57443237,
            10.87439537
          ],
          [
            106.57443237,
            10.87439537
          ],
          [
            106.57443237,
            10.87439537
          ],
          [
            106.57443237,
            10.87439537
          ],
          [
            106.57445526,
            10.87436295
          ],
          [
            106.57388306,
            10.87406158
          ],
          [
            106.57331085,
            10.87376022
          ],
          [
            106.57273865,
            10.87345791
          ],
          [
            106.57216644,
            10.87315655
          ],
          [
            106.57136536,
            10.87280369
          ],
          [
            106.57079315,
            10.87267971
          ],
          [
            106.57021332,
            10.87255573
          ],
          [
            106.57021332,
            10.87255573
          ],
          [
            106.57021332,
            10.87255573
          ],
          [
            106.57021332,
            10.87255573
          ],
          [
            106.57021332,
            10.87255573
          ],
          [
            106.56924438,
            10.8723259
          ],
          [
            106.56827545,
            10.87209511
          ],
          [
            106.56730652,
            10.87186623
          ],
          [
            106.56633759,
            10.87163448
          ],
          [
            106.56491852,
            10.87107086
          ],
          [
            106.56489563,
            10.87111282
          ],
          [
            106.56489563,
            10.87111282
          ],
          [
            106.56489563,
            10.87111282
          ],
          [
            106.56489563,
            10.87111282
          ],
          [
            106.56491852,
            10.87105465
          ],
          [
            106.56428528,
            10.87079906
          ],
          [
            106.56365967,
            10.87054348
          ],
          [
            106.56303406,
            10.8702879
          ],
          [
            106.56240845,
            10.87003231
          ],
          [
            106.56177521,
            10.86977673
          ],
          [
            106.5611496,
            10.86952209
          ],
          [
            106.56051636,
            10.86926651
          ],
          [
            106.55989075,
            10.86901093
          ],
          [
            106.55987549,
            10.86904716
          ],
          [
            106.55987549,
            10.86904716
          ],
          [
            106.55987549,
            10.86904716
          ],
          [
            106.55989838,
            10.86902142
          ],
          [
            106.5589447,
            10.86863899
          ],
          [
            106.5579834,
            10.86825752
          ],
          [
            106.5561676,
            10.86855125
          ],
          [
            106.55435944,
            10.86884499
          ],
          [
            106.55255127,
            10.86913872
          ],
          [
            106.55073547,
            10.86943245
          ],
          [
            106.55075073,
            10.86947918
          ],
          [
            106.55075073,
            10.86947918
          ],
          [
            106.55075073,
            10.86947918
          ],
          [
            106.55075073,
            10.86947918
          ],
          [
            106.55075073,
            10.86947918
          ],
          [
            106.55073547,
            10.86944294
          ],
          [
            106.55024719,
            10.86950588
          ],
          [
            106.54975891,
            10.86956978
          ],
          [
            106.54927063,
            10.86963272
          ],
          [
            106.54878235,
            10.86969566
          ],
          [
            106.54827118,
            10.86976147
          ],
          [
            106.54776001,
            10.86982727
          ],
          [
            106.54724884,
            10.86989307
          ],
          [
            106.54673767,
            10.86995888
          ],
          [
            106.54673004,
            10.87000561
          ],
          [
            106.54673004,
            10.87000561
          ],
          [
            106.54673004,
            10.87000561
          ],
          [
            106.54673004,
            10.87000561
          ],
          [
            106.54673004,
            10.87000561
          ],
          [
            106.54673004,
            10.87000561
          ],
          [
            106.54673004,
            10.87000561
          ],
          [
            106.54673004,
            10.87000561
          ],
          [
            106.54673004,
            10.86996937
          ],
          [
            106.5460968,
            10.87005615
          ],
          [
            106.54546356,
            10.87014389
          ],
          [
            106.54483795,
            10.87023067
          ],
          [
            106.54420471,
            10.87031746
          ],
          [
            106.54357147,
            10.87040424
          ],
          [
            106.5429306,
            10.87049103
          ],
          [
            106.54229736,
            10.87057495
          ],
          [
            106.54166412,
            10.87065983
          ],
          [
            106.54167938,
            10.87070179
          ],
          [
            106.54167938,
            10.87070179
          ],
          [
            106.54167938,
            10.87070179
          ],
          [
            106.54167938,
            10.87070179
          ],
          [
            106.54167938,
            10.87070179
          ],
          [
            106.54167938,
            10.87070179
          ],
          [
            106.54167938,
            10.87070179
          ],
          [
            106.54167938,
            10.87070179
          ],
          [
            106.54167938,
            10.87065411
          ],
          [
            106.54089355,
            10.87077522
          ],
          [
            106.54011536,
            10.87089634
          ],
          [
            106.53934479,
            10.87103081
          ],
          [
            106.53857422,
            10.87116528
          ],
          [
            106.53857422,
            10.87122345
          ],
          [
            106.53857422,
            10.87122345
          ],
          [
            106.53857422,
            10.87122345
          ],
          [
            106.53857422,
            10.87122345
          ],
          [
            106.53857422,
            10.87122345
          ],
          [
            106.53857422,
            10.87122345
          ],
          [
            106.53855896,
            10.871171
          ],
          [
            106.5370636,
            10.87146091
          ],
          [
            106.53556061,
            10.87174988
          ],
          [
            106.53556061,
            10.87184525
          ],
          [
            106.53556061,
            10.87184525
          ]
        ]
      },
      "properties": {
        "feature_type": "route_path",
        "stt": 21,
        "route_id": 125,
        "route_no": "85",
        "display_code": "B 85",
        "route_name": "Bến xe An Sương - Khu công nghiệp Nhị Xuân",
        "direction": "Lượt đi",
        "outbound": true,
        "start_point": "Bến xe An Sương",
        "end_point": "Khu công nghiệp Nhị Xuân",
        "start_stop": "Bến xe An Sương",
        "end_stop": "Bến xe buýt Cầu Lớn",
        "distance_km": 14.16,
        "listed_length_km": 14,
        "running_time_min": 35,
        "operating_hours": "4:35 - 20:30",
        "stroke": "#9C27B0",
        "stroke_width": 4,
        "stroke_opacity": 0.85
      }
    },
    {
      "type": "Feature",
      "geometry": {
        "type": "LineString",
        "coordinates": [
          [
            106.53556061,
            10.87184525
          ],
          [
            106.53553772,
            10.87174511
          ],
          [
            106.5365448,
            10.8715601
          ],
          [
            106.5365448,
            10.87150764
          ],
          [
            106.5365448,
            10.87150764
          ],
          [
            106.53655243,
            10.87156582
          ],
          [
            106.53736115,
            10.87140274
          ],
          [
            106.53816986,
            10.87123871
          ],
          [
            106.53817749,
            10.87117577
          ],
          [
            106.53817749,
            10.87117577
          ],
          [
            106.53817749,
            10.87117577
          ],
          [
            106.53822327,
            10.87123394
          ],
          [
            106.53913116,
            10.87106514
          ],
          [
            106.54003906,
            10.87089634
          ],
          [
            106.5410614,
            10.87074089
          ],
          [
            106.54209137,
            10.87058544
          ],
          [
            106.54210663,
            10.87050056
          ],
          [
            106.54210663,
            10.87050056
          ],
          [
            106.54210663,
            10.87050056
          ],
          [
            106.54210663,
            10.87050056
          ],
          [
            106.54210663,
            10.87050056
          ],
          [
            106.54216003,
            10.87058544
          ],
          [
            106.54315948,
            10.87044716
          ],
          [
            106.54415894,
            10.87030888
          ],
          [
            106.54515839,
            10.87017059
          ],
          [
            106.54615784,
            10.87003231
          ],
          [
            106.54620361,
            10.86991119
          ],
          [
            106.54620361,
            10.86991119
          ],
          [
            106.54620361,
            10.86991119
          ],
          [
            106.54620361,
            10.86991119
          ],
          [
            106.54620361,
            10.86991119
          ],
          [
            106.54620361,
            10.86991119
          ],
          [
            106.54627991,
            10.87001705
          ],
          [
            106.54863739,
            10.86967754
          ],
          [
            106.55099487,
            10.86933708
          ],
          [
            106.55101013,
            10.86919498
          ],
          [
            106.55101013,
            10.86919498
          ],
          [
            106.55101013,
            10.86919498
          ],
          [
            106.55101013,
            10.86919498
          ],
          [
            106.55101013,
            10.86919498
          ],
          [
            106.55105591,
            10.86936378
          ],
          [
            106.55278015,
            10.86908722
          ],
          [
            106.55449677,
            10.86881065
          ],
          [
            106.55621338,
            10.86853409
          ],
          [
            106.55793762,
            10.86825752
          ],
          [
            106.55858612,
            10.86843109
          ],
          [
            106.5591507,
            10.86867332
          ],
          [
            106.55924225,
            10.86864662
          ],
          [
            106.55924225,
            10.86864662
          ],
          [
            106.55924225,
            10.86864662
          ],
          [
            106.55924225,
            10.86864662
          ],
          [
            106.55924225,
            10.86864662
          ],
          [
            106.55924225,
            10.86864662
          ],
          [
            106.55924988,
            10.86871052
          ],
          [
            106.56056976,
            10.86924839
          ],
          [
            106.56188965,
            10.86978531
          ],
          [
            106.56320953,
            10.87032318
          ],
          [
            106.56452942,
            10.8708601
          ],
          [
            106.56459045,
            10.87084389
          ],
          [
            106.56459045,
            10.87084389
          ],
          [
            106.56459045,
            10.87084389
          ],
          [
            106.56459045,
            10.87084389
          ],
          [
            106.56459045,
            10.87084389
          ],
          [
            106.56459045,
            10.87084389
          ],
          [
            106.56464386,
            10.87092781
          ],
          [
            106.56620789,
            10.8715868
          ],
          [
            106.56793976,
            10.87198448
          ],
          [
            106.56967163,
            10.87238216
          ],
          [
            106.56977081,
            10.87231922
          ],
          [
            106.56977081,
            10.87231922
          ],
          [
            106.56977081,
            10.87231922
          ],
          [
            106.56977081,
            10.87231922
          ],
          [
            106.56977081,
            10.87231922
          ],
          [
            106.56972504,
            10.87245083
          ],
          [
            106.57056427,
            10.87263489
          ],
          [
            106.57139587,
            10.8728199
          ],
          [
            106.57225037,
            10.87321472
          ],
          [
            106.57312775,
            10.87366009
          ],
          [
            106.57400513,
            10.8741045
          ],
          [
            106.57405853,
            10.8740263
          ],
          [
            106.57405853,
            10.8740263
          ],
          [
            106.57405853,
            10.8740263
          ],
          [
            106.57405853,
            10.8740263
          ],
          [
            106.57402039,
            10.87412643
          ],
          [
            106.57534027,
            10.87488461
          ],
          [
            106.57665253,
            10.87564278
          ],
          [
            106.57788849,
            10.8764019
          ],
          [
            106.57911682,
            10.87716007
          ],
          [
            106.58013153,
            10.87807941
          ],
          [
            106.58114624,
            10.87899876
          ],
          [
            106.58126831,
            10.87892532
          ],
          [
            106.58126831,
            10.87892532
          ],
          [
            106.58126831,
            10.87892532
          ],
          [
            106.58126831,
            10.87892532
          ],
          [
            106.58126831,
            10.87892532
          ],
          [
            106.58126068,
            10.87901497
          ],
          [
            106.58178711,
            10.87952328
          ],
          [
            106.58232117,
            10.88003159
          ],
          [
            106.58269501,
            10.88066959
          ],
          [
            106.58306122,
            10.88130665
          ],
          [
            106.58312988,
            10.88131714
          ],
          [
            106.58312988,
            10.88131714
          ],
          [
            106.58312988,
            10.88131714
          ],
          [
            106.58312988,
            10.88131714
          ],
          [
            106.58312988,
            10.88131714
          ],
          [
            106.58312988,
            10.88131714
          ],
          [
            106.58309937,
            10.88139629
          ],
          [
            106.58352661,
            10.88211823
          ],
          [
            106.58394623,
            10.8828392
          ],
          [
            106.58419037,
            10.88307667
          ],
          [
            106.58455658,
            10.88326073
          ],
          [
            106.58575439,
            10.88335037
          ],
          [
            106.58634949,
            10.88354015
          ],
          [
            106.58641815,
            10.88350773
          ],
          [
            106.58641815,
            10.88350773
          ],
          [
            106.58641815,
            10.88350773
          ],
          [
            106.58641815,
            10.88350773
          ],
          [
            106.5864563,
            10.88358688
          ],
          [
            106.58709717,
            10.8839035
          ],
          [
            106.58737946,
            10.88438797
          ],
          [
            106.58773041,
            10.88480949
          ],
          [
            106.58779907,
            10.88479424
          ],
          [
            106.58779907,
            10.88479424
          ],
          [
            106.58779907,
            10.88479424
          ],
          [
            106.58779907,
            10.88479424
          ],
          [
            106.5877533,
            10.88487816
          ],
          [
            106.58839417,
            10.88566303
          ],
          [
            106.58904266,
            10.88644791
          ],
          [
            106.58982086,
            10.88671684
          ],
          [
            106.59059143,
            10.88698483
          ],
          [
            106.59069061,
            10.8869381
          ],
          [
            106.59069061,
            10.8869381
          ],
          [
            106.59069061,
            10.8869381
          ],
          [
            106.59065247,
            10.88700581
          ],
          [
            106.59143066,
            10.88726997
          ],
          [
            106.59220123,
            10.88753319
          ],
          [
            106.59298706,
            10.88780689
          ],
          [
            106.59377289,
            10.8880806
          ],
          [
            106.59381104,
            10.88800716
          ],
          [
            106.59381104,
            10.88800716
          ],
          [
            106.59377289,
            10.88809109
          ],
          [
            106.59431458,
            10.88828087
          ],
          [
            106.59485626,
            10.88847065
          ],
          [
            106.59509277,
            10.88850784
          ],
          [
            106.59552765,
            10.88843918
          ],
          [
            106.59600067,
            10.88839149
          ],
          [
            106.59702301,
            10.88834381
          ],
          [
            106.59803772,
            10.88829708
          ],
          [
            106.5980835,
            10.88764858
          ],
          [
            106.5980835,
            10.88764858
          ],
          [
            106.59818268,
            10.88695717
          ],
          [
            106.59828186,
            10.88626575
          ],
          [
            106.59838867,
            10.88557434
          ],
          [
            106.59848785,
            10.88488293
          ],
          [
            106.59853363,
            10.88419819
          ],
          [
            106.59843445,
            10.88348198
          ],
          [
            106.59837341,
            10.88291836
          ],
          [
            106.59867859,
            10.88211155
          ],
          [
            106.59867859,
            10.88211155
          ],
          [
            106.59890747,
            10.88170624
          ],
          [
            106.59912872,
            10.88130665
          ],
          [
            106.59925842,
            10.8809166
          ],
          [
            106.59929657,
            10.88052654
          ],
          [
            106.59931946,
            10.87973118
          ],
          [
            106.59928131,
            10.87893009
          ],
          [
            106.59928131,
            10.87893009
          ],
          [
            106.59928894,
            10.8784771
          ],
          [
            106.59929657,
            10.8780241
          ],
          [
            106.59927368,
            10.87757111
          ],
          [
            106.59925079,
            10.87712383
          ],
          [
            106.59912109,
            10.87673378
          ],
          [
            106.59899902,
            10.87634945
          ],
          [
            106.59884644,
            10.87594318
          ],
          [
            106.59869385,
            10.87553787
          ],
          [
            106.59869385,
            10.87553787
          ],
          [
            106.59851074,
            10.87502956
          ],
          [
            106.59833527,
            10.87452126
          ],
          [
            106.59815216,
            10.87401581
          ],
          [
            106.59796906,
            10.87350464
          ],
          [
            106.59777069,
            10.87300873
          ],
          [
            106.59757233,
            10.87251949
          ],
          [
            106.59736633,
            10.87202454
          ],
          [
            106.59715271,
            10.87152863
          ],
          [
            106.59715271,
            10.87152863
          ],
          [
            106.59686279,
            10.87088394
          ],
          [
            106.59657288,
            10.8702383
          ],
          [
            106.59675598,
            10.86995411
          ],
          [
            106.59675598,
            10.86995411
          ],
          [
            106.59675598,
            10.86995411
          ],
          [
            106.59675598,
            10.86995411
          ],
          [
            106.59675598,
            10.86995411
          ],
          [
            106.59735107,
            10.8692131
          ],
          [
            106.59788513,
            10.86845779
          ],
          [
            106.59841919,
            10.86770153
          ],
          [
            106.59890747,
            10.86691856
          ],
          [
            106.59890747,
            10.86691856
          ],
          [
            106.59890747,
            10.86691856
          ],
          [
            106.59890747,
            10.86691856
          ],
          [
            106.59890747,
            10.86691856
          ],
          [
            106.59890747,
            10.86691856
          ],
          [
            106.59890747,
            10.86691856
          ],
          [
            106.59890747,
            10.86691856
          ],
          [
            106.59973907,
            10.86587048
          ],
          [
            106.60050964,
            10.86478519
          ],
          [
            106.60128021,
            10.86367893
          ],
          [
            106.60205078,
            10.86257267
          ],
          [
            106.60197449,
            10.86254597
          ],
          [
            106.60197449,
            10.86254597
          ],
          [
            106.60197449,
            10.86254597
          ],
          [
            106.60197449,
            10.86254597
          ],
          [
            106.60197449,
            10.86254597
          ],
          [
            106.60197449,
            10.86254597
          ],
          [
            106.60197449,
            10.86254597
          ],
          [
            106.60205841,
            10.86258888
          ],
          [
            106.60270691,
            10.861619
          ],
          [
            106.60340118,
            10.86066532
          ],
          [
            106.60332489,
            10.86060238
          ],
          [
            106.60332489,
            10.86060238
          ],
          [
            106.60332489,
            10.86060238
          ],
          [
            106.60332489,
            10.86060238
          ],
          [
            106.60332489,
            10.86060238
          ],
          [
            106.60340118,
            10.86065006
          ],
          [
            106.60375977,
            10.86015224
          ],
          [
            106.60412598,
            10.85965443
          ],
          [
            106.60448456,
            10.85915852
          ],
          [
            106.60485077,
            10.85866356
          ],
          [
            106.60520935,
            10.85817146
          ],
          [
            106.60557556,
            10.85767841
          ],
          [
            106.60590363,
            10.85718346
          ],
          [
            106.60623932,
            10.8566885
          ],
          [
            106.60617828,
            10.85661983
          ],
          [
            106.60617828,
            10.85661983
          ],
          [
            106.60617828,
            10.85661983
          ],
          [
            106.60617828,
            10.85661983
          ],
          [
            106.60617828,
            10.85661983
          ],
          [
            106.60617828,
            10.85661983
          ],
          [
            106.60626221,
            10.85666656
          ],
          [
            106.60676575,
            10.85591221
          ],
          [
            106.60726166,
            10.85516262
          ],
          [
            106.60774994,
            10.85441399
          ],
          [
            106.60823822,
            10.85364246
          ],
          [
            106.6081543,
            10.85359478
          ],
          [
            106.6081543,
            10.85359478
          ],
          [
            106.6081543,
            10.85359478
          ],
          [
            106.6081543,
            10.85359478
          ],
          [
            106.6081543,
            10.85359478
          ],
          [
            106.6081543,
            10.85359478
          ],
          [
            106.6081543,
            10.85359478
          ],
          [
            106.60823059,
            10.8536272
          ],
          [
            106.60881805,
            10.85268116
          ],
          [
            106.60940552,
            10.85173607
          ],
          [
            106.61006165,
            10.8507452
          ],
          [
            106.61070251,
            10.84973907
          ],
          [
            106.61064148,
            10.84971333
          ],
          [
            106.61064148,
            10.84971333
          ],
          [
            106.61064148,
            10.84971333
          ],
          [
            106.61064148,
            10.84971333
          ],
          [
            106.61064148,
            10.84971333
          ],
          [
            106.61064148,
            10.84971333
          ],
          [
            106.61070251,
            10.84973907
          ],
          [
            106.61142731,
            10.84860897
          ],
          [
            106.6121521,
            10.84747887
          ],
          [
            106.61287689,
            10.84635639
          ],
          [
            106.6135788,
            10.84521294
          ],
          [
            106.61352539,
            10.84518719
          ],
          [
            106.61352539,
            10.84518719
          ],
          [
            106.61352539,
            10.84518719
          ],
          [
            106.61352539,
            10.84518719
          ],
          [
            106.61352539,
            10.84518719
          ],
          [
            106.61352539,
            10.84518719
          ],
          [
            106.61358643,
            10.84522343
          ],
          [
            106.61406708,
            10.84443855
          ],
          [
            106.61330414,
            10.84384346
          ],
          [
            106.6133728,
            10.8437376
          ]
        ]
      },
      "properties": {
        "feature_type": "route_path",
        "stt": 21,
        "route_id": 125,
        "route_no": "85",
        "display_code": "B 85",
        "route_name": "Bến xe An Sương - Khu công nghiệp Nhị Xuân",
        "direction": "Lượt về",
        "outbound": false,
        "start_point": "Bến xe An Sương",
        "end_point": "Khu công nghiệp Nhị Xuân",
        "start_stop": "Bến xe buýt Cầu Lớn",
        "end_stop": "Bến xe An Sương",
        "distance_km": 13.59,
        "listed_length_km": 14,
        "running_time_min": 35,
        "operating_hours": "4:35 - 20:30",
        "stroke": "#9C27B0",
        "stroke_width": 4,
        "stroke_opacity": 0.85
      }
    },
    {
      "type": "Feature",
      "geometry": {
        "type": "Point",
        "coordinates": [
          106.61337280273438,
          10.843737602233887
        ]
      },
      "properties": {
        "feature_type": "bus_stop",
        "stop_id": 166,
        "stop_code": "BX41",
        "stop_name": "Bến xe An Sương",
        "stop_type": "Bến xe",
        "route_no": "85",
        "display_code": "B 85",
        "direction": "Lượt đi",
        "address": "Bến xe An Sương Quốc lộ 22",
        "street": "Quốc lộ 22",
        "zone": "Quận 12",
        "ward": null,
        "all_routes": "04, 104, 122, 151, 27, 33, 41, 61-3, 62-5, 65, 71, 74, 85",
        "marker_color": "#9C27B0"
      }
    },
    {
      "type": "Feature",
      "geometry": {
        "type": "Point",
        "coordinates": [
          106.6132,
          10.846293
        ]
      },
      "properties": {
        "feature_type": "bus_stop",
        "stop_id": 1117,
        "stop_code": "Q12 124",
        "stop_name": "Bến xe An Sương",
        "stop_type": "Trụ dừng",
        "route_no": "85",
        "display_code": "B 85",
        "direction": "Lượt đi",
        "address": "8C Quốc lộ 22",
        "street": "Quốc lộ 22",
        "zone": "Quận 12",
        "ward": null,
        "all_routes": "13, 62-5, 74, 85, 94",
        "marker_color": "#9C27B0"
      }
    },
    {
      "type": "Feature",
      "geometry": {
        "type": "Point",
        "coordinates": [
          106.611274,
          10.84936
        ]
      },
      "properties": {
        "feature_type": "bus_stop",
        "stop_id": 1151,
        "stop_code": "Q12 125",
        "stop_name": "Cây xăng Quân Đội",
        "stop_type": "Trụ dừng",
        "route_no": "85",
        "display_code": "B 85",
        "direction": "Lượt đi",
        "address": "2 Quốc lộ 22",
        "street": "Quốc lộ 22",
        "zone": "Quận 12",
        "ward": null,
        "all_routes": "122, 13, 145, 62-5, 71, 74, 85, 94",
        "marker_color": "#9C27B0"
      }
    },
    {
      "type": "Feature",
      "geometry": {
        "type": "Point",
        "coordinates": [
          106.607863,
          10.85466
        ]
      },
      "properties": {
        "feature_type": "bus_stop",
        "stop_id": 1152,
        "stop_code": "Q12 127",
        "stop_name": "Trung tâm Văn hóa Quận 12",
        "stop_type": "Nhà chờ",
        "route_no": "85",
        "display_code": "B 85",
        "direction": "Lượt đi",
        "address": "Trung tâm văn hóa Quận 12 Quốc lộ 22",
        "street": "Quốc lộ 22",
        "zone": "Quận 12",
        "ward": null,
        "all_routes": "122, 13, 145, 62-5, 71, 74, 85, 94",
        "marker_color": "#9C27B0"
      }
    },
    {
      "type": "Feature",
      "geometry": {
        "type": "Point",
        "coordinates": [
          106.6062,
          10.857115
        ]
      },
      "properties": {
        "feature_type": "bus_stop",
        "stop_id": 1154,
        "stop_code": "HHM 022",
        "stop_name": "Liên đoàn lao động Hóc Môn",
        "stop_type": "Trụ dừng",
        "route_no": "85",
        "display_code": "B 85",
        "direction": "Lượt đi",
        "address": "69/1 (21/7) Quốc lộ 22",
        "street": "Quốc lộ 22",
        "zone": "Huyện Hóc Môn",
        "ward": "Xã Trung Chánh",
        "all_routes": "122, 13, 62-5, 71, 74, 85, 94",
        "marker_color": "#9C27B0"
      }
    },
    {
      "type": "Feature",
      "geometry": {
        "type": "Point",
        "coordinates": [
          106.604306,
          10.859823
        ]
      },
      "properties": {
        "feature_type": "bus_stop",
        "stop_id": 1153,
        "stop_code": "HHM 023",
        "stop_name": "Cây xăng Củ Cải",
        "stop_type": "Trụ dừng",
        "route_no": "85",
        "display_code": "B 85",
        "direction": "Lượt đi",
        "address": "33/4 (336) Quốc lộ 22",
        "street": "Quốc lộ 22",
        "zone": "Huyện Hóc Môn",
        "ward": "Xã Trung Chánh",
        "all_routes": "122, 13, 62-5, 71, 74, 85, 94",
        "marker_color": "#9C27B0"
      }
    },
    {
      "type": "Feature",
      "geometry": {
        "type": "Point",
        "coordinates": [
          106.602697,
          10.862014
        ]
      },
      "properties": {
        "feature_type": "bus_stop",
        "stop_id": 1156,
        "stop_code": "HHM 024",
        "stop_name": "Ngã 3 Củ Cải",
        "stop_type": "Trụ dừng",
        "route_no": "85",
        "display_code": "B 85",
        "direction": "Lượt đi",
        "address": "42/1 (62/1A) Quốc lộ 22",
        "street": "Quốc lộ 22",
        "zone": "Huyện Hóc Môn",
        "ward": null,
        "all_routes": "122, 13, 62-5, 74, 85, 94",
        "marker_color": "#9C27B0"
      }
    },
    {
      "type": "Feature",
      "geometry": {
        "type": "Point",
        "coordinates": [
          106.600921,
          10.864569
        ]
      },
      "properties": {
        "feature_type": "bus_stop",
        "stop_id": 7800,
        "stop_code": "HHM 245",
        "stop_name": "Trường Đại học Ngoại ngữ - Tin học TP.HCM",
        "stop_type": "Trụ dừng",
        "route_no": "85",
        "display_code": "B 85",
        "direction": "Lượt đi",
        "address": "Trường Đại học Ngoại ngữ - Tin học TP.HCM Quốc lộ 22",
        "street": "Quốc lộ 22",
        "zone": "Huyện Hóc Môn",
        "ward": "Xã Tân Xuân",
        "all_routes": "122, 13, 62-5, 74, 85, 94",
        "marker_color": "#9C27B0"
      }
    },
    {
      "type": "Feature",
      "geometry": {
        "type": "Point",
        "coordinates": [
          106.599349,
          10.866782
        ]
      },
      "properties": {
        "feature_type": "bus_stop",
        "stop_id": 1155,
        "stop_code": "HHM 025",
        "stop_name": "Trường học Tân Xuân",
        "stop_type": "Trụ dừng",
        "route_no": "85",
        "display_code": "B 85",
        "direction": "Lượt đi",
        "address": "8/6B Quốc lộ 22",
        "street": "Quốc lộ 22",
        "zone": "Huyện Hóc Môn",
        "ward": null,
        "all_routes": "122, 13, 62-5, 74, 85, 94",
        "marker_color": "#9C27B0"
      }
    },
    {
      "type": "Feature",
      "geometry": {
        "type": "Point",
        "coordinates": [
          106.597075,
          10.870075
        ]
      },
      "properties": {
        "feature_type": "bus_stop",
        "stop_id": 1158,
        "stop_code": "HHM 026",
        "stop_name": "Ngã 3 Bùi Môn",
        "stop_type": "Ô sơn",
        "route_no": "85",
        "display_code": "B 85",
        "direction": "Lượt đi",
        "address": "1/1 Quốc lộ 22",
        "street": "Quốc lộ 22",
        "zone": "Huyện Hóc Môn",
        "ward": null,
        "all_routes": "122, 13, 62-5, 74, 85, 94",
        "marker_color": "#9C27B0"
      }
    },
    {
      "type": "Feature",
      "geometry": {
        "type": "Point",
        "coordinates": [
          106.597306,
          10.871645
        ]
      },
      "properties": {
        "feature_type": "bus_stop",
        "stop_id": 8135,
        "stop_code": "HHM TT 002",
        "stop_name": "Quốc lộ 22",
        "stop_type": "Trạm tạm",
        "route_no": "85",
        "display_code": "B 85",
        "direction": "Lượt đi",
        "address": "28 Lê Thị Hà",
        "street": "Lê Thị Hà",
        "zone": "Huyện Hóc Môn",
        "ward": "Xã Tân Xuân",
        "all_routes": "122, 85",
        "marker_color": "#9C27B0"
      }
    },
    {
      "type": "Feature",
      "geometry": {
        "type": "Point",
        "coordinates": [
          106.598743,
          10.875411
        ]
      },
      "properties": {
        "feature_type": "bus_stop",
        "stop_id": 8133,
        "stop_code": "HHM TT 004",
        "stop_name": "Nguyễn Thị Ai",
        "stop_type": "Trạm tạm",
        "route_no": "85",
        "display_code": "B 85",
        "direction": "Lượt đi",
        "address": "100 Lê Thị Hà",
        "street": "Lê Thị Hà",
        "zone": "Huyện Hóc Môn",
        "ward": "Xã Tân Xuân",
        "all_routes": "122, 85",
        "marker_color": "#9C27B0"
      }
    },
    {
      "type": "Feature",
      "geometry": {
        "type": "Point",
        "coordinates": [
          106.59936,
          10.879173
        ]
      },
      "properties": {
        "feature_type": "bus_stop",
        "stop_id": 8131,
        "stop_code": "HHM TT 006",
        "stop_name": "Đường Tân Xuân 1",
        "stop_type": "Trạm tạm",
        "route_no": "85",
        "display_code": "B 85",
        "direction": "Lượt đi",
        "address": "Cây xanh 165-167 (cạnh 45//1A) Lê Thị Hà",
        "street": "Lê Thị Hà",
        "zone": "Huyện Hóc Môn",
        "ward": "Xã Tân Xuân",
        "all_routes": "122, 85",
        "marker_color": "#9C27B0"
      }
    },
    {
      "type": "Feature",
      "geometry": {
        "type": "Point",
        "coordinates": [
          106.598824,
          10.882065
        ]
      },
      "properties": {
        "feature_type": "bus_stop",
        "stop_id": 8129,
        "stop_code": "HHM TT 008",
        "stop_name": "Ấp Chánh",
        "stop_type": "Trạm tạm",
        "route_no": "85",
        "display_code": "B 85",
        "direction": "Lượt đi",
        "address": "246 Lê Thị Hà",
        "street": "Lê Thị Hà",
        "zone": "Huyện Hóc Môn",
        "ward": "Xã Tân Xuân",
        "all_routes": "122, 85",
        "marker_color": "#9C27B0"
      }
    },
    {
      "type": "Feature",
      "geometry": {
        "type": "Point",
        "coordinates": [
          106.598185,
          10.88757
        ]
      },
      "properties": {
        "feature_type": "bus_stop",
        "stop_id": 8126,
        "stop_code": "HHM TT 010",
        "stop_name": "Giao lộ Lê Thị Hà-Quang Trung",
        "stop_type": "Trạm tạm",
        "route_no": "85",
        "display_code": "B 85",
        "direction": "Lượt đi",
        "address": "40 Lê Thị Hà",
        "street": "Lê Thị Hà",
        "zone": "Huyện Hóc Môn",
        "ward": "Xã Tân Xuân",
        "all_routes": "122, 85",
        "marker_color": "#9C27B0"
      }
    },
    {
      "type": "Feature",
      "geometry": {
        "type": "Point",
        "coordinates": [
          106.594368,
          10.888333
        ]
      },
      "properties": {
        "feature_type": "bus_stop",
        "stop_id": 2259,
        "stop_code": "HHM 164",
        "stop_name": "Ngân hàng Nông Nghiệp",
        "stop_type": "Trụ dừng",
        "route_no": "85",
        "display_code": "B 85",
        "direction": "Lượt đi",
        "address": "13/3 (số củ 12) Lý Thường Kiệt ",
        "street": "Lý Thường Kiệt ",
        "zone": "Huyện Hóc Môn",
        "ward": "Thị trấn Hóc Môn",
        "all_routes": "24, 62-5, 85",
        "marker_color": "#9C27B0"
      }
    },
    {
      "type": "Feature",
      "geometry": {
        "type": "Point",
        "coordinates": [
          106.590866,
          10.88715
        ]
      },
      "properties": {
        "feature_type": "bus_stop",
        "stop_id": 2268,
        "stop_code": "HHM 165",
        "stop_name": "Ngân hàng BIDV",
        "stop_type": "Trụ dừng",
        "route_no": "85",
        "display_code": "B 85",
        "direction": "Lượt đi",
        "address": "78 Lý Thường Kiệt ",
        "street": "Lý Thường Kiệt ",
        "zone": "Huyện Hóc Môn",
        "ward": "Thị trấn Hóc Môn",
        "all_routes": "24, 62-5, 85",
        "marker_color": "#9C27B0"
      }
    },
    {
      "type": "Feature",
      "geometry": {
        "type": "Point",
        "coordinates": [
          106.58757,
          10.884733
        ]
      },
      "properties": {
        "feature_type": "bus_stop",
        "stop_id": 2261,
        "stop_code": "HHM 166",
        "stop_name": "Ngã tư Hóc Môn",
        "stop_type": "Trụ dừng",
        "route_no": "85",
        "display_code": "B 85",
        "direction": "Lượt đi",
        "address": "51/8 Lý Thường Kiệt ",
        "street": "Lý Thường Kiệt ",
        "zone": "Huyện Hóc Môn",
        "ward": "Thị trấn Hóc Môn",
        "all_routes": "24, 62-5, 85",
        "marker_color": "#9C27B0"
      }
    },
    {
      "type": "Feature",
      "geometry": {
        "type": "Point",
        "coordinates": [
          106.586013,
          10.883492
        ]
      },
      "properties": {
        "feature_type": "bus_stop",
        "stop_id": 3954,
        "stop_code": "HHM 059",
        "stop_name": "Ngã 4 Hóc Môn",
        "stop_type": "Trụ dừng",
        "route_no": "85",
        "display_code": "B 85",
        "direction": "Lượt đi",
        "address": "8B Nguyễn Văn Bứa",
        "street": "Nguyễn Văn Bứa",
        "zone": "Huyện Hóc Môn",
        "ward": "Xã Xuân Thới Sơn",
        "all_routes": "62-5, 85",
        "marker_color": "#9C27B0"
      }
    },
    {
      "type": "Feature",
      "geometry": {
        "type": "Point",
        "coordinates": [
          106.583444,
          10.882165
        ]
      },
      "properties": {
        "feature_type": "bus_stop",
        "stop_id": 3950,
        "stop_code": "HHM 060",
        "stop_name": "Chợ Xuân Thới Sơn",
        "stop_type": "Trụ dừng",
        "route_no": "85",
        "display_code": "B 85",
        "direction": "Lượt đi",
        "address": "Ban nhân dân Ấp 1 (79/79) Nguyễn Văn Bứa",
        "street": "Nguyễn Văn Bứa",
        "zone": "Huyện Hóc Môn",
        "ward": "Xã Xuân Thới Sơn",
        "all_routes": "62-5, 85",
        "marker_color": "#9C27B0"
      }
    },
    {
      "type": "Feature",
      "geometry": {
        "type": "Point",
        "coordinates": [
          106.581652,
          10.879463
        ]
      },
      "properties": {
        "feature_type": "bus_stop",
        "stop_id": 3953,
        "stop_code": "HHM 061",
        "stop_name": "Nguyễn Thị Thử",
        "stop_type": "Trụ dừng",
        "route_no": "85",
        "display_code": "B 85",
        "direction": "Lượt đi",
        "address": "96/3C Nguyễn Văn Bứa",
        "street": "Nguyễn Văn Bứa",
        "zone": "Huyện Hóc Môn",
        "ward": "Xã Xuân Thới Sơn",
        "all_routes": "62-5, 85",
        "marker_color": "#9C27B0"
      }
    },
    {
      "type": "Feature",
      "geometry": {
        "type": "Point",
        "coordinates": [
          106.574432,
          10.874395
        ]
      },
      "properties": {
        "feature_type": "bus_stop",
        "stop_id": 3951,
        "stop_code": "HHM 062",
        "stop_name": "Công ty cáp Vĩnh Thịnh",
        "stop_type": "Trụ dừng",
        "route_no": "85",
        "display_code": "B 85",
        "direction": "Lượt đi",
        "address": "40B Nguyễn Văn Bứa",
        "street": "Nguyễn Văn Bứa",
        "zone": "Huyện Hóc Môn",
        "ward": "Xã Xuân Thới Sơn",
        "all_routes": "62-5, 85",
        "marker_color": "#9C27B0"
      }
    },
    {
      "type": "Feature",
      "geometry": {
        "type": "Point",
        "coordinates": [
          106.570215,
          10.872556
        ]
      },
      "properties": {
        "feature_type": "bus_stop",
        "stop_id": 3974,
        "stop_code": "HHM 063",
        "stop_name": "Sân Banh",
        "stop_type": "Trụ dừng",
        "route_no": "85",
        "display_code": "B 85",
        "direction": "Lượt đi",
        "address": "DD 14/7 (28A) Nguyễn Văn Bứa",
        "street": "Nguyễn Văn Bứa",
        "zone": "Huyện Hóc Môn",
        "ward": "Xã Xuân Thới Sơn",
        "all_routes": "62-5, 85",
        "marker_color": "#9C27B0"
      }
    },
    {
      "type": "Feature",
      "geometry": {
        "type": "Point",
        "coordinates": [
          106.564894,
          10.871113
        ]
      },
      "properties": {
        "feature_type": "bus_stop",
        "stop_id": 2224,
        "stop_code": "HHM 064",
        "stop_name": "Dương Công Khi",
        "stop_type": "Trụ dừng",
        "route_no": "85",
        "display_code": "B 85",
        "direction": "Lượt đi",
        "address": "89/5 Nguyễn Văn Bứa",
        "street": "Nguyễn Văn Bứa",
        "zone": "Huyện Hóc Môn",
        "ward": "Xã Xuân Thới Sơn",
        "all_routes": "62-5, 85",
        "marker_color": "#9C27B0"
      }
    },
    {
      "type": "Feature",
      "geometry": {
        "type": "Point",
        "coordinates": [
          106.559878,
          10.869047
        ]
      },
      "properties": {
        "feature_type": "bus_stop",
        "stop_id": 3945,
        "stop_code": "HHM 065",
        "stop_name": "Ngã Ba Giồng",
        "stop_type": "Trụ dừng",
        "route_no": "85",
        "display_code": "B 85",
        "direction": "Lượt đi",
        "address": "Đối diện Ngã ba giòng Nguyễn Văn Bứa",
        "street": "Nguyễn Văn Bứa",
        "zone": "Huyện Hóc Môn",
        "ward": "Xã Xuân Thới Sơn",
        "all_routes": "62-5, 78, 85",
        "marker_color": "#9C27B0"
      }
    },
    {
      "type": "Feature",
      "geometry": {
        "type": "Point",
        "coordinates": [
          106.550753,
          10.869479
        ]
      },
      "properties": {
        "feature_type": "bus_stop",
        "stop_id": 2222,
        "stop_code": "HHM 066",
        "stop_name": "Trường PTTH Nguyễn Văn Cừ",
        "stop_type": "Trụ dừng",
        "route_no": "85",
        "display_code": "B 85",
        "direction": "Lượt đi",
        "address": "Đối diện trường Nguyễn Văn Cừ Nguyễn Văn Bứa",
        "street": "Nguyễn Văn Bứa",
        "zone": "Huyện Hóc Môn",
        "ward": "Xã Xuân Thới Sơn",
        "all_routes": "23, 62-5, 78, 85",
        "marker_color": "#9C27B0"
      }
    },
    {
      "type": "Feature",
      "geometry": {
        "type": "Point",
        "coordinates": [
          106.54673,
          10.870006
        ]
      },
      "properties": {
        "feature_type": "bus_stop",
        "stop_id": 3949,
        "stop_code": "HHM 067",
        "stop_name": "Thái Sơn",
        "stop_type": "Trụ dừng",
        "route_no": "85",
        "display_code": "B 85",
        "direction": "Lượt đi",
        "address": "48B Nguyễn Văn Bứa",
        "street": "Nguyễn Văn Bứa",
        "zone": "Huyện Hóc Môn",
        "ward": "Xã Xuân Thới Sơn",
        "all_routes": "23, 62-5, 78, 85",
        "marker_color": "#9C27B0"
      }
    },
    {
      "type": "Feature",
      "geometry": {
        "type": "Point",
        "coordinates": [
          106.541677,
          10.870702
        ]
      },
      "properties": {
        "feature_type": "bus_stop",
        "stop_id": 3939,
        "stop_code": "HHM 068",
        "stop_name": "Lò Muối",
        "stop_type": "Trụ dừng",
        "route_no": "85",
        "display_code": "B 85",
        "direction": "Lượt đi",
        "address": "24B1 (23B) Nguyễn Văn Bứa",
        "street": "Nguyễn Văn Bứa",
        "zone": "Huyện Hóc Môn",
        "ward": "Xã Xuân Thới Sơn",
        "all_routes": "23, 62-5, 78, 85",
        "marker_color": "#9C27B0"
      }
    },
    {
      "type": "Feature",
      "geometry": {
        "type": "Point",
        "coordinates": [
          106.538576,
          10.871223
        ]
      },
      "properties": {
        "feature_type": "bus_stop",
        "stop_id": 2265,
        "stop_code": "HHM 069",
        "stop_name": "trường tiểu học Nhị Xuân",
        "stop_type": "Trụ dừng",
        "route_no": "85",
        "display_code": "B 85",
        "direction": "Lượt đi",
        "address": "8B Nguyễn Văn Bứa",
        "street": "Nguyễn Văn Bứa",
        "zone": "Huyện Hóc Môn",
        "ward": "Xã Xuân Thới Sơn",
        "all_routes": "23, 62-5, 78, 85",
        "marker_color": "#9C27B0"
      }
    },
    {
      "type": "Feature",
      "geometry": {
        "type": "Point",
        "coordinates": [
          106.535561,
          10.871845
        ]
      },
      "properties": {
        "feature_type": "bus_stop",
        "stop_id": 2227,
        "stop_code": "BX 39",
        "stop_name": "Bến xe buýt Cầu Lớn",
        "stop_type": "Bến xe",
        "route_no": "85",
        "display_code": "B 85",
        "direction": "Lượt đi",
        "address": "BẾN XE BUÝT CẦU LỚN Nguyễn Văn Bứa",
        "street": "Nguyễn Văn Bứa",
        "zone": "Huyện Hóc Môn",
        "ward": "Xã Xuân Thới Sơn",
        "all_routes": "23, 62-5, 78, 85",
        "marker_color": "#9C27B0"
      }
    },
    {
      "type": "Feature",
      "geometry": {
        "type": "Point",
        "coordinates": [
          106.536543,
          10.871508
        ]
      },
      "properties": {
        "feature_type": "bus_stop",
        "stop_id": 7711,
        "stop_code": "HHM 244",
        "stop_name": "Truường THCS Nguyễn Văn Bứa",
        "stop_type": "Nhà chờ",
        "route_no": "85",
        "display_code": "B 85",
        "direction": "Lượt về",
        "address": "1139 Nguyễn Văn Bứa",
        "street": "Nguyễn Văn Bứa",
        "zone": "Huyện Hóc Môn",
        "ward": "Xã Xuân Thới Thượng",
        "all_routes": "23, 85",
        "marker_color": "#9C27B0"
      }
    },
    {
      "type": "Feature",
      "geometry": {
        "type": "Point",
        "coordinates": [
          106.538174,
          10.871176
        ]
      },
      "properties": {
        "feature_type": "bus_stop",
        "stop_id": 3967,
        "stop_code": "HHM 072",
        "stop_name": "Trường Nhị Xuân",
        "stop_type": "Trụ dừng",
        "route_no": "85",
        "display_code": "B 85",
        "direction": "Lượt về",
        "address": "Đối diện trường Nhị Xuân (9B) Nguyễn Văn Bứa",
        "street": "Nguyễn Văn Bứa",
        "zone": "Huyện Hóc Môn",
        "ward": "Xã Xuân Thới Thượng",
        "all_routes": "23, 62-5, 78, 85",
        "marker_color": "#9C27B0"
      }
    },
    {
      "type": "Feature",
      "geometry": {
        "type": "Point",
        "coordinates": [
          106.542106,
          10.870501
        ]
      },
      "properties": {
        "feature_type": "bus_stop",
        "stop_id": 2225,
        "stop_code": "HHM 073",
        "stop_name": "Trạm lò muối",
        "stop_type": "Trụ dừng",
        "route_no": "85",
        "display_code": "B 85",
        "direction": "Lượt về",
        "address": "23 - 25 Nguyễn Văn Bứa",
        "street": "Nguyễn Văn Bứa",
        "zone": "Huyện Hóc Môn",
        "ward": "Xã Xuân Thới Thượng",
        "all_routes": "23, 62-5, 78, 85",
        "marker_color": "#9C27B0"
      }
    },
    {
      "type": "Feature",
      "geometry": {
        "type": "Point",
        "coordinates": [
          106.546204,
          10.869911
        ]
      },
      "properties": {
        "feature_type": "bus_stop",
        "stop_id": 2223,
        "stop_code": "HHM 074",
        "stop_name": "Thái Sơn",
        "stop_type": "Trụ dừng",
        "route_no": "85",
        "display_code": "B 85",
        "direction": "Lượt về",
        "address": "43A Nguyễn Văn Bứa",
        "street": "Nguyễn Văn Bứa",
        "zone": "Huyện Hóc Môn",
        "ward": "Xã Xuân Thới Thượng",
        "all_routes": "23, 62-5, 78, 85",
        "marker_color": "#9C27B0"
      }
    },
    {
      "type": "Feature",
      "geometry": {
        "type": "Point",
        "coordinates": [
          106.551011,
          10.869195
        ]
      },
      "properties": {
        "feature_type": "bus_stop",
        "stop_id": 2267,
        "stop_code": "HHM 075",
        "stop_name": "Trường Nguyễn Văn Cừ",
        "stop_type": "Nhà chờ",
        "route_no": "85",
        "display_code": "B 85",
        "direction": "Lượt về",
        "address": "100A Nguyễn Văn Bứa",
        "street": "Nguyễn Văn Bứa",
        "zone": "Huyện Hóc Môn",
        "ward": "Xã Xuân Thới Thượng",
        "all_routes": "23, 62-5, 78, 85",
        "marker_color": "#9C27B0"
      }
    },
    {
      "type": "Feature",
      "geometry": {
        "type": "Point",
        "coordinates": [
          106.55924,
          10.868647
        ]
      },
      "properties": {
        "feature_type": "bus_stop",
        "stop_id": 3964,
        "stop_code": "HHM 076",
        "stop_name": "Ngã 3 Giồng",
        "stop_type": "Trụ dừng",
        "route_no": "85",
        "display_code": "B 85",
        "direction": "Lượt về",
        "address": "Ngã ba Giồng Nguyễn Văn Bứa",
        "street": "Nguyễn Văn Bứa",
        "zone": "Huyện Hóc Môn",
        "ward": "Xã Xuân Thới Thượng",
        "all_routes": "62-5, 78, 85",
        "marker_color": "#9C27B0"
      }
    },
    {
      "type": "Feature",
      "geometry": {
        "type": "Point",
        "coordinates": [
          106.564593,
          10.870844
        ]
      },
      "properties": {
        "feature_type": "bus_stop",
        "stop_id": 3944,
        "stop_code": "HHM 077",
        "stop_name": "Dương Công Khi",
        "stop_type": "Trụ dừng",
        "route_no": "85",
        "display_code": "B 85",
        "direction": "Lượt về",
        "address": "kế 131/6 (17/2B) Nguyễn Văn Bứa",
        "street": "Nguyễn Văn Bứa",
        "zone": "Huyện Hóc Môn",
        "ward": "Xã Xuân Thới Thượng",
        "all_routes": "62-5, 85",
        "marker_color": "#9C27B0"
      }
    },
    {
      "type": "Feature",
      "geometry": {
        "type": "Point",
        "coordinates": [
          106.56977,
          10.872319
        ]
      },
      "properties": {
        "feature_type": "bus_stop",
        "stop_id": 2274,
        "stop_code": "HHM 078",
        "stop_name": "Sân Banh",
        "stop_type": "Trụ dừng",
        "route_no": "85",
        "display_code": "B 85",
        "direction": "Lượt về",
        "address": "đối diện 35A (đối diện 34A) Nguyễn Văn Bứa",
        "street": "Nguyễn Văn Bứa",
        "zone": "Huyện Hóc Môn",
        "ward": "Xã Xuân Thới Sơn",
        "all_routes": "62-5, 85",
        "marker_color": "#9C27B0"
      }
    },
    {
      "type": "Feature",
      "geometry": {
        "type": "Point",
        "coordinates": [
          106.574062,
          10.874026
        ]
      },
      "properties": {
        "feature_type": "bus_stop",
        "stop_id": 3956,
        "stop_code": "HHM 079",
        "stop_name": "Công ty cáp Vĩnh Thịnh",
        "stop_type": "Trụ dừng",
        "route_no": "85",
        "display_code": "B 85",
        "direction": "Lượt về",
        "address": "17/2 (18/1) Nguyễn Văn Bứa",
        "street": "Nguyễn Văn Bứa",
        "zone": "Huyện Hóc Môn",
        "ward": "Xã Xuân Thới Sơn",
        "all_routes": "62-5, 85",
        "marker_color": "#9C27B0"
      }
    },
    {
      "type": "Feature",
      "geometry": {
        "type": "Point",
        "coordinates": [
          106.581266,
          10.878925
        ]
      },
      "properties": {
        "feature_type": "bus_stop",
        "stop_id": 3940,
        "stop_code": "HHM 080",
        "stop_name": "Nguyễn Thị Thử",
        "stop_type": "Trụ dừng",
        "route_no": "85",
        "display_code": "B 85",
        "direction": "Lượt về",
        "address": "2/2-2/4 Nguyễn Văn Bứa",
        "street": "Nguyễn Văn Bứa",
        "zone": "Huyện Hóc Môn",
        "ward": "Xã Xuân Thới Đông",
        "all_routes": "62-5, 85",
        "marker_color": "#9C27B0"
      }
    },
    {
      "type": "Feature",
      "geometry": {
        "type": "Point",
        "coordinates": [
          106.583133,
          10.881317
        ]
      },
      "properties": {
        "feature_type": "bus_stop",
        "stop_id": 3943,
        "stop_code": "HHM 081",
        "stop_name": "Chợ Xuân Thới Sơn",
        "stop_type": "Ô sơn",
        "route_no": "85",
        "display_code": "B 85",
        "direction": "Lượt về",
        "address": "36/5C Nguyễn Văn Bứa",
        "street": "Nguyễn Văn Bứa",
        "zone": "Huyện Hóc Môn",
        "ward": "Xã Xuân Thới Sơn",
        "all_routes": "62-5, 85",
        "marker_color": "#9C27B0"
      }
    },
    {
      "type": "Feature",
      "geometry": {
        "type": "Point",
        "coordinates": [
          106.586416,
          10.883508
        ]
      },
      "properties": {
        "feature_type": "bus_stop",
        "stop_id": 3952,
        "stop_code": "HHM 082",
        "stop_name": "Ngã tư Hóc Môn",
        "stop_type": "Trụ dừng",
        "route_no": "85",
        "display_code": "B 85",
        "direction": "Lượt về",
        "address": "đối diện 116/2 (9A) Nguyễn Văn Bứa",
        "street": "Nguyễn Văn Bứa",
        "zone": "Huyện Hóc Môn",
        "ward": "Xã Xuân Thới Sơn",
        "all_routes": "62-5, 85",
        "marker_color": "#9C27B0"
      }
    },
    {
      "type": "Feature",
      "geometry": {
        "type": "Point",
        "coordinates": [
          106.5878,
          10.884794
        ]
      },
      "properties": {
        "feature_type": "bus_stop",
        "stop_id": 2329,
        "stop_code": "HHM 161",
        "stop_name": "Ngã tư Hóc Môn",
        "stop_type": "Trụ dừng",
        "route_no": "85",
        "display_code": "B 85",
        "direction": "Lượt về",
        "address": "2/18B Lý Thường Kiệt ",
        "street": "Lý Thường Kiệt ",
        "zone": "Huyện Hóc Môn",
        "ward": "Thị trấn Hóc Môn",
        "all_routes": "24, 62-5, 85",
        "marker_color": "#9C27B0"
      }
    },
    {
      "type": "Feature",
      "geometry": {
        "type": "Point",
        "coordinates": [
          106.590691,
          10.886938
        ]
      },
      "properties": {
        "feature_type": "bus_stop",
        "stop_id": 2330,
        "stop_code": "HHM 162",
        "stop_name": "Ngân hàng BIDV",
        "stop_type": "Trụ dừng",
        "route_no": "85",
        "display_code": "B 85",
        "direction": "Lượt về",
        "address": "10/6A Lý Thường Kiệt ",
        "street": "Lý Thường Kiệt ",
        "zone": "Huyện Hóc Môn",
        "ward": "Thị trấn Hóc Môn",
        "all_routes": "24, 62-5, 85",
        "marker_color": "#9C27B0"
      }
    },
    {
      "type": "Feature",
      "geometry": {
        "type": "Point",
        "coordinates": [
          106.593808,
          10.888007
        ]
      },
      "properties": {
        "feature_type": "bus_stop",
        "stop_id": 2331,
        "stop_code": "HHM 163",
        "stop_name": "Ngân hàng Nông Nghiệp",
        "stop_type": "Trụ dừng",
        "route_no": "85",
        "display_code": "B 85",
        "direction": "Lượt về",
        "address": "39/1 Lý Thường Kiệt ",
        "street": "Lý Thường Kiệt ",
        "zone": "Huyện Hóc Môn",
        "ward": "Thị trấn Hóc Môn",
        "all_routes": "24, 62-5, 85",
        "marker_color": "#9C27B0"
      }
    },
    {
      "type": "Feature",
      "geometry": {
        "type": "Point",
        "coordinates": [
          106.598083,
          10.887649
        ]
      },
      "properties": {
        "feature_type": "bus_stop",
        "stop_id": 8127,
        "stop_code": "HHM TT 009",
        "stop_name": "Giao lộ Lê Thị Hà-Quang Trung",
        "stop_type": "Trạm tạm",
        "route_no": "85",
        "display_code": "B 85",
        "direction": "Lượt về",
        "address": "5/14 Lê Thị Hà",
        "street": "Lê Thị Hà",
        "zone": "Huyện Hóc Môn",
        "ward": "Xã Tân Xuân",
        "all_routes": "122, 85",
        "marker_color": "#9C27B0"
      }
    },
    {
      "type": "Feature",
      "geometry": {
        "type": "Point",
        "coordinates": [
          106.598679,
          10.882112
        ]
      },
      "properties": {
        "feature_type": "bus_stop",
        "stop_id": 8128,
        "stop_code": "HHM TT 007",
        "stop_name": "Ấp Đình",
        "stop_type": "Trạm tạm",
        "route_no": "85",
        "display_code": "B 85",
        "direction": "Lượt về",
        "address": "269 Lê Thị Hà",
        "street": "Lê Thị Hà",
        "zone": "Huyện Hóc Môn",
        "ward": "Xã Tân Xuân",
        "all_routes": "122, 85",
        "marker_color": "#9C27B0"
      }
    },
    {
      "type": "Feature",
      "geometry": {
        "type": "Point",
        "coordinates": [
          106.59928,
          10.87893
        ]
      },
      "properties": {
        "feature_type": "bus_stop",
        "stop_id": 8130,
        "stop_code": "HHM TT 005",
        "stop_name": "Đường Tân Xuân 1",
        "stop_type": "Trạm tạm",
        "route_no": "85",
        "display_code": "B 85",
        "direction": "Lượt về",
        "address": "1/101B Lê Thị Hà",
        "street": "Lê Thị Hà",
        "zone": "Huyện Hóc Môn",
        "ward": "Xã Tân Xuân",
        "all_routes": "122, 85",
        "marker_color": "#9C27B0"
      }
    },
    {
      "type": "Feature",
      "geometry": {
        "type": "Point",
        "coordinates": [
          106.598695,
          10.875538
        ]
      },
      "properties": {
        "feature_type": "bus_stop",
        "stop_id": 8132,
        "stop_code": "HHM TT 003",
        "stop_name": "Nguyễn Thị Ai",
        "stop_type": "Trạm tạm",
        "route_no": "85",
        "display_code": "B 85",
        "direction": "Lượt về",
        "address": "133 Lê Thị Hà",
        "street": "Lê Thị Hà",
        "zone": "Huyện Hóc Môn",
        "ward": "Xã Tân Xuân",
        "all_routes": "122, 85",
        "marker_color": "#9C27B0"
      }
    },
    {
      "type": "Feature",
      "geometry": {
        "type": "Point",
        "coordinates": [
          106.597155,
          10.871529
        ]
      },
      "properties": {
        "feature_type": "bus_stop",
        "stop_id": 8134,
        "stop_code": "HHM TT 001",
        "stop_name": "Quốc lộ 22",
        "stop_type": "Trạm tạm",
        "route_no": "85",
        "display_code": "B 85",
        "direction": "Lượt về",
        "address": "cạnh 47 Lê Thị Hà",
        "street": "Lê Thị Hà",
        "zone": "Huyện Hóc Môn",
        "ward": "Xã Tân Xuân",
        "all_routes": "122, 85",
        "marker_color": "#9C27B0"
      }
    },
    {
      "type": "Feature",
      "geometry": {
        "type": "Point",
        "coordinates": [
          106.596758,
          10.869954
        ]
      },
      "properties": {
        "feature_type": "bus_stop",
        "stop_id": 1231,
        "stop_code": "HHM 050",
        "stop_name": "Ngã 3 Bùi Môn",
        "stop_type": "Trụ dừng",
        "route_no": "85",
        "display_code": "B 85",
        "direction": "Lượt về",
        "address": "58/5 Quốc lộ 22",
        "street": "Quốc lộ 22",
        "zone": "Huyện Hóc Môn",
        "ward": "Xã Xuân Thới Đông",
        "all_routes": "122, 13, 62-5, 74, 85, 94",
        "marker_color": "#9C27B0"
      }
    },
    {
      "type": "Feature",
      "geometry": {
        "type": "Point",
        "coordinates": [
          106.598904,
          10.866919
        ]
      },
      "properties": {
        "feature_type": "bus_stop",
        "stop_id": 1235,
        "stop_code": "HHM 051",
        "stop_name": "Trường học Tân Xuân",
        "stop_type": "Trụ dừng",
        "route_no": "85",
        "display_code": "B 85",
        "direction": "Lượt về",
        "address": "1/4 Quốc lộ 22",
        "street": "Quốc lộ 22",
        "zone": "Huyện Hóc Môn",
        "ward": "Xã Tân Xuân",
        "all_routes": "122, 13, 62-5, 74, 85, 94",
        "marker_color": "#9C27B0"
      }
    },
    {
      "type": "Feature",
      "geometry": {
        "type": "Point",
        "coordinates": [
          106.601978,
          10.862546
        ]
      },
      "properties": {
        "feature_type": "bus_stop",
        "stop_id": 1233,
        "stop_code": "HHM 052",
        "stop_name": "Ngân Hàng Aribank",
        "stop_type": "Nhà chờ",
        "route_no": "85",
        "display_code": "B 85",
        "direction": "Lượt về",
        "address": "5/1 (gần đường Nguyễn Thị Sóc) Quốc lộ 22",
        "street": "Quốc lộ 22",
        "zone": "Huyện Hóc Môn",
        "ward": "Xã Trung Chánh",
        "all_routes": "122, 13, 62-5, 74, 85, 94",
        "marker_color": "#9C27B0"
      }
    },
    {
      "type": "Feature",
      "geometry": {
        "type": "Point",
        "coordinates": [
          106.603324,
          10.860602
        ]
      },
      "properties": {
        "feature_type": "bus_stop",
        "stop_id": 1234,
        "stop_code": "HHM 053",
        "stop_name": "Ngã 3 Củ Cải",
        "stop_type": "Nhà chờ",
        "route_no": "85",
        "display_code": "B 85",
        "direction": "Lượt về",
        "address": "43/1 (kế 33/5A), 7/2A Quốc lộ 22",
        "street": "Quốc lộ 22",
        "zone": "Huyện Hóc Môn",
        "ward": "Xã Xuân Thới Đông",
        "all_routes": "122, 13, 62-5, 71, 74, 85, 94",
        "marker_color": "#9C27B0"
      }
    },
    {
      "type": "Feature",
      "geometry": {
        "type": "Point",
        "coordinates": [
          106.606178,
          10.85662
        ]
      },
      "properties": {
        "feature_type": "bus_stop",
        "stop_id": 3635,
        "stop_code": "HHM 055",
        "stop_name": "Chùa Linh Sơn",
        "stop_type": "Trụ dừng",
        "route_no": "85",
        "display_code": "B 85",
        "direction": "Lượt về",
        "address": "G68A Quốc lộ 22",
        "street": "Quốc lộ 22",
        "zone": "Huyện Hóc Môn",
        "ward": null,
        "all_routes": "122, 13, 62-5, 71, 74, 85, 94",
        "marker_color": "#9C27B0"
      }
    },
    {
      "type": "Feature",
      "geometry": {
        "type": "Point",
        "coordinates": [
          106.608152,
          10.853595
        ]
      },
      "properties": {
        "feature_type": "bus_stop",
        "stop_id": 1393,
        "stop_code": "HHM 056",
        "stop_name": "Ngã tư Trung Chánh",
        "stop_type": "Nhà chờ",
        "route_no": "85",
        "display_code": "B 85",
        "direction": "Lượt về",
        "address": "30/10B (kế 30) Quốc lộ 22",
        "street": "Quốc lộ 22",
        "zone": "Huyện Hóc Môn",
        "ward": "Xã Trung Chánh",
        "all_routes": "122, 13, 145, 62-5, 71, 74, 85, 94",
        "marker_color": "#9C27B0"
      }
    },
    {
      "type": "Feature",
      "geometry": {
        "type": "Point",
        "coordinates": [
          106.610641,
          10.849713
        ]
      },
      "properties": {
        "feature_type": "bus_stop",
        "stop_id": 1238,
        "stop_code": "HHM 057",
        "stop_name": "Cư xá Bà Điểm",
        "stop_type": "Nhà chờ",
        "route_no": "85",
        "display_code": "B 85",
        "direction": "Lượt về",
        "address": "3A Quốc lộ 22",
        "street": "Quốc lộ 22",
        "zone": "Huyện Hóc Môn",
        "ward": "Xã Bà Điểm",
        "all_routes": "122, 13, 145, 62-5, 71, 74, 85, 94",
        "marker_color": "#9C27B0"
      }
    },
    {
      "type": "Feature",
      "geometry": {
        "type": "Point",
        "coordinates": [
          106.613522,
          10.845187
        ]
      },
      "properties": {
        "feature_type": "bus_stop",
        "stop_id": 1239,
        "stop_code": "HHM 058",
        "stop_name": "Bến xe An Sương",
        "stop_type": "Trụ dừng",
        "route_no": "85",
        "display_code": "B 85",
        "direction": "Lượt về",
        "address": "1B Quốc lộ 22",
        "street": "Quốc lộ 22",
        "zone": "Huyện Hóc Môn",
        "ward": "Xã Bà Điểm",
        "all_routes": "04, 104, 122, 13, 145, 151, 33, 41, 61-3, 62-5, 65, 71, 74, 85, 94",
        "marker_color": "#9C27B0"
      }
    }
  ]
}