{
  "type": "FeatureCollection",
  "properties": {
    "stt": 5,
    "route_no": "27",
    "display_code": "B 27",
    "route_name": "Bến xe buýt Sài Gòn - Âu Cơ - Bến xe An Sương",
    "start_point": "Bến xe buýt Sài Gòn",
    "end_point": "Bến xe An Sương",
    "listed_length_km": 15,
    "operating_hours": "5:00 - 20:00",
    "color": "#3949AB",
    "num_variants": 2,
    "total_stops": 80,
    "total_points": 565
  },
  "features": [
    {
      "type": "Feature",
      "geometry": {
        "type": "LineString",
        "coordinates": [
          [
            106.68936157,
            10.76767635
          ],
          [
            106.68936157,
            10.76767635
          ],
          [
            106.68959808,
            10.76717472
          ],
          [
            106.69006348,
            10.76735687
          ],
          [
            106.69052124,
            10.76753902
          ],
          [
            106.69021606,
            10.76800251
          ],
          [
            106.68992615,
            10.76847172
          ],
          [
            106.68945313,
            10.76829243
          ],
          [
            106.68894196,
            10.76808643
          ],
          [
            106.688591,
            10.76769161
          ],
          [
            106.688591,
            10.76769161
          ],
          [
            106.688591,
            10.76769161
          ],
          [
            106.68840027,
            10.76723862
          ],
          [
            106.6882019,
            10.7667799
          ],
          [
            106.68778992,
            10.76694298
          ],
          [
            106.68778992,
            10.76694298
          ],
          [
            106.68694305,
            10.76731205
          ],
          [
            106.68608856,
            10.76768112
          ],
          [
            106.68525696,
            10.76805782
          ],
          [
            106.68442535,
            10.76843452
          ],
          [
            106.6840744,
            10.76805019
          ],
          [
            106.68372345,
            10.76766491
          ],
          [
            106.68365479,
            10.76772308
          ],
          [
            106.68365479,
            10.76772308
          ],
          [
            106.68370819,
            10.76766491
          ],
          [
            106.68308258,
            10.76699066
          ],
          [
            106.6824646,
            10.76631641
          ],
          [
            106.68238068,
            10.76639462
          ],
          [
            106.68238068,
            10.76639462
          ],
          [
            106.6824646,
            10.7663269
          ],
          [
            106.68214417,
            10.76600266
          ],
          [
            106.6818161,
            10.76567841
          ],
          [
            106.68159485,
            10.76570511
          ],
          [
            106.681427,
            10.76556778
          ],
          [
            106.68087769,
            10.76573658
          ],
          [
            106.680336,
            10.76590538
          ],
          [
            106.68036652,
            10.7659626
          ],
          [
            106.68036652,
            10.7659626
          ],
          [
            106.68034363,
            10.76589966
          ],
          [
            106.67920685,
            10.76624775
          ],
          [
            106.67807007,
            10.76659584
          ],
          [
            106.67810059,
            10.76667976
          ],
          [
            106.67810059,
            10.76667976
          ],
          [
            106.6780777,
            10.76659584
          ],
          [
            106.67686462,
            10.76697445
          ],
          [
            106.67563629,
            10.7673645
          ],
          [
            106.67566681,
            10.76742268
          ],
          [
            106.67566681,
            10.76742268
          ],
          [
            106.67564392,
            10.7673645
          ],
          [
            106.67514801,
            10.76751995
          ],
          [
            106.6746521,
            10.7676754
          ],
          [
            106.67449951,
            10.76790714
          ],
          [
            106.67424774,
            10.76790237
          ],
          [
            106.67404938,
            10.7677393
          ],
          [
            106.67355347,
            10.76776791
          ],
          [
            106.67304993,
            10.76779652
          ],
          [
            106.67304993,
            10.76786518
          ],
          [
            106.67304993,
            10.76786518
          ],
          [
            106.67304993,
            10.76778603
          ],
          [
            106.67222595,
            10.76782608
          ],
          [
            106.67139435,
            10.76786518
          ],
          [
            106.67056274,
            10.76790524
          ],
          [
            106.66973877,
            10.76794434
          ],
          [
            106.66973877,
            10.76802921
          ],
          [
            106.66973877,
            10.76802921
          ],
          [
            106.66973877,
            10.76794434
          ],
          [
            106.66898346,
            10.76798153
          ],
          [
            106.66822815,
            10.76802349
          ],
          [
            106.66783905,
            10.76815033
          ],
          [
            106.66668701,
            10.76752281
          ],
          [
            106.66551971,
            10.76690102
          ],
          [
            106.66459656,
            10.76637936
          ],
          [
            106.66366577,
            10.7658577
          ],
          [
            106.66272736,
            10.76536465
          ],
          [
            106.66178894,
            10.76487255
          ],
          [
            106.66174316,
            10.76497173
          ],
          [
            106.66174316,
            10.76497173
          ],
          [
            106.6618042,
            10.76487255
          ],
          [
            106.66096497,
            10.76441765
          ],
          [
            106.66012573,
            10.76396275
          ],
          [
            106.6592865,
            10.7635088
          ],
          [
            106.65844727,
            10.76305389
          ],
          [
            106.65840912,
            10.76311493
          ],
          [
            106.65840912,
            10.76311493
          ],
          [
            106.65844727,
            10.76307011
          ],
          [
            106.65795135,
            10.76280594
          ],
          [
            106.65746307,
            10.76254272
          ],
          [
            106.65686035,
            10.76265907
          ],
          [
            106.6565094,
            10.76313782
          ],
          [
            106.65616608,
            10.76361752
          ],
          [
            106.65621948,
            10.76365471
          ],
          [
            106.65621948,
            10.76365471
          ],
          [
            106.65615082,
            10.76362801
          ],
          [
            106.65581512,
            10.76410294
          ],
          [
            106.65547943,
            10.76457691
          ],
          [
            106.65513611,
            10.76505375
          ],
          [
            106.65480042,
            10.76553059
          ],
          [
            106.65484619,
            10.76556206
          ],
          [
            106.65484619,
            10.76556206
          ],
          [
            106.65480042,
            10.76553059
          ],
          [
            106.65416718,
            10.76641369
          ],
          [
            106.65354156,
            10.76729584
          ],
          [
            106.65361786,
            10.76734447
          ],
          [
            106.65361786,
            10.76734447
          ],
          [
            106.65361786,
            10.76734447
          ],
          [
            106.65361786,
            10.76734447
          ],
          [
            106.65361786,
            10.76734447
          ],
          [
            106.65351868,
            10.76731205
          ],
          [
            106.65318298,
            10.7678709
          ],
          [
            106.65284729,
            10.76842976
          ],
          [
            106.6529007,
            10.768466
          ],
          [
            106.6529007,
            10.768466
          ],
          [
            106.6529007,
            10.768466
          ],
          [
            106.6529007,
            10.768466
          ],
          [
            106.65283203,
            10.76844025
          ],
          [
            106.65245056,
            10.76906204
          ],
          [
            106.65197754,
            10.76915169
          ],
          [
            106.65154266,
            10.76960945
          ],
          [
            106.65159607,
            10.76964664
          ],
          [
            106.65159607,
            10.76964664
          ],
          [
            106.65154266,
            10.76960945
          ],
          [
            106.65110779,
            10.77019787
          ],
          [
            106.65067291,
            10.77078533
          ],
          [
            106.65029144,
            10.7713623
          ],
          [
            106.64990997,
            10.77193928
          ],
          [
            106.65000153,
            10.77199173
          ],
          [
            106.65000153,
            10.77199173
          ],
          [
            106.6499176,
            10.77193928
          ],
          [
            106.6495285,
            10.7725687
          ],
          [
            106.64914703,
            10.77319813
          ],
          [
            106.64875793,
            10.77378654
          ],
          [
            106.64837646,
            10.77437401
          ],
          [
            106.64842224,
            10.77439976
          ],
          [
            106.64842224,
            10.77439976
          ],
          [
            106.64836884,
            10.77436352
          ],
          [
            106.6477356,
            10.77523232
          ],
          [
            106.64709473,
            10.77607632
          ],
          [
            106.64716339,
            10.77611256
          ],
          [
            106.64716339,
            10.77611256
          ],
          [
            106.64709473,
            10.7760601
          ],
          [
            106.64624786,
            10.77721977
          ],
          [
            106.64546967,
            10.77833652
          ],
          [
            106.64552307,
            10.778368
          ],
          [
            106.64552307,
            10.778368
          ],
          [
            106.64546967,
            10.77832603
          ],
          [
            106.64502716,
            10.77899647
          ],
          [
            106.64458466,
            10.7796669
          ],
          [
            106.64411926,
            10.78031635
          ],
          [
            106.6436615,
            10.78096676
          ],
          [
            106.64370728,
            10.78098679
          ],
          [
            106.64370728,
            10.78098679
          ],
          [
            106.6436615,
            10.78096104
          ],
          [
            106.64335632,
            10.7814455
          ],
          [
            106.6431427,
            10.78195667
          ],
          [
            106.64290619,
            10.78246784
          ],
          [
            106.64271545,
            10.78297424
          ],
          [
            106.64278412,
            10.78299046
          ],
          [
            106.64278412,
            10.78299046
          ],
          [
            106.64272308,
            10.78296852
          ],
          [
            106.64253998,
            10.78356934
          ],
          [
            106.6423645,
            10.78417015
          ],
          [
            106.64215088,
            10.78474426
          ],
          [
            106.64193726,
            10.78531933
          ],
          [
            106.64199066,
            10.78533459
          ],
          [
            106.64199066,
            10.78533459
          ],
          [
            106.64192963,
            10.78530884
          ],
          [
            106.64172363,
            10.7858696
          ],
          [
            106.64151001,
            10.78643131
          ],
          [
            106.64113617,
            10.78728485
          ],
          [
            106.64118195,
            10.78728962
          ],
          [
            106.64118195,
            10.78728962
          ],
          [
            106.64113617,
            10.78727913
          ],
          [
            106.64089966,
            10.78803539
          ],
          [
            106.64066315,
            10.78879166
          ],
          [
            106.64041138,
            10.78953457
          ],
          [
            106.64015961,
            10.79027748
          ],
          [
            106.64022064,
            10.79029369
          ],
          [
            106.64022064,
            10.79029369
          ],
          [
            106.64022064,
            10.79029369
          ],
          [
            106.64015198,
            10.79027271
          ],
          [
            106.63983917,
            10.7911911
          ],
          [
            106.639534,
            10.79210854
          ],
          [
            106.63922119,
            10.79302692
          ],
          [
            106.63890839,
            10.79394531
          ],
          [
            106.63898468,
            10.79397202
          ],
          [
            106.63898468,
            10.79397202
          ],
          [
            106.63898468,
            10.79397202
          ],
          [
            106.63890839,
            10.79395103
          ],
          [
            106.63859558,
            10.79496193
          ],
          [
            106.63828278,
            10.79598427
          ],
          [
            106.63835144,
            10.79599953
          ],
          [
            106.63835144,
            10.79599953
          ],
          [
            106.63827515,
            10.79598427
          ],
          [
            106.63790131,
            10.79734898
          ],
          [
            106.63751984,
            10.79870415
          ],
          [
            106.63757324,
            10.79870892
          ],
          [
            106.63757324,
            10.79870892
          ],
          [
            106.63751984,
            10.79869843
          ],
          [
            106.63726044,
            10.79968071
          ],
          [
            106.63699341,
            10.80066395
          ],
          [
            106.63704681,
            10.80067444
          ],
          [
            106.63704681,
            10.80067444
          ],
          [
            106.63704681,
            10.80067444
          ],
          [
            106.63697815,
            10.80065823
          ],
          [
            106.63671112,
            10.80163383
          ],
          [
            106.63668823,
            10.80190754
          ],
          [
            106.63634491,
            10.80246639
          ],
          [
            106.6361084,
            10.80295563
          ],
          [
            106.63581848,
            10.80384159
          ],
          [
            106.63555908,
            10.8047266
          ],
          [
            106.63562775,
            10.80473232
          ],
          [
            106.63562775,
            10.80473232
          ],
          [
            106.63562775,
            10.80473232
          ],
          [
            106.63555145,
            10.80471611
          ],
          [
            106.6353302,
            10.80545139
          ],
          [
            106.63510895,
            10.80618572
          ],
          [
            106.63518524,
            10.80620193
          ],
          [
            106.63518524,
            10.80620193
          ],
          [
            106.63511658,
            10.80618095
          ],
          [
            106.6349411,
            10.80672932
          ],
          [
            106.63486481,
            10.80726147
          ],
          [
            106.63486481,
            10.80756664
          ],
          [
            106.63455963,
            10.80828857
          ],
          [
            106.63463593,
            10.80831432
          ],
          [
            106.63463593,
            10.80831432
          ],
          [
            106.63463593,
            10.80831432
          ],
          [
            106.63453674,
            10.80828857
          ],
          [
            106.63423157,
            10.80925274
          ],
          [
            106.63395691,
            10.81023788
          ],
          [
            106.63365173,
            10.81122112
          ],
          [
            106.63334656,
            10.81220436
          ],
          [
            106.63334656,
            10.81220436
          ],
          [
            106.63334656,
            10.81220436
          ],
          [
            106.63334656,
            10.81220436
          ],
          [
            106.63284302,
            10.81374741
          ],
          [
            106.63240051,
            10.81526852
          ],
          [
            106.63193512,
            10.81680012
          ],
          [
            106.6314621,
            10.81833172
          ],
          [
            106.6314621,
            10.81833172
          ],
          [
            106.6314621,
            10.81833172
          ],
          [
            106.6314621,
            10.81833172
          ],
          [
            106.63121033,
            10.81916523
          ],
          [
            106.63095856,
            10.81999969
          ],
          [
            106.63070679,
            10.82083321
          ],
          [
            106.63045502,
            10.82166672
          ],
          [
            106.6301651,
            10.82242012
          ],
          [
            106.63025665,
            10.82245159
          ],
          [
            106.63025665,
            10.82245159
          ],
          [
            106.63025665,
            10.82245159
          ],
          [
            106.63014984,
            10.82243061
          ],
          [
            106.62980652,
            10.82309532
          ],
          [
            106.6292572,
            10.82365322
          ],
          [
            106.62804413,
            10.82470703
          ],
          [
            106.62689209,
            10.82580853
          ],
          [
            106.62574005,
            10.82691002
          ],
          [
            106.6258316,
            10.82695675
          ],
          [
            106.6258316,
            10.82695675
          ],
          [
            106.62575531,
            10.82691002
          ],
          [
            106.62539673,
            10.82731533
          ],
          [
            106.62508392,
            10.82772064
          ],
          [
            106.62480164,
            10.82815266
          ],
          [
            106.62451935,
            10.82858467
          ],
          [
            106.62459564,
            10.82862663
          ],
          [
            106.62459564,
            10.82862663
          ],
          [
            106.62448883,
            10.8285799
          ],
          [
            106.62399292,
            10.82936001
          ],
          [
            106.62349701,
            10.83013916
          ],
          [
            106.6230011,
            10.83090878
          ],
          [
            106.62250519,
            10.83167839
          ],
          [
            106.62201691,
            10.83244228
          ],
          [
            106.621521,
            10.83320618
          ],
          [
            106.62102509,
            10.83397007
          ],
          [
            106.62052917,
            10.83473396
          ],
          [
            106.6206131,
            10.83478069
          ],
          [
            106.6206131,
            10.83478069
          ],
          [
            106.62052155,
            10.83473873
          ],
          [
            106.61995697,
            10.83561897
          ],
          [
            106.61940002,
            10.83649921
          ],
          [
            106.61885071,
            10.83733177
          ],
          [
            106.61830139,
            10.8381691
          ],
          [
            106.61840057,
            10.83822155
          ],
          [
            106.61840057,
            10.83822155
          ],
          [
            106.61840057,
            10.83822155
          ],
          [
            106.61828613,
            10.8381424
          ],
          [
            106.6179657,
            10.83863163
          ],
          [
            106.61765289,
            10.83911991
          ],
          [
            106.61734009,
            10.83960915
          ],
          [
            106.61701965,
            10.84009743
          ],
          [
            106.61670685,
            10.84059238
          ],
          [
            106.61639404,
            10.84108829
          ],
          [
            106.61608887,
            10.84158611
          ],
          [
            106.61577606,
            10.84208393
          ],
          [
            106.61547089,
            10.84256554
          ],
          [
            106.61516571,
            10.8430481
          ],
          [
            106.61483765,
            10.84353256
          ],
          [
            106.61450958,
            10.84401703
          ],
          [
            106.61421204,
            10.84451294
          ],
          [
            106.61390686,
            10.8450079
          ],
          [
            106.61360931,
            10.84550285
          ],
          [
            106.61330414,
            10.84599876
          ],
          [
            106.61335754,
            10.846035
          ],
          [
            106.61335754,
            10.846035
          ],
          [
            106.61335754,
            10.846035
          ],
          [
            106.61328888,
            10.84598732
          ],
          [
            106.61288452,
            10.84662819
          ],
          [
            106.61248016,
            10.8472681
          ],
          [
            106.61236572,
            10.84719467
          ],
          [
            106.6128006,
            10.84649181
          ],
          [
            106.61323547,
            10.84578991
          ],
          [
            106.61367035,
            10.84508801
          ],
          [
            106.61410522,
            10.8443861
          ],
          [
            106.61368561,
            10.8441124
          ],
          [
            106.6133728,
            10.8437376
          ]
        ]
      },
      "properties": {
        "feature_type": "route_path",
        "stt": 5,
        "route_id": 48,
        "route_no": "27",
        "display_code": "B 27",
        "route_name": "Bến xe buýt Sài Gòn - Âu Cơ - Bến xe An Sương",
        "direction": "Lượt đi",
        "outbound": true,
        "start_point": "Bến xe buýt Sài Gòn",
        "end_point": "Bến xe An Sương",
        "start_stop": "Bến xe buýt Sài Gòn",
        "end_stop": "Bến xe An Sương",
        "distance_km": 16.28,
        "listed_length_km": 15,
        "running_time_min": 65,
        "operating_hours": "5:00 - 20:00",
        "stroke": "#3949AB",
        "stroke_width": 4,
        "stroke_opacity": 0.85
      }
    },
    {
      "type": "Feature",
      "geometry": {
        "type": "LineString",
        "coordinates": [
          [
            106.6133728,
            10.8437376
          ],
          [
            106.61418152,
            10.84418106
          ],
          [
            106.61734772,
            10.83889103
          ],
          [
            106.61734772,
            10.83889103
          ],
          [
            106.61751556,
            10.83894348
          ],
          [
            106.6203537,
            10.83460712
          ],
          [
            106.62020874,
            10.83449745
          ],
          [
            106.62020874,
            10.83449745
          ],
          [
            106.62020874,
            10.83449745
          ],
          [
            106.62033844,
            10.83462811
          ],
          [
            106.62194061,
            10.83214664
          ],
          [
            106.62179565,
            10.83201981
          ],
          [
            106.62179565,
            10.83201981
          ],
          [
            106.62179565,
            10.83201981
          ],
          [
            106.62179565,
            10.83201981
          ],
          [
            106.62197876,
            10.83206749
          ],
          [
            106.62510681,
            10.82725239
          ],
          [
            106.62592316,
            10.82639885
          ],
          [
            106.62586212,
            10.82623959
          ],
          [
            106.62586212,
            10.82623959
          ],
          [
            106.62586212,
            10.82623959
          ],
          [
            106.62586212,
            10.82623959
          ],
          [
            106.62600708,
            10.82635117
          ],
          [
            106.62802124,
            10.82440186
          ],
          [
            106.62945557,
            10.82314205
          ],
          [
            106.62996674,
            10.82238388
          ],
          [
            106.62982178,
            10.82231522
          ],
          [
            106.62982178,
            10.82231522
          ],
          [
            106.62982178,
            10.82231522
          ],
          [
            106.62982178,
            10.82231522
          ],
          [
            106.62982178,
            10.82231522
          ],
          [
            106.62982178,
            10.82231522
          ],
          [
            106.62992859,
            10.8223629
          ],
          [
            106.63041687,
            10.82091904
          ],
          [
            106.63085175,
            10.81945419
          ],
          [
            106.63061523,
            10.81938553
          ],
          [
            106.63061523,
            10.81938553
          ],
          [
            106.63061523,
            10.81938553
          ],
          [
            106.63061523,
            10.81938553
          ],
          [
            106.63061523,
            10.81938553
          ],
          [
            106.63082123,
            10.81945419
          ],
          [
            106.63124084,
            10.81818676
          ],
          [
            106.63166809,
            10.81691933
          ],
          [
            106.63201904,
            10.81568718
          ],
          [
            106.63237762,
            10.81445503
          ],
          [
            106.63237762,
            10.81445503
          ],
          [
            106.63259888,
            10.81373405
          ],
          [
            106.63282013,
            10.81301308
          ],
          [
            106.63304138,
            10.8122921
          ],
          [
            106.633255,
            10.81157112
          ],
          [
            106.63346863,
            10.81084919
          ],
          [
            106.63368988,
            10.81012726
          ],
          [
            106.63394165,
            10.80940533
          ],
          [
            106.63414001,
            10.80870533
          ],
          [
            106.63401794,
            10.80868912
          ],
          [
            106.63401794,
            10.80868912
          ],
          [
            106.63414001,
            10.80871582
          ],
          [
            106.63453674,
            10.80748463
          ],
          [
            106.63493346999999,
            10.80625439
          ],
          [
            106.63477325,
            10.80621243
          ],
          [
            106.63477325,
            10.80621243
          ],
          [
            106.63495636,
            10.80626011
          ],
          [
            106.63519287,
            10.80554581
          ],
          [
            106.63542938,
            10.8048315
          ],
          [
            106.63526917,
            10.80480003
          ],
          [
            106.63526917,
            10.80480003
          ],
          [
            106.63542175,
            10.8048315
          ],
          [
            106.63574982,
            10.80381012
          ],
          [
            106.63608551,
            10.80279255
          ],
          [
            106.63667297,
            10.80179691
          ],
          [
            106.63677216,
            10.80128288
          ],
          [
            106.63687134,
            10.80076885
          ],
          [
            106.6368103,
            10.80075932
          ],
          [
            106.6368103,
            10.80075932
          ],
          [
            106.63687134,
            10.80076885
          ],
          [
            106.63704681,
            10.80013657
          ],
          [
            106.63721466,
            10.79950428
          ],
          [
            106.63739777,
            10.7988615
          ],
          [
            106.63758087,
            10.79822445
          ],
          [
            106.63749695,
            10.7982111
          ],
          [
            106.63749695,
            10.7982111
          ],
          [
            106.63749695,
            10.7982111
          ],
          [
            106.63755798,
            10.79822445
          ],
          [
            106.63791656,
            10.79697227
          ],
          [
            106.63827515,
            10.79572105
          ],
          [
            106.63848114,
            10.79501534
          ],
          [
            106.63869476,
            10.79431438
          ],
          [
            106.63861847,
            10.79428291
          ],
          [
            106.63861847,
            10.79428291
          ],
          [
            106.63861847,
            10.79428291
          ],
          [
            106.63861847,
            10.79428291
          ],
          [
            106.63868713,
            10.79429817
          ],
          [
            106.63909912,
            10.79309464
          ],
          [
            106.63951111,
            10.79189014
          ],
          [
            106.63991547,
            10.79068851
          ],
          [
            106.64032745,
            10.78948689
          ],
          [
            106.64025116,
            10.7894659
          ],
          [
            106.64025116,
            10.7894659
          ],
          [
            106.64032745,
            10.78948689
          ],
          [
            106.64080048,
            10.78805447
          ],
          [
            106.64129639,
            10.78662586
          ],
          [
            106.64123535,
            10.78660488
          ],
          [
            106.64123535,
            10.78660488
          ],
          [
            106.64123535,
            10.78660488
          ],
          [
            106.64123535,
            10.78660488
          ],
          [
            106.64130402,
            10.78663158
          ],
          [
            106.64154053,
            10.78607273
          ],
          [
            106.64181519,
            10.78535557
          ],
          [
            106.64208984,
            10.78463936
          ],
          [
            106.64240265,
            10.78373241
          ],
          [
            106.64233398,
            10.78371239
          ],
          [
            106.64233398,
            10.78371239
          ],
          [
            106.64233398,
            10.78371239
          ],
          [
            106.64233398,
            10.78371239
          ],
          [
            106.64240265,
            10.78372192
          ],
          [
            106.64263153,
            10.78294277
          ],
          [
            106.64294434,
            10.78216267
          ],
          [
            106.64329529,
            10.78139877
          ],
          [
            106.64376068,
            10.78066635
          ],
          [
            106.64369965,
            10.78062344
          ],
          [
            106.64369965,
            10.78062344
          ],
          [
            106.64378357,
            10.78067684
          ],
          [
            106.64421082,
            10.7800312
          ],
          [
            106.64463806,
            10.77938557
          ],
          [
            106.64505005,
            10.7787714
          ],
          [
            106.64546204,
            10.77815723
          ],
          [
            106.64533234,
            10.77809429
          ],
          [
            106.64533234,
            10.77809429
          ],
          [
            106.64546967,
            10.77817345
          ],
          [
            106.64593506,
            10.77751732
          ],
          [
            106.64640045,
            10.77686119
          ],
          [
            106.64689636,
            10.77620792
          ],
          [
            106.64738464,
            10.77555466
          ],
          [
            106.64723969,
            10.77545929
          ],
          [
            106.64723969,
            10.77545929
          ],
          [
            106.64738464,
            10.77555943
          ],
          [
            106.64772034,
            10.77510643
          ],
          [
            106.64805603,
            10.77465343
          ],
          [
            106.64850616,
            10.7740097
          ],
          [
            106.64891052,
            10.77335644
          ],
          [
            106.64886475,
            10.77332973
          ],
          [
            106.64886475,
            10.77332973
          ],
          [
            106.64893341,
            10.77335644
          ],
          [
            106.64929962,
            10.77275372
          ],
          [
            106.64966583,
            10.77215004
          ],
          [
            106.6500473,
            10.77155113
          ],
          [
            106.6504364,
            10.77095318
          ],
          [
            106.6504364,
            10.77095318
          ],
          [
            106.65047455,
            10.77097511
          ],
          [
            106.65155792,
            10.76951504
          ],
          [
            106.6515274,
            10.76948261
          ],
          [
            106.6515274,
            10.76948261
          ],
          [
            106.65185547,
            10.76908779
          ],
          [
            106.6518631,
            10.76887703
          ],
          [
            106.65206146,
            10.76881886
          ],
          [
            106.6522522,
            10.76873016
          ],
          [
            106.65241241,
            10.76871872
          ],
          [
            106.65270233,
            10.76845551
          ],
          [
            106.65337372,
            10.76733017
          ],
          [
            106.65335846,
            10.76728058
          ],
          [
            106.65335846,
            10.76728058
          ],
          [
            106.65341949,
            10.76730156
          ],
          [
            106.65463257,
            10.76555157
          ],
          [
            106.65461731,
            10.76548386
          ],
          [
            106.65461731,
            10.76548386
          ],
          [
            106.65461731,
            10.76548386
          ],
          [
            106.65467072,
            10.76550484
          ],
          [
            106.65632629,
            10.76320171
          ],
          [
            106.65631866,
            10.76311684
          ],
          [
            106.65631866,
            10.76311684
          ],
          [
            106.65631866,
            10.76311684
          ],
          [
            106.65634918,
            10.76315403
          ],
          [
            106.65703583,
            10.76216888
          ],
          [
            106.65786743,
            10.76261139
          ],
          [
            106.65788269,
            10.7625742
          ],
          [
            106.65788269,
            10.7625742
          ],
          [
            106.65785217,
            10.76261139
          ],
          [
            106.65865326,
            10.76304913
          ],
          [
            106.65945435,
            10.76348591
          ],
          [
            106.6602478,
            10.76392365
          ],
          [
            106.66104889,
            10.76436043
          ],
          [
            106.66107941,
            10.7643404
          ],
          [
            106.66107941,
            10.7643404
          ],
          [
            106.66106415,
            10.76437664
          ],
          [
            106.66195679,
            10.76484585
          ],
          [
            106.66284943,
            10.76531506
          ],
          [
            106.66372681,
            10.76578617
          ],
          [
            106.66461182,
            10.76625824
          ],
          [
            106.66462708,
            10.76623154
          ],
          [
            106.66462708,
            10.76623154
          ],
          [
            106.66459656,
            10.76626873
          ],
          [
            106.66625214,
            10.76716423
          ],
          [
            106.66784668,
            10.7680397
          ],
          [
            106.66820526,
            10.76791286
          ],
          [
            106.66930389,
            10.76786518
          ],
          [
            106.67040253,
            10.76781845
          ],
          [
            106.67037964,
            10.76776505
          ],
          [
            106.67037964,
            10.76776505
          ],
          [
            106.67037964,
            10.76781845
          ],
          [
            106.67185974,
            10.76774693
          ],
          [
            106.67333221,
            10.7676754
          ],
          [
            106.6733551,
            10.76762295
          ],
          [
            106.6733551,
            10.76762295
          ],
          [
            106.67337036,
            10.76767063
          ],
          [
            106.67410278,
            10.76764393
          ],
          [
            106.67433167,
            10.76741791
          ],
          [
            106.67461395,
            10.7675705
          ],
          [
            106.67559052,
            10.7672596
          ],
          [
            106.67557526,
            10.7671957
          ],
          [
            106.67557526,
            10.7671957
          ],
          [
            106.67559052,
            10.76724911
          ],
          [
            106.67670441,
            10.76691437
          ],
          [
            106.6778183,
            10.76657963
          ],
          [
            106.67779541,
            10.76652241
          ],
          [
            106.67779541,
            10.76652241
          ],
          [
            106.6778183,
            10.76657963
          ],
          [
            106.67913055,
            10.76617622
          ],
          [
            106.68045044,
            10.76577282
          ],
          [
            106.68045044,
            10.76570988
          ],
          [
            106.68045044,
            10.76570988
          ],
          [
            106.68048859,
            10.76576233
          ],
          [
            106.68135834,
            10.76548862
          ],
          [
            106.68143463,
            10.7652092
          ],
          [
            106.68170929,
            10.76515102
          ],
          [
            106.68186951,
            10.76530933
          ],
          [
            106.68187714,
            10.76555729
          ],
          [
            106.68271637,
            10.76608944
          ],
          [
            106.68280029,
            10.76601982
          ],
          [
            106.68280029,
            10.76601982
          ],
          [
            106.68280029,
            10.76601982
          ],
          [
            106.68270874,
            10.76614761
          ],
          [
            106.68502808,
            10.76765442
          ],
          [
            106.68508148,
            10.7675972
          ],
          [
            106.68508148,
            10.7675972
          ],
          [
            106.68505859,
            10.7676754
          ],
          [
            106.68544769,
            10.76790237
          ],
          [
            106.6876297,
            10.7669487
          ],
          [
            106.68765259,
            10.76686287
          ],
          [
            106.68765259,
            10.76686287
          ],
          [
            106.68765259,
            10.76686287
          ],
          [
            106.68765259,
            10.76686287
          ],
          [
            106.68768311,
            10.76690102
          ],
          [
            106.6882019,
            10.76672745
          ],
          [
            106.68822479,
            10.7666111
          ],
          [
            106.68838501,
            10.76663208
          ],
          [
            106.68834686,
            10.76686954
          ],
          [
            106.68842316,
            10.76714325
          ],
          [
            106.68894958,
            10.76800728
          ],
          [
            106.68925476,
            10.76811314
          ],
          [
            106.68932343,
            10.76779652
          ],
          [
            106.68936157,
            10.76767635
          ],
          [
            106.68936157,
            10.76767635
          ]
        ]
      },
      "properties": {
        "feature_type": "route_path",
        "stt": 5,
        "route_id": 48,
        "route_no": "27",
        "display_code": "B 27",
        "route_name": "Bến xe buýt Sài Gòn - Âu Cơ - Bến xe An Sương",
        "direction": "Lượt về",
        "outbound": false,
        "start_point": "Bến xe buýt Sài Gòn",
        "end_point": "Bến xe An Sương",
        "start_stop": "Bến xe An Sương",
        "end_stop": "Bến xe buýt Sài Gòn",
        "distance_km": 15.29,
        "listed_length_km": 15,
        "running_time_min": 65,
        "operating_hours": "5:00 - 20:00",
        "stroke": "#3949AB",
        "stroke_width": 4,
        "stroke_opacity": 0.85
      }
    },
    {
      "type": "Feature",
      "geometry": {
        "type": "Point",
        "coordinates": [
          106.689362,
          10.767676
        ]
      },
      "properties": {
        "feature_type": "bus_stop",
        "stop_id": 35,
        "stop_code": "BX 01",
        "stop_name": "Bến xe buýt Sài Gòn",
        "stop_type": "Bến xe",
        "route_no": "27",
        "display_code": "B 27",
        "direction": "Lượt đi",
        "address": "BẾN XE BUÝT SÀI GÒN Lê Lai",
        "street": "Lê Lai",
        "zone": "Quận 1",
        "ward": "Phường Phạm Ngũ Lão",
        "all_routes": "03, 04, 102, 109, 13, 140, 171, 172, 18, 19, 20, 27, 28, 34, 36, 39, 52, 65, 69, 72, 75, 86, 88, 93, D4, DL01, DL02, DL03, DL04, DL05, DL06",
        "marker_color": "#3949AB"
      }
    },
    {
      "type": "Feature",
      "geometry": {
        "type": "Point",
        "coordinates": [
          106.688591,
          10.767692
        ]
      },
      "properties": {
        "feature_type": "bus_stop",
        "stop_id": 86,
        "stop_code": "Q1 147",
        "stop_name": "Nhà thờ Huyện Sỹ",
        "stop_type": "Trụ dừng",
        "route_no": "27",
        "display_code": "B 27",
        "direction": "Lượt đi",
        "address": "206Bis Nguyễn Trãi",
        "street": "Nguyễn Trãi",
        "zone": "Quận 1",
        "ward": null,
        "all_routes": "27, 46, 53, 72-2B",
        "marker_color": "#3949AB"
      }
    },
    {
      "type": "Feature",
      "geometry": {
        "type": "Point",
        "coordinates": [
          106.687793,
          10.766943
        ]
      },
      "properties": {
        "feature_type": "bus_stop",
        "stop_id": 88,
        "stop_code": "Q1 006",
        "stop_name": "Chợ Thái Bình",
        "stop_type": "Trụ dừng",
        "route_no": "27",
        "display_code": "B 27",
        "direction": "Lượt đi",
        "address": "244 Cống Quỳnh",
        "street": "Cống Quỳnh",
        "zone": "Quận 1",
        "ward": null,
        "all_routes": "27, 53",
        "marker_color": "#3949AB"
      }
    },
    {
      "type": "Feature",
      "geometry": {
        "type": "Point",
        "coordinates": [
          106.683657,
          10.767723
        ]
      },
      "properties": {
        "feature_type": "bus_stop",
        "stop_id": 89,
        "stop_code": "Q3 072",
        "stop_name": "Trung ương Hội Chữ thập đỏ TP",
        "stop_type": "Nhà chờ",
        "route_no": "27",
        "display_code": "B 27",
        "direction": "Lượt đi",
        "address": "464 - 466 Nguyễn Thị Minh Khai",
        "street": "Nguyễn Thị Minh Khai",
        "zone": "Quận 3",
        "ward": null,
        "all_routes": "05, 06, 14, 27, 38, 53",
        "marker_color": "#3949AB"
      }
    },
    {
      "type": "Feature",
      "geometry": {
        "type": "Point",
        "coordinates": [
          106.68238,
          10.766395
        ]
      },
      "properties": {
        "feature_type": "bus_stop",
        "stop_id": 90,
        "stop_code": "Q3 073",
        "stop_name": "Nhà sách Minh Khai",
        "stop_type": "Trụ dừng",
        "route_no": "27",
        "display_code": "B 27",
        "direction": "Lượt đi",
        "address": "488 Nguyễn Thị Minh Khai",
        "street": "Nguyễn Thị Minh Khai",
        "zone": "Quận 3",
        "ward": null,
        "all_routes": "05, 06, 14, 27, 38, 53",
        "marker_color": "#3949AB"
      }
    },
    {
      "type": "Feature",
      "geometry": {
        "type": "Point",
        "coordinates": [
          106.680363,
          10.765963
        ]
      },
      "properties": {
        "feature_type": "bus_stop",
        "stop_id": 1409,
        "stop_code": "Q3 037",
        "stop_name": "Công viên số 1 Lý Thái Tổ",
        "stop_type": "Nhà chờ",
        "route_no": "27",
        "display_code": "B 27",
        "direction": "Lượt đi",
        "address": "120 Lý Thái Tổ",
        "street": "Lý Thái Tổ",
        "zone": "Quận 3",
        "ward": null,
        "all_routes": "14, 27",
        "marker_color": "#3949AB"
      }
    },
    {
      "type": "Feature",
      "geometry": {
        "type": "Point",
        "coordinates": [
          106.678099,
          10.76668
        ]
      },
      "properties": {
        "feature_type": "bus_stop",
        "stop_id": 1413,
        "stop_code": "Q3 038",
        "stop_name": "Nguyễn Đình Chiểu",
        "stop_type": "Trụ dừng",
        "route_no": "27",
        "display_code": "B 27",
        "direction": "Lượt đi",
        "address": "170 Lý Thái Tổ",
        "street": "Lý Thái Tổ",
        "zone": "Quận 3",
        "ward": null,
        "all_routes": "14, 150, 27, 69",
        "marker_color": "#3949AB"
      }
    },
    {
      "type": "Feature",
      "geometry": {
        "type": "Point",
        "coordinates": [
          106.675664,
          10.767423
        ]
      },
      "properties": {
        "feature_type": "bus_stop",
        "stop_id": 1416,
        "stop_code": "Q3 039",
        "stop_name": "Chợ hoa Hồ Thị Kỷ",
        "stop_type": "Biển treo",
        "route_no": "27",
        "display_code": "B 27",
        "direction": "Lượt đi",
        "address": "306 Lý Thái Tổ",
        "street": "Lý Thái Tổ",
        "zone": "Quận 3",
        "ward": null,
        "all_routes": "14, 150, 27, 69",
        "marker_color": "#3949AB"
      }
    },
    {
      "type": "Feature",
      "geometry": {
        "type": "Point",
        "coordinates": [
          106.673051,
          10.767865
        ]
      },
      "properties": {
        "feature_type": "bus_stop",
        "stop_id": 1411,
        "stop_code": "Q10 029",
        "stop_name": "Vòng xoay Lý Thái Tổ",
        "stop_type": "Trụ dừng",
        "route_no": "27",
        "display_code": "B 27",
        "direction": "Lượt đi",
        "address": "430 Lý Thái Tổ",
        "street": "Lý Thái Tổ",
        "zone": "Quận 10",
        "ward": null,
        "all_routes": "14, 27, 69",
        "marker_color": "#3949AB"
      }
    },
    {
      "type": "Feature",
      "geometry": {
        "type": "Point",
        "coordinates": [
          106.669739,
          10.768029
        ]
      },
      "properties": {
        "feature_type": "bus_stop",
        "stop_id": 1412,
        "stop_code": "Q10 030",
        "stop_name": "Bện viện Nhi Đồng 1",
        "stop_type": "Nhà chờ",
        "route_no": "27",
        "display_code": "B 27",
        "direction": "Lượt đi",
        "address": "532 Lý Thái Tổ",
        "street": "Lý Thái Tổ",
        "zone": "Quận 10",
        "ward": null,
        "all_routes": "14, 27, 38, 69",
        "marker_color": "#3949AB"
      }
    },
    {
      "type": "Feature",
      "geometry": {
        "type": "Point",
        "coordinates": [
          106.661743,
          10.764972
        ]
      },
      "properties": {
        "feature_type": "bus_stop",
        "stop_id": 98,
        "stop_code": "Q10 008",
        "stop_name": "Ngã ba Nguyễn Kim",
        "stop_type": "Trụ dừng",
        "route_no": "27",
        "display_code": "B 27",
        "direction": "Lượt đi",
        "address": "626-628 Đường 3/2",
        "street": "Đường 3/2",
        "zone": "Quận 10",
        "ward": null,
        "all_routes": "14, 27",
        "marker_color": "#3949AB"
      }
    },
    {
      "type": "Feature",
      "geometry": {
        "type": "Point",
        "coordinates": [
          106.658409,
          10.763115
        ]
      },
      "properties": {
        "feature_type": "bus_stop",
        "stop_id": 100,
        "stop_code": "Q11 001",
        "stop_name": "Nhà sách Phương Nam",
        "stop_type": "Nhà chờ",
        "route_no": "27",
        "display_code": "B 27",
        "direction": "Lượt đi",
        "address": "940 (6B) Đường 3/2",
        "street": "Đường 3/2",
        "zone": "Quận 11",
        "ward": null,
        "all_routes": "103, 14, 27",
        "marker_color": "#3949AB"
      }
    },
    {
      "type": "Feature",
      "geometry": {
        "type": "Point",
        "coordinates": [
          106.656218,
          10.763655
        ]
      },
      "properties": {
        "feature_type": "bus_stop",
        "stop_id": 2410,
        "stop_code": "Q11 029",
        "stop_name": "Parkson",
        "stop_type": "Nhà chờ",
        "route_no": "27",
        "display_code": "B 27",
        "direction": "Lượt đi",
        "address": "Đối diện 195 (155) Lê Đại Hành",
        "street": "Lê Đại Hành",
        "zone": "Quận 11",
        "ward": null,
        "all_routes": "27",
        "marker_color": "#3949AB"
      }
    },
    {
      "type": "Feature",
      "geometry": {
        "type": "Point",
        "coordinates": [
          106.65485,
          10.765562
        ]
      },
      "properties": {
        "feature_type": "bus_stop",
        "stop_id": 2413,
        "stop_code": "Q11 030",
        "stop_name": "Tôn Thất Hiệp",
        "stop_type": "Nhà chờ",
        "route_no": "27",
        "display_code": "B 27",
        "direction": "Lượt đi",
        "address": "Đối diện 281 (265) Lê Đại Hành",
        "street": "Lê Đại Hành",
        "zone": "Quận 11",
        "ward": null,
        "all_routes": "27",
        "marker_color": "#3949AB"
      }
    },
    {
      "type": "Feature",
      "geometry": {
        "type": "Point",
        "coordinates": [
          106.653616,
          10.767344
        ]
      },
      "properties": {
        "feature_type": "bus_stop",
        "stop_id": 2412,
        "stop_code": "Q11 031",
        "stop_name": "Trường Đua Phú Thọ",
        "stop_type": "Nhà chờ",
        "route_no": "27",
        "display_code": "B 27",
        "direction": "Lượt đi",
        "address": "Đối diện 349 Lê Đại Hành",
        "street": "Lê Đại Hành",
        "zone": "Quận 11",
        "ward": null,
        "all_routes": "27",
        "marker_color": "#3949AB"
      }
    },
    {
      "type": "Feature",
      "geometry": {
        "type": "Point",
        "coordinates": [
          106.652902,
          10.768466
        ]
      },
      "properties": {
        "feature_type": "bus_stop",
        "stop_id": 2415,
        "stop_code": "Q11 032",
        "stop_name": "Siêu thị Coopmart",
        "stop_type": "Nhà chờ",
        "route_no": "27",
        "display_code": "B 27",
        "direction": "Lượt đi",
        "address": "2 Lê Đại Hành",
        "street": "Lê Đại Hành",
        "zone": "Quận 11",
        "ward": null,
        "all_routes": "27",
        "marker_color": "#3949AB"
      }
    },
    {
      "type": "Feature",
      "geometry": {
        "type": "Point",
        "coordinates": [
          106.651599,
          10.769647
        ]
      },
      "properties": {
        "feature_type": "bus_stop",
        "stop_id": 2414,
        "stop_code": "QTB 040",
        "stop_name": "Vòng xoay Lê Đại Hành",
        "stop_type": "Trụ dừng",
        "route_no": "27",
        "display_code": "B 27",
        "direction": "Lượt đi",
        "address": "52 Âu Cơ",
        "street": "Âu Cơ",
        "zone": "Quận Tân Bình",
        "ward": null,
        "all_routes": "27, 38",
        "marker_color": "#3949AB"
      }
    },
    {
      "type": "Feature",
      "geometry": {
        "type": "Point",
        "coordinates": [
          106.65,
          10.771992
        ]
      },
      "properties": {
        "feature_type": "bus_stop",
        "stop_id": 2417,
        "stop_code": "QTB 041",
        "stop_name": "Chợ Tân Phước",
        "stop_type": "Trụ dừng",
        "route_no": "27",
        "display_code": "B 27",
        "direction": "Lượt đi",
        "address": "130 Âu Cơ",
        "street": "Âu Cơ",
        "zone": "Quận Tân Bình",
        "ward": null,
        "all_routes": "27, 38",
        "marker_color": "#3949AB"
      }
    },
    {
      "type": "Feature",
      "geometry": {
        "type": "Point",
        "coordinates": [
          106.648423,
          10.7744
        ]
      },
      "properties": {
        "feature_type": "bus_stop",
        "stop_id": 2416,
        "stop_code": "QTB 042",
        "stop_name": "Ngã tư Lạc Long Quân",
        "stop_type": "Trụ dừng",
        "route_no": "27",
        "display_code": "B 27",
        "direction": "Lượt đi",
        "address": "274 (260) Âu Cơ",
        "street": "Âu Cơ",
        "zone": "Quận Tân Bình",
        "ward": null,
        "all_routes": "27, 38",
        "marker_color": "#3949AB"
      }
    },
    {
      "type": "Feature",
      "geometry": {
        "type": "Point",
        "coordinates": [
          106.647162,
          10.776113
        ]
      },
      "properties": {
        "feature_type": "bus_stop",
        "stop_id": 2419,
        "stop_code": "QTB 043",
        "stop_name": "Ủy ban nhân dân Phường 10",
        "stop_type": "Nhà chờ",
        "route_no": "27",
        "display_code": "B 27",
        "direction": "Lượt đi",
        "address": "290 (Ủy ban nhân dân phường 10) Âu Cơ",
        "street": "Âu Cơ",
        "zone": "Quận Tân Bình",
        "ward": null,
        "all_routes": "27",
        "marker_color": "#3949AB"
      }
    },
    {
      "type": "Feature",
      "geometry": {
        "type": "Point",
        "coordinates": [
          106.645526,
          10.778368
        ]
      },
      "properties": {
        "feature_type": "bus_stop",
        "stop_id": 2418,
        "stop_code": "QTB 044",
        "stop_name": "Chợ Trần Văn Quang",
        "stop_type": "Trụ dừng",
        "route_no": "27",
        "display_code": "B 27",
        "direction": "Lượt đi",
        "address": "402 Âu Cơ",
        "street": "Âu Cơ",
        "zone": "Quận Tân Bình",
        "ward": null,
        "all_routes": "27",
        "marker_color": "#3949AB"
      }
    },
    {
      "type": "Feature",
      "geometry": {
        "type": "Point",
        "coordinates": [
          106.643708,
          10.780987
        ]
      },
      "properties": {
        "feature_type": "bus_stop",
        "stop_id": 2421,
        "stop_code": "QTB 045",
        "stop_name": "Công ty Bông Bạch Tuyết",
        "stop_type": "Trụ dừng",
        "route_no": "27",
        "display_code": "B 27",
        "direction": "Lượt đi",
        "address": "548 (Công ty Bạch Tuyết) Âu Cơ",
        "street": "Âu Cơ",
        "zone": "Quận Tân Bình",
        "ward": null,
        "all_routes": "27",
        "marker_color": "#3949AB"
      }
    },
    {
      "type": "Feature",
      "geometry": {
        "type": "Point",
        "coordinates": [
          106.642785,
          10.78299
        ]
      },
      "properties": {
        "feature_type": "bus_stop",
        "stop_id": 2199,
        "stop_code": "QTB 046",
        "stop_name": "Bệnh Viện Tân Phú",
        "stop_type": "Trụ dừng",
        "route_no": "27",
        "display_code": "B 27",
        "direction": "Lượt đi",
        "address": "584-590 Âu Cơ",
        "street": "Âu Cơ",
        "zone": "Quận Tân Bình",
        "ward": null,
        "all_routes": "23, 27",
        "marker_color": "#3949AB"
      }
    },
    {
      "type": "Feature",
      "geometry": {
        "type": "Point",
        "coordinates": [
          106.641991,
          10.785335
        ]
      },
      "properties": {
        "feature_type": "bus_stop",
        "stop_id": 2195,
        "stop_code": "QTB 047",
        "stop_name": "Ngã tư Thoại Ngọc Hầu",
        "stop_type": "Nhà chờ",
        "route_no": "27",
        "display_code": "B 27",
        "direction": "Lượt đi",
        "address": "678 Âu Cơ",
        "street": "Âu Cơ",
        "zone": "Quận Tân Bình",
        "ward": null,
        "all_routes": "23, 27",
        "marker_color": "#3949AB"
      }
    },
    {
      "type": "Feature",
      "geometry": {
        "type": "Point",
        "coordinates": [
          106.641182,
          10.78729
        ]
      },
      "properties": {
        "feature_type": "bus_stop",
        "stop_id": 2196,
        "stop_code": "QTB 048",
        "stop_name": "Bàu Cát 8",
        "stop_type": "Trụ dừng",
        "route_no": "27",
        "display_code": "B 27",
        "direction": "Lượt đi",
        "address": "722 Âu Cơ",
        "street": "Âu Cơ",
        "zone": "Quận Tân Bình",
        "ward": null,
        "all_routes": "23, 27, 62, 64",
        "marker_color": "#3949AB"
      }
    },
    {
      "type": "Feature",
      "geometry": {
        "type": "Point",
        "coordinates": [
          106.640221,
          10.790294
        ]
      },
      "properties": {
        "feature_type": "bus_stop",
        "stop_id": 2420,
        "stop_code": "QTB 049",
        "stop_name": "Chợ Bàu Cát",
        "stop_type": "Trụ dừng",
        "route_no": "27",
        "display_code": "B 27",
        "direction": "Lượt đi",
        "address": "794 Âu Cơ",
        "street": "Âu Cơ",
        "zone": "Quận Tân Bình",
        "ward": null,
        "all_routes": "27, 62, 64",
        "marker_color": "#3949AB"
      }
    },
    {
      "type": "Feature",
      "geometry": {
        "type": "Point",
        "coordinates": [
          106.638982,
          10.793972
        ]
      },
      "properties": {
        "feature_type": "bus_stop",
        "stop_id": 2423,
        "stop_code": "QTB 050",
        "stop_name": "Công ty Giấy Mai Lan",
        "stop_type": "Trụ dừng",
        "route_no": "27",
        "display_code": "B 27",
        "direction": "Lượt đi",
        "address": "129 Âu Cơ",
        "street": "Âu Cơ",
        "zone": "Quận Tân Bình",
        "ward": null,
        "all_routes": "27, 30, 62",
        "marker_color": "#3949AB"
      }
    },
    {
      "type": "Feature",
      "geometry": {
        "type": "Point",
        "coordinates": [
          106.638349,
          10.796
        ]
      },
      "properties": {
        "feature_type": "bus_stop",
        "stop_id": 2422,
        "stop_code": "QTB 051",
        "stop_name": "Ngã ba Ba Vân",
        "stop_type": "Trụ dừng",
        "route_no": "27",
        "display_code": "B 27",
        "direction": "Lượt đi",
        "address": "928 Âu Cơ",
        "street": "Âu Cơ",
        "zone": "Quận Tân Bình",
        "ward": null,
        "all_routes": "27, 62",
        "marker_color": "#3949AB"
      }
    },
    {
      "type": "Feature",
      "geometry": {
        "type": "Point",
        "coordinates": [
          106.637576,
          10.798709
        ]
      },
      "properties": {
        "feature_type": "bus_stop",
        "stop_id": 2425,
        "stop_code": "QTB 052",
        "stop_name": "Chợ Võ Thành Trang",
        "stop_type": "Trụ dừng",
        "route_no": "27",
        "display_code": "B 27",
        "direction": "Lượt đi",
        "address": "988-990 Âu Cơ",
        "street": "Âu Cơ",
        "zone": "Quận Tân Bình",
        "ward": null,
        "all_routes": "27, 62",
        "marker_color": "#3949AB"
      }
    },
    {
      "type": "Feature",
      "geometry": {
        "type": "Point",
        "coordinates": [
          106.637045,
          10.800674
        ]
      },
      "properties": {
        "feature_type": "bus_stop",
        "stop_id": 2424,
        "stop_code": "QTB 053",
        "stop_name": "Ngã ba Bà Quẹo",
        "stop_type": "Trụ dừng",
        "route_no": "27",
        "display_code": "B 27",
        "direction": "Lượt đi",
        "address": "1064 Âu Cơ",
        "street": "Âu Cơ",
        "zone": "Quận Tân Bình",
        "ward": null,
        "all_routes": "27, 62",
        "marker_color": "#3949AB"
      }
    },
    {
      "type": "Feature",
      "geometry": {
        "type": "Point",
        "coordinates": [
          106.635629,
          10.804732
        ]
      },
      "properties": {
        "feature_type": "bus_stop",
        "stop_id": 1302,
        "stop_code": "QTB 073",
        "stop_name": "Ngã tư Tân Kỳ Tân Quý",
        "stop_type": "Biển treo",
        "route_no": "27",
        "display_code": "B 27",
        "direction": "Lượt đi",
        "address": "638 Trường Chinh",
        "street": "Trường Chinh",
        "zone": "Quận Tân Bình",
        "ward": null,
        "all_routes": "13, 23, 27, 62, 65, 94",
        "marker_color": "#3949AB"
      }
    },
    {
      "type": "Feature",
      "geometry": {
        "type": "Point",
        "coordinates": [
          106.635184,
          10.806202
        ]
      },
      "properties": {
        "feature_type": "bus_stop",
        "stop_id": 2202,
        "stop_code": "QTB 074",
        "stop_name": "Siêu thị Big C",
        "stop_type": "Nhà chờ",
        "route_no": "27",
        "display_code": "B 27",
        "direction": "Lượt đi",
        "address": "680 Trường Chinh",
        "street": "Trường Chinh",
        "zone": "Quận Tân Bình",
        "ward": null,
        "all_routes": "13, 23, 27, 62, 65, 94",
        "marker_color": "#3949AB"
      }
    },
    {
      "type": "Feature",
      "geometry": {
        "type": "Point",
        "coordinates": [
          106.634638,
          10.808314
        ]
      },
      "properties": {
        "feature_type": "bus_stop",
        "stop_id": 268,
        "stop_code": "QTB 075",
        "stop_name": "Mũi tàu Cộng Hòa",
        "stop_type": "Trụ dừng",
        "route_no": "27",
        "display_code": "B 27",
        "direction": "Lượt đi",
        "address": "19B1 Trường Chinh",
        "street": "Trường Chinh",
        "zone": "Quận Tân Bình",
        "ward": null,
        "all_routes": "04, 104, 13, 145, 16, 23, 27, 28, 62, 63-1, 65, 94",
        "marker_color": "#3949AB"
      }
    },
    {
      "type": "Feature",
      "geometry": {
        "type": "Point",
        "coordinates": [
          106.633349,
          10.812204
        ]
      },
      "properties": {
        "feature_type": "bus_stop",
        "stop_id": 267,
        "stop_code": "QTB 076",
        "stop_name": "Ngã ba Chế Lan Viên",
        "stop_type": "Nhà chờ",
        "route_no": "27",
        "display_code": "B 27",
        "direction": "Lượt đi",
        "address": "Đối diện đường Chế Lan Viên Trường Chinh",
        "street": "Trường Chinh",
        "zone": "Quận Tân Bình",
        "ward": null,
        "all_routes": "04, 104, 13, 145, 23, 27, 28, 62, 65, 94",
        "marker_color": "#3949AB"
      }
    },
    {
      "type": "Feature",
      "geometry": {
        "type": "Point",
        "coordinates": [
          106.631461,
          10.818332
        ]
      },
      "properties": {
        "feature_type": "bus_stop",
        "stop_id": 270,
        "stop_code": "QTB 078",
        "stop_name": "UBND Phường 15",
        "stop_type": "Nhà chờ",
        "route_no": "27",
        "display_code": "B 27",
        "direction": "Lượt đi",
        "address": "850 Trường Chinh",
        "street": "Trường Chinh",
        "zone": "Quận Tân Bình",
        "ward": null,
        "all_routes": "04, 104, 13, 145, 23, 27, 62, 65, 94",
        "marker_color": "#3949AB"
      }
    },
    {
      "type": "Feature",
      "geometry": {
        "type": "Point",
        "coordinates": [
          106.630254,
          10.822452
        ]
      },
      "properties": {
        "feature_type": "bus_stop",
        "stop_id": 271,
        "stop_code": "QTB 079",
        "stop_name": "Khu Công Nghiệp Tân Bình",
        "stop_type": "Nhà chờ",
        "route_no": "27",
        "display_code": "B 27",
        "direction": "Lượt đi",
        "address": "932 Trường Chinh",
        "street": "Trường Chinh",
        "zone": "Quận Tân Bình",
        "ward": null,
        "all_routes": "04, 104, 13, 145, 23, 27, 32, 41, 62, 65, 94",
        "marker_color": "#3949AB"
      }
    },
    {
      "type": "Feature",
      "geometry": {
        "type": "Point",
        "coordinates": [
          106.625828,
          10.826957
        ]
      },
      "properties": {
        "feature_type": "bus_stop",
        "stop_id": 272,
        "stop_code": "Q12 128",
        "stop_name": "Cầu Tham Lương - Siêu thị Thiên Hòa",
        "stop_type": "Nhà chờ",
        "route_no": "27",
        "display_code": "B 27",
        "direction": "Lượt đi",
        "address": "60A-B (1/17A) Trường Chinh",
        "street": "Trường Chinh",
        "zone": "Quận 12",
        "ward": null,
        "all_routes": "04, 104, 13, 145, 23, 27, 41, 62, 65, 94",
        "marker_color": "#3949AB"
      }
    },
    {
      "type": "Feature",
      "geometry": {
        "type": "Point",
        "coordinates": [
          106.624594,
          10.828627
        ]
      },
      "properties": {
        "feature_type": "bus_stop",
        "stop_id": 273,
        "stop_code": "Q12 129",
        "stop_name": "Chùa Vĩnh Phước",
        "stop_type": "Nhà chờ",
        "route_no": "27",
        "display_code": "B 27",
        "direction": "Lượt đi",
        "address": "110 (189/4) Trường Chinh",
        "street": "Trường Chinh",
        "zone": "Quận 12",
        "ward": null,
        "all_routes": "04, 104, 13, 145, 27, 41, 65, 94",
        "marker_color": "#3949AB"
      }
    },
    {
      "type": "Feature",
      "geometry": {
        "type": "Point",
        "coordinates": [
          106.620614,
          10.834781
        ]
      },
      "properties": {
        "feature_type": "bus_stop",
        "stop_id": 275,
        "stop_code": "Q12 132",
        "stop_name": "Chùa Lạc Quang",
        "stop_type": "Nhà chờ",
        "route_no": "27",
        "display_code": "B 27",
        "direction": "Lượt đi",
        "address": "408 Trường Chinh",
        "street": "Trường Chinh",
        "zone": "Quận 12",
        "ward": null,
        "all_routes": "04, 104, 13, 145, 27, 41, 65, 94",
        "marker_color": "#3949AB"
      }
    },
    {
      "type": "Feature",
      "geometry": {
        "type": "Point",
        "coordinates": [
          106.618398,
          10.838222
        ]
      },
      "properties": {
        "feature_type": "bus_stop",
        "stop_id": 277,
        "stop_code": "Q12 131",
        "stop_name": "Bitis",
        "stop_type": "Nhà chờ",
        "route_no": "27",
        "display_code": "B 27",
        "direction": "Lượt đi",
        "address": "590 (640) Trường Chinh",
        "street": "Trường Chinh",
        "zone": "Quận 12",
        "ward": null,
        "all_routes": "04, 104, 13, 145, 27, 41, 65, 94",
        "marker_color": "#3949AB"
      }
    },
    {
      "type": "Feature",
      "geometry": {
        "type": "Point",
        "coordinates": [
          106.613361,
          10.846035
        ]
      },
      "properties": {
        "feature_type": "bus_stop",
        "stop_id": 1116,
        "stop_code": "Q12 123",
        "stop_name": "Bến xe An Sương",
        "stop_type": "Trụ dừng",
        "route_no": "27",
        "display_code": "B 27",
        "direction": "Lượt đi",
        "address": "142 Quốc lộ 22",
        "street": "Quốc lộ 22",
        "zone": "Quận 12",
        "ward": null,
        "all_routes": "151, 27, 41, 65, 71",
        "marker_color": "#3949AB"
      }
    },
    {
      "type": "Feature",
      "geometry": {
        "type": "Point",
        "coordinates": [
          106.61337280273438,
          10.843737602233887
        ]
      },
      "properties": {
        "feature_type": "bus_stop",
        "stop_id": 166,
        "stop_code": "BX41",
        "stop_name": "Bến xe An Sương",
        "stop_type": "Bến xe",
        "route_no": "27",
        "display_code": "B 27",
        "direction": "Lượt đi",
        "address": "Bến xe An Sương Quốc lộ 22",
        "street": "Quốc lộ 22",
        "zone": "Quận 12",
        "ward": null,
        "all_routes": "04, 104, 122, 151, 27, 33, 41, 61-3, 62-5, 65, 71, 74, 85",
        "marker_color": "#3949AB"
      }
    },
    {
      "type": "Feature",
      "geometry": {
        "type": "Point",
        "coordinates": [
          106.617347,
          10.838891
        ]
      },
      "properties": {
        "feature_type": "bus_stop",
        "stop_id": 167,
        "stop_code": "Q12 135",
        "stop_name": "Bitis",
        "stop_type": "Nhà chờ",
        "route_no": "27",
        "display_code": "B 27",
        "direction": "Lượt về",
        "address": "487 Trường Chinh",
        "street": "Trường Chinh",
        "zone": "Quận 12",
        "ward": null,
        "all_routes": "04, 104, 13, 145, 27, 41, 65, 94",
        "marker_color": "#3949AB"
      }
    },
    {
      "type": "Feature",
      "geometry": {
        "type": "Point",
        "coordinates": [
          106.620212,
          10.834497
        ]
      },
      "properties": {
        "feature_type": "bus_stop",
        "stop_id": 172,
        "stop_code": "Q12 136",
        "stop_name": "Chùa Lạc Quang",
        "stop_type": "Nhà chờ",
        "route_no": "27",
        "display_code": "B 27",
        "direction": "Lượt về",
        "address": "257 Trường Chinh",
        "street": "Trường Chinh",
        "zone": "Quận 12",
        "ward": null,
        "all_routes": "04, 104, 13, 145, 27, 41, 65, 94",
        "marker_color": "#3949AB"
      }
    },
    {
      "type": "Feature",
      "geometry": {
        "type": "Point",
        "coordinates": [
          106.621794,
          10.83202
        ]
      },
      "properties": {
        "feature_type": "bus_stop",
        "stop_id": 168,
        "stop_code": "Q12 137",
        "stop_name": "Chùa Vĩnh Phước",
        "stop_type": "Nhà chờ",
        "route_no": "27",
        "display_code": "B 27",
        "direction": "Lượt về",
        "address": "Chùa Vĩnh Phước Trường Chinh",
        "street": "Trường Chinh",
        "zone": "Quận 12",
        "ward": null,
        "all_routes": "04, 104, 13, 145, 27, 41, 65, 94",
        "marker_color": "#3949AB"
      }
    },
    {
      "type": "Feature",
      "geometry": {
        "type": "Point",
        "coordinates": [
          106.62586,
          10.82624
        ]
      },
      "properties": {
        "feature_type": "bus_stop",
        "stop_id": 169,
        "stop_code": "Q12 139",
        "stop_name": "Cầu Tham Lương - Siêu thị Thiên Hòa",
        "stop_type": "Nhà chờ",
        "route_no": "27",
        "display_code": "B 27",
        "direction": "Lượt về",
        "address": "21 (Kế 2/6B) Trường Chinh",
        "street": "Trường Chinh",
        "zone": "Quận 12",
        "ward": null,
        "all_routes": "04, 104, 13, 145, 23, 27, 41, 62, 65, 94",
        "marker_color": "#3949AB"
      }
    },
    {
      "type": "Feature",
      "geometry": {
        "type": "Point",
        "coordinates": [
          106.629825,
          10.822315
        ]
      },
      "properties": {
        "feature_type": "bus_stop",
        "stop_id": 174,
        "stop_code": "QTP 010",
        "stop_name": "Trạm Dệt Thành Công",
        "stop_type": "Nhà chờ",
        "route_no": "27",
        "display_code": "B 27",
        "direction": "Lượt về",
        "address": "8 Trường Chinh",
        "street": "Trường Chinh",
        "zone": "Quận Tân Phú",
        "ward": "Phường Tây Thạnh",
        "all_routes": "04, 104, 13, 145, 23, 27, 32, 41, 62, 65, 94",
        "marker_color": "#3949AB"
      }
    },
    {
      "type": "Feature",
      "geometry": {
        "type": "Point",
        "coordinates": [
          106.630615,
          10.819386
        ]
      },
      "properties": {
        "feature_type": "bus_stop",
        "stop_id": 173,
        "stop_code": "QTP 011",
        "stop_name": "Trạm KCN Tân Bình",
        "stop_type": "Nhà chờ",
        "route_no": "27",
        "display_code": "B 27",
        "direction": "Lượt về",
        "address": "881 Trường Chinh",
        "street": "Trường Chinh",
        "zone": "Quận Tân Phú",
        "ward": "Phường Tây Thạnh",
        "all_routes": "04, 104, 13, 145, 23, 27, 28, 62, 65, 94",
        "marker_color": "#3949AB"
      }
    },
    {
      "type": "Feature",
      "geometry": {
        "type": "Point",
        "coordinates": [
          106.632377,
          10.814455
        ]
      },
      "properties": {
        "feature_type": "bus_stop",
        "stop_id": 176,
        "stop_code": "QTP 012",
        "stop_name": "Ngã 3 Chế Lan Viên",
        "stop_type": "Nhà chờ",
        "route_no": "27",
        "display_code": "B 27",
        "direction": "Lượt về",
        "address": "831 (trước showroom o tô) Trường Chinh",
        "street": "Trường Chinh",
        "zone": "Quận Tân Phú",
        "ward": "Phường Tây Thạnh",
        "all_routes": "04, 104, 13, 145, 23, 27, 28, 62, 65, 94",
        "marker_color": "#3949AB"
      }
    },
    {
      "type": "Feature",
      "geometry": {
        "type": "Point",
        "coordinates": [
          106.634019,
          10.808689
        ]
      },
      "properties": {
        "feature_type": "bus_stop",
        "stop_id": 177,
        "stop_code": "QTP 014",
        "stop_name": "Trạm Đài Liệt Sỹ",
        "stop_type": "Nhà chờ",
        "route_no": "27",
        "display_code": "B 27",
        "direction": "Lượt về",
        "address": "1/3 Trường Chinh",
        "street": "Trường Chinh",
        "zone": "Quận Tân Phú",
        "ward": "Phường Tây Thạnh",
        "all_routes": "04, 104, 13, 145, 16, 23, 27, 28, 48, 62, 63-1, 65, 94",
        "marker_color": "#3949AB"
      }
    },
    {
      "type": "Feature",
      "geometry": {
        "type": "Point",
        "coordinates": [
          106.634773,
          10.806212
        ]
      },
      "properties": {
        "feature_type": "bus_stop",
        "stop_id": 2292,
        "stop_code": "QTP 015",
        "stop_name": "Siêu thị BigC",
        "stop_type": "Nhà chờ",
        "route_no": "27",
        "display_code": "B 27",
        "direction": "Lượt về",
        "address": "1/1 Trường Chinh",
        "street": "Trường Chinh",
        "zone": "Quận Tân Phú",
        "ward": "Phường Tây Thạnh",
        "all_routes": "13, 23, 27, 48, 62, 65, 94",
        "marker_color": "#3949AB"
      }
    },
    {
      "type": "Feature",
      "geometry": {
        "type": "Point",
        "coordinates": [
          106.635269,
          10.8048
        ]
      },
      "properties": {
        "feature_type": "bus_stop",
        "stop_id": 2291,
        "stop_code": "QTP 016",
        "stop_name": "Trạm Tân Kỳ Tân Quý",
        "stop_type": "Trụ dừng",
        "route_no": "27",
        "display_code": "B 27",
        "direction": "Lượt về",
        "address": "33/24 (659-661) Trường Chinh",
        "street": "Trường Chinh",
        "zone": "Quận Tân Phú",
        "ward": "Phường Tây Thạnh",
        "all_routes": "13, 23, 27, 62, 65, 94",
        "marker_color": "#3949AB"
      }
    },
    {
      "type": "Feature",
      "geometry": {
        "type": "Point",
        "coordinates": [
          106.636814,
          10.800759
        ]
      },
      "properties": {
        "feature_type": "bus_stop",
        "stop_id": 2392,
        "stop_code": "QTP 001",
        "stop_name": "Trạm Ngã ba Bà Quẹo",
        "stop_type": "Trụ dừng",
        "route_no": "27",
        "display_code": "B 27",
        "direction": "Lượt về",
        "address": "971 Âu Cơ",
        "street": "Âu Cơ",
        "zone": "Quận Tân Phú",
        "ward": null,
        "all_routes": "27, 62",
        "marker_color": "#3949AB"
      }
    },
    {
      "type": "Feature",
      "geometry": {
        "type": "Point",
        "coordinates": [
          106.637497,
          10.798211
        ]
      },
      "properties": {
        "feature_type": "bus_stop",
        "stop_id": 2395,
        "stop_code": "QTP 002",
        "stop_name": "Trạm chợ Võ Thành Trang",
        "stop_type": "Trụ dừng",
        "route_no": "27",
        "display_code": "B 27",
        "direction": "Lượt về",
        "address": "885-887 Âu Cơ",
        "street": "Âu Cơ",
        "zone": "Quận Tân Phú",
        "ward": null,
        "all_routes": "27, 62",
        "marker_color": "#3949AB"
      }
    },
    {
      "type": "Feature",
      "geometry": {
        "type": "Point",
        "coordinates": [
          106.638618,
          10.794283
        ]
      },
      "properties": {
        "feature_type": "bus_stop",
        "stop_id": 2394,
        "stop_code": "QTP 003",
        "stop_name": "Trạm Lũy Bán Bích",
        "stop_type": "Trụ dừng",
        "route_no": "27",
        "display_code": "B 27",
        "direction": "Lượt về",
        "address": "825 Âu Cơ",
        "street": "Âu Cơ",
        "zone": "Quận Tân Phú",
        "ward": null,
        "all_routes": "27, 30, 62",
        "marker_color": "#3949AB"
      }
    },
    {
      "type": "Feature",
      "geometry": {
        "type": "Point",
        "coordinates": [
          106.640253,
          10.789466
        ]
      },
      "properties": {
        "feature_type": "bus_stop",
        "stop_id": 2396,
        "stop_code": "QTP 004",
        "stop_name": "Nguyễn Hồng Đào",
        "stop_type": "Trụ dừng",
        "route_no": "27",
        "display_code": "B 27",
        "direction": "Lượt về",
        "address": "Đối diện 770 Âu Cơ",
        "street": "Âu Cơ",
        "zone": "Quận Tân Phú",
        "ward": null,
        "all_routes": "23, 27, 62, 64",
        "marker_color": "#3949AB"
      }
    },
    {
      "type": "Feature",
      "geometry": {
        "type": "Point",
        "coordinates": [
          106.641235,
          10.786605
        ]
      },
      "properties": {
        "feature_type": "bus_stop",
        "stop_id": 2299,
        "stop_code": "QTP 005",
        "stop_name": "Trạm Ngã 4 Thoại Ngọc Hầu",
        "stop_type": "Ô sơn",
        "route_no": "27",
        "display_code": "B 27",
        "direction": "Lượt về",
        "address": "647 Âu Cơ",
        "street": "Âu Cơ",
        "zone": "Quận Tân Phú",
        "ward": "Phường Hoà Thạnh",
        "all_routes": "23, 27, 62, 64",
        "marker_color": "#3949AB"
      }
    },
    {
      "type": "Feature",
      "geometry": {
        "type": "Point",
        "coordinates": [
          106.642334,
          10.783712
        ]
      },
      "properties": {
        "feature_type": "bus_stop",
        "stop_id": 2300,
        "stop_code": "QTP 006",
        "stop_name": "Bệnh viện Quân Tân Phú",
        "stop_type": "Nhà chờ",
        "route_no": "27",
        "display_code": "B 27",
        "direction": "Lượt về",
        "address": "609-611 (577) Âu Cơ",
        "street": "Âu Cơ",
        "zone": "Quận Tân Phú",
        "ward": null,
        "all_routes": "23, 27",
        "marker_color": "#3949AB"
      }
    },
    {
      "type": "Feature",
      "geometry": {
        "type": "Point",
        "coordinates": [
          106.6437,
          10.780623
        ]
      },
      "properties": {
        "feature_type": "bus_stop",
        "stop_id": 2397,
        "stop_code": "QTP 007",
        "stop_name": "Bông Bạch Tuyết",
        "stop_type": "Trụ dừng",
        "route_no": "27",
        "display_code": "B 27",
        "direction": "Lượt về",
        "address": "523 Âu Cơ",
        "street": "Âu Cơ",
        "zone": "Quận Tân Phú",
        "ward": "Phường Phú Trung",
        "all_routes": "27",
        "marker_color": "#3949AB"
      }
    },
    {
      "type": "Feature",
      "geometry": {
        "type": "Point",
        "coordinates": [
          106.645332,
          10.778094
        ]
      },
      "properties": {
        "feature_type": "bus_stop",
        "stop_id": 2399,
        "stop_code": "QTP 008",
        "stop_name": "Trạm Chợ Trần Văn Quang",
        "stop_type": "Trụ dừng",
        "route_no": "27",
        "display_code": "B 27",
        "direction": "Lượt về",
        "address": "425 Âu Cơ",
        "street": "Âu Cơ",
        "zone": "Quận Tân Phú",
        "ward": "Phường Phú Trung",
        "all_routes": "27",
        "marker_color": "#3949AB"
      }
    },
    {
      "type": "Feature",
      "geometry": {
        "type": "Point",
        "coordinates": [
          106.64724,
          10.775459
        ]
      },
      "properties": {
        "feature_type": "bus_stop",
        "stop_id": 2398,
        "stop_code": "QTP 009",
        "stop_name": "Trạm Nhà Thiếu Nhi Q.TB",
        "stop_type": "Ô sơn",
        "route_no": "27",
        "display_code": "B 27",
        "direction": "Lượt về",
        "address": "309 Âu Cơ",
        "street": "Âu Cơ",
        "zone": "Quận Tân Phú",
        "ward": null,
        "all_routes": "27",
        "marker_color": "#3949AB"
      }
    },
    {
      "type": "Feature",
      "geometry": {
        "type": "Point",
        "coordinates": [
          106.648863,
          10.77333
        ]
      },
      "properties": {
        "feature_type": "bus_stop",
        "stop_id": 2401,
        "stop_code": "Q11 079",
        "stop_name": "Trường Phạm Ngọc Thạch",
        "stop_type": "Nhà chờ",
        "route_no": "27",
        "display_code": "B 27",
        "direction": "Lượt về",
        "address": "185-189 Âu Cơ",
        "street": "Âu Cơ",
        "zone": "Quận 11",
        "ward": null,
        "all_routes": "27, 38",
        "marker_color": "#3949AB"
      }
    },
    {
      "type": "Feature",
      "geometry": {
        "type": "Point",
        "coordinates": [
          106.650436,
          10.770953
        ]
      },
      "properties": {
        "feature_type": "bus_stop",
        "stop_id": 2400,
        "stop_code": "Q11 080",
        "stop_name": "Chợ Tân Phước",
        "stop_type": "Trụ dừng",
        "route_no": "27",
        "display_code": "B 27",
        "direction": "Lượt về",
        "address": "113-115(105) Âu Cơ",
        "street": "Âu Cơ",
        "zone": "Quận 11",
        "ward": null,
        "all_routes": "27, 38",
        "marker_color": "#3949AB"
      }
    },
    {
      "type": "Feature",
      "geometry": {
        "type": "Point",
        "coordinates": [
          106.651524,
          10.769483
        ]
      },
      "properties": {
        "feature_type": "bus_stop",
        "stop_id": 2404,
        "stop_code": "Q11 081",
        "stop_name": "Bình Thới",
        "stop_type": "Trụ dừng",
        "route_no": "27",
        "display_code": "B 27",
        "direction": "Lượt về",
        "address": "27P Âu Cơ",
        "street": "Âu Cơ",
        "zone": "Quận 11",
        "ward": null,
        "all_routes": "27, 38",
        "marker_color": "#3949AB"
      }
    },
    {
      "type": "Feature",
      "geometry": {
        "type": "Point",
        "coordinates": [
          106.653358,
          10.767281
        ]
      },
      "properties": {
        "feature_type": "bus_stop",
        "stop_id": 2402,
        "stop_code": "Q11 026",
        "stop_name": "Trường Đua Phú Thọ",
        "stop_type": "Trụ dừng",
        "route_no": "27",
        "display_code": "B 27",
        "direction": "Lượt về",
        "address": "407A Lê Đại Hành",
        "street": "Lê Đại Hành",
        "zone": "Quận 11",
        "ward": null,
        "all_routes": "27",
        "marker_color": "#3949AB"
      }
    },
    {
      "type": "Feature",
      "geometry": {
        "type": "Point",
        "coordinates": [
          106.654617,
          10.765484
        ]
      },
      "properties": {
        "feature_type": "bus_stop",
        "stop_id": 2406,
        "stop_code": "Q11 027",
        "stop_name": "Tôn Thất Hiệp",
        "stop_type": "Trụ dừng",
        "route_no": "27",
        "display_code": "B 27",
        "direction": "Lượt về",
        "address": "321 Lê Đại Hành",
        "street": "Lê Đại Hành",
        "zone": "Quận 11",
        "ward": null,
        "all_routes": "27",
        "marker_color": "#3949AB"
      }
    },
    {
      "type": "Feature",
      "geometry": {
        "type": "Point",
        "coordinates": [
          106.656319,
          10.763117
        ]
      },
      "properties": {
        "feature_type": "bus_stop",
        "stop_id": 2403,
        "stop_code": "Q11 028",
        "stop_name": "Đường 3/2",
        "stop_type": "Trụ dừng",
        "route_no": "27",
        "display_code": "B 27",
        "direction": "Lượt về",
        "address": "157 Lê Đại Hành",
        "street": "Lê Đại Hành",
        "zone": "Quận 11",
        "ward": null,
        "all_routes": "27",
        "marker_color": "#3949AB"
      }
    },
    {
      "type": "Feature",
      "geometry": {
        "type": "Point",
        "coordinates": [
          106.657881,
          10.762574
        ]
      },
      "properties": {
        "feature_type": "bus_stop",
        "stop_id": 155,
        "stop_code": "Q11 015",
        "stop_name": "Phú Thọ",
        "stop_type": "Nhà chờ",
        "route_no": "27",
        "display_code": "B 27",
        "direction": "Lượt về",
        "address": "957 Đường 3/2",
        "street": "Đường 3/2",
        "zone": "Quận 11",
        "ward": null,
        "all_routes": "103, 14, 27",
        "marker_color": "#3949AB"
      }
    },
    {
      "type": "Feature",
      "geometry": {
        "type": "Point",
        "coordinates": [
          106.661078,
          10.76434
        ]
      },
      "properties": {
        "feature_type": "bus_stop",
        "stop_id": 156,
        "stop_code": "Q10 009",
        "stop_name": "Ngã ba Nguyễn Kim",
        "stop_type": "Trụ dừng",
        "route_no": "27",
        "display_code": "B 27",
        "direction": "Lượt về",
        "address": "781 Đường 3/2",
        "street": "Đường 3/2",
        "zone": "Quận 10",
        "ward": null,
        "all_routes": "14, 27",
        "marker_color": "#3949AB"
      }
    },
    {
      "type": "Feature",
      "geometry": {
        "type": "Point",
        "coordinates": [
          106.664627,
          10.766232
        ]
      },
      "properties": {
        "feature_type": "bus_stop",
        "stop_id": 157,
        "stop_code": "Q10 010",
        "stop_name": "Nhà thờ tin lành Nguyễn Tri Phương",
        "stop_type": "Trụ dừng",
        "route_no": "27",
        "display_code": "B 27",
        "direction": "Lượt về",
        "address": "635 Đường 3/2",
        "street": "Đường 3/2",
        "zone": "Quận 10",
        "ward": null,
        "all_routes": "14, 27",
        "marker_color": "#3949AB"
      }
    },
    {
      "type": "Feature",
      "geometry": {
        "type": "Point",
        "coordinates": [
          106.67038,
          10.767765
        ]
      },
      "properties": {
        "feature_type": "bus_stop",
        "stop_id": 1397,
        "stop_code": "Q10 031",
        "stop_name": "Bệnh viện Nhi Đồng 1",
        "stop_type": "Trụ dừng",
        "route_no": "27",
        "display_code": "B 27",
        "direction": "Lượt về",
        "address": "359 Lý Thái Tổ",
        "street": "Lý Thái Tổ",
        "zone": "Quận 10",
        "ward": null,
        "all_routes": "10, 14, 27, 38, 69",
        "marker_color": "#3949AB"
      }
    },
    {
      "type": "Feature",
      "geometry": {
        "type": "Point",
        "coordinates": [
          106.673357,
          10.767623
        ]
      },
      "properties": {
        "feature_type": "bus_stop",
        "stop_id": 1398,
        "stop_code": "Q10 032",
        "stop_name": "Vòng xoay Lý Thái Tổ",
        "stop_type": "Trụ dừng",
        "route_no": "27",
        "display_code": "B 27",
        "direction": "Lượt về",
        "address": "183 Lý Thái Tổ",
        "street": "Lý Thái Tổ",
        "zone": "Quận 10",
        "ward": null,
        "all_routes": "10, 14, 27, 69",
        "marker_color": "#3949AB"
      }
    },
    {
      "type": "Feature",
      "geometry": {
        "type": "Point",
        "coordinates": [
          106.675572,
          10.767196
        ]
      },
      "properties": {
        "feature_type": "bus_stop",
        "stop_id": 1404,
        "stop_code": "Q10 033",
        "stop_name": "Chợ hoa Hồ Thị Kỷ",
        "stop_type": "Trụ dừng",
        "route_no": "27",
        "display_code": "B 27",
        "direction": "Lượt về",
        "address": "87 Lý Thái Tổ",
        "street": "Lý Thái Tổ",
        "zone": "Quận 10",
        "ward": null,
        "all_routes": "14, 27, 69",
        "marker_color": "#3949AB"
      }
    },
    {
      "type": "Feature",
      "geometry": {
        "type": "Point",
        "coordinates": [
          106.677799,
          10.766522
        ]
      },
      "properties": {
        "feature_type": "bus_stop",
        "stop_id": 1402,
        "stop_code": "Q10 034",
        "stop_name": "Công viên số 1 Lý Thái Tổ",
        "stop_type": "Nhà chờ",
        "route_no": "27",
        "display_code": "B 27",
        "direction": "Lượt về",
        "address": "Đối diện 180 (1B) Lý Thái Tổ",
        "street": "Lý Thái Tổ",
        "zone": "Quận 10",
        "ward": null,
        "all_routes": "14, 27, 69",
        "marker_color": "#3949AB"
      }
    },
    {
      "type": "Feature",
      "geometry": {
        "type": "Point",
        "coordinates": [
          106.680449,
          10.76571
        ]
      },
      "properties": {
        "feature_type": "bus_stop",
        "stop_id": 1406,
        "stop_code": "Q10 035",
        "stop_name": "Ngã sáu Cộng Hòa",
        "stop_type": "Nhà chờ",
        "route_no": "27",
        "display_code": "B 27",
        "direction": "Lượt về",
        "address": "Đối diện 30-32 Lý Thái Tổ",
        "street": "Lý Thái Tổ",
        "zone": "Quận 10",
        "ward": null,
        "all_routes": "14, 27, 69",
        "marker_color": "#3949AB"
      }
    },
    {
      "type": "Feature",
      "geometry": {
        "type": "Point",
        "coordinates": [
          106.6828,
          10.76602
        ]
      },
      "properties": {
        "feature_type": "bus_stop",
        "stop_id": 2405,
        "stop_code": "Q1 143",
        "stop_name": "Nhà Sách Minh Khai",
        "stop_type": "Trụ dừng",
        "route_no": "27",
        "display_code": "B 27",
        "direction": "Lượt về",
        "address": "59-61 Phạm Viết Chánh",
        "street": "Phạm Viết Chánh",
        "zone": "Quận 1",
        "ward": null,
        "all_routes": "27, 53",
        "marker_color": "#3949AB"
      }
    },
    {
      "type": "Feature",
      "geometry": {
        "type": "Point",
        "coordinates": [
          106.685084,
          10.767597
        ]
      },
      "properties": {
        "feature_type": "bus_stop",
        "stop_id": 2407,
        "stop_code": "Q1 144",
        "stop_name": "Bệnh viện Từ Dũ",
        "stop_type": "Trụ dừng",
        "route_no": "27",
        "display_code": "B 27",
        "direction": "Lượt về",
        "address": "19-21 Phạm Viết Chánh",
        "street": "Phạm Viết Chánh",
        "zone": "Quận 1",
        "ward": "Phường Nguyễn Cư Trinh",
        "all_routes": "27, 53",
        "marker_color": "#3949AB"
      }
    },
    {
      "type": "Feature",
      "geometry": {
        "type": "Point",
        "coordinates": [
          106.687653,
          10.766863
        ]
      },
      "properties": {
        "feature_type": "bus_stop",
        "stop_id": 164,
        "stop_code": "Q1 007",
        "stop_name": "Chợ Thái Bình",
        "stop_type": "Trụ dừng",
        "route_no": "27",
        "display_code": "B 27",
        "direction": "Lượt về",
        "address": "187A Cống Quỳnh",
        "street": "Cống Quỳnh",
        "zone": "Quận 1",
        "ward": null,
        "all_routes": "156V, 27, 53",
        "marker_color": "#3949AB"
      }
    }
  ]
}