{
  "type": "FeatureCollection",
  "properties": {
    "stt": 22,
    "route_no": "87",
    "display_code": "B 87",
    "route_name": "Bến xe Củ Chi - An Nhơn Tây",
    "start_point": "Bến xe Củ Chi",
    "end_point": "An Nhơn Tây",
    "listed_length_km": 20,
    "operating_hours": "5:00 - 20:30",
    "color": "#673AB7",
    "num_variants": 2,
    "total_stops": 72,
    "total_points": 573
  },
  "features": [
    {
      "type": "Feature",
      "geometry": {
        "type": "LineString",
        "coordinates": [
          [
            106.48210144,
            10.97161674
          ],
          [
            106.48188782,
            10.9717598
          ],
          [
            106.48284149,
            10.97319031
          ],
          [
            106.48355865,
            10.97437
          ],
          [
            106.48423767,
            10.9755497
          ],
          [
            106.48432922,
            10.97591972
          ],
          [
            106.48432922,
            10.97653961
          ],
          [
            106.48428345,
            10.97807026
          ],
          [
            106.48426819,
            10.97861958
          ],
          [
            106.48428345,
            10.97861671
          ],
          [
            106.48428345,
            10.97861671
          ],
          [
            106.48428345,
            10.97861671
          ],
          [
            106.48428345,
            10.97861671
          ],
          [
            106.48426819,
            10.97861958
          ],
          [
            106.48418427,
            10.97971153
          ],
          [
            106.48418427,
            10.98080158
          ],
          [
            106.48412323,
            10.98187065
          ],
          [
            106.48409271,
            10.98296642
          ],
          [
            106.48415375,
            10.98309803
          ],
          [
            106.48410034,
            10.98326111
          ],
          [
            106.48406982,
            10.98397732
          ],
          [
            106.48407745,
            10.98468304
          ],
          [
            106.48421478,
            10.98469257
          ],
          [
            106.48421478,
            10.98469257
          ],
          [
            106.48421478,
            10.98469257
          ],
          [
            106.48421478,
            10.98469257
          ],
          [
            106.48421478,
            10.98469257
          ],
          [
            106.48421478,
            10.98469257
          ],
          [
            106.48406219,
            10.98469353
          ],
          [
            106.48406982,
            10.98561478
          ],
          [
            106.48402405,
            10.98653603
          ],
          [
            106.48402405,
            10.98745823
          ],
          [
            106.4839859,
            10.98837948
          ],
          [
            106.48409271,
            10.98838043
          ],
          [
            106.48409271,
            10.98838043
          ],
          [
            106.48409271,
            10.98838043
          ],
          [
            106.48409271,
            10.98838043
          ],
          [
            106.4839859,
            10.98837948
          ],
          [
            106.48397064,
            10.98922729
          ],
          [
            106.48390961,
            10.99007511
          ],
          [
            106.48382568,
            10.99026489
          ],
          [
            106.48374939,
            10.99093342
          ],
          [
            106.48374939,
            10.99219227
          ],
          [
            106.48368835,
            10.99341869
          ],
          [
            106.48383331,
            10.99342442
          ],
          [
            106.48383331,
            10.99342442
          ],
          [
            106.4836731,
            10.99342918
          ],
          [
            106.48362732,
            10.9943037
          ],
          [
            106.48358154,
            10.99525166
          ],
          [
            106.4838562,
            10.99618912
          ],
          [
            106.48413086,
            10.99683189
          ],
          [
            106.48428345,
            10.99744797
          ],
          [
            106.48442841,
            10.99741554
          ],
          [
            106.48442841,
            10.99741554
          ],
          [
            106.48442841,
            10.99741554
          ],
          [
            106.48429871,
            10.99745846
          ],
          [
            106.48464966,
            10.99877453
          ],
          [
            106.48361206,
            10.99922752
          ],
          [
            106.48258209,
            10.99962807
          ],
          [
            106.48262787,
            10.99975395
          ],
          [
            106.48262787,
            10.99975395
          ],
          [
            106.48262787,
            10.99975395
          ],
          [
            106.48262787,
            10.99975395
          ],
          [
            106.48257446,
            10.99966431
          ],
          [
            106.48123169,
            11.00031757
          ],
          [
            106.4807663,
            11.00058556
          ],
          [
            106.47923279,
            11.00150204
          ],
          [
            106.47737122,
            11.00280285
          ],
          [
            106.47692871,
            11.00327682
          ],
          [
            106.47702789,
            11.00337696
          ],
          [
            106.47702789,
            11.00337696
          ],
          [
            106.47702789,
            11.00337696
          ],
          [
            106.47686768,
            11.0032711
          ],
          [
            106.47586823,
            11.00424576
          ],
          [
            106.47498322,
            11.00527763
          ],
          [
            106.47399902,
            11.00621033
          ],
          [
            106.47314453,
            11.00717831
          ],
          [
            106.47328949,
            11.00729465
          ],
          [
            106.47328949,
            11.00729465
          ],
          [
            106.47328949,
            11.00729465
          ],
          [
            106.4731369,
            11.00718403
          ],
          [
            106.47261047,
            11.0077343
          ],
          [
            106.47209167,
            11.00830555
          ],
          [
            106.47161865,
            11.00878239
          ],
          [
            106.471138,
            11.00925827
          ],
          [
            106.47127533,
            11.00935936
          ],
          [
            106.47127533,
            11.00935936
          ],
          [
            106.47127533,
            11.00935936
          ],
          [
            106.47116852,
            11.00925827
          ],
          [
            106.4706192,
            11.00984287
          ],
          [
            106.47006989,
            11.01042747
          ],
          [
            106.47012329,
            11.01047516
          ],
          [
            106.47012329,
            11.01047516
          ],
          [
            106.47008514,
            11.0104332
          ],
          [
            106.46961975,
            11.01091862
          ],
          [
            106.46916199,
            11.01140404
          ],
          [
            106.46870422,
            11.01189041
          ],
          [
            106.46824646,
            11.01237583
          ],
          [
            106.46837616,
            11.01249695
          ],
          [
            106.46837616,
            11.01249695
          ],
          [
            106.46837616,
            11.01249695
          ],
          [
            106.46823883,
            11.01237583
          ],
          [
            106.46751404,
            11.01315498
          ],
          [
            106.46675873,
            11.01391888
          ],
          [
            106.46605682,
            11.01468754
          ],
          [
            106.46535492,
            11.0154562
          ],
          [
            106.46459961,
            11.01623344
          ],
          [
            106.46385193,
            11.01700974
          ],
          [
            106.46312714,
            11.0178051
          ],
          [
            106.4623642,
            11.01858425
          ],
          [
            106.46245575,
            11.01864719
          ],
          [
            106.46245575,
            11.01864719
          ],
          [
            106.46245575,
            11.01864719
          ],
          [
            106.46237183,
            11.01858902
          ],
          [
            106.46159363,
            11.01944733
          ],
          [
            106.46075439,
            11.02029514
          ],
          [
            106.46009064,
            11.02102757
          ],
          [
            106.45937347,
            11.02174377
          ],
          [
            106.45942688,
            11.02177525
          ],
          [
            106.45942688,
            11.02177525
          ],
          [
            106.45942688,
            11.02177525
          ],
          [
            106.45938873,
            11.02173328
          ],
          [
            106.45866394,
            11.02255917
          ],
          [
            106.45787811,
            11.02335453
          ],
          [
            106.45713043,
            11.02417088
          ],
          [
            106.45640564,
            11.02496624
          ],
          [
            106.45640564,
            11.02496624
          ],
          [
            106.45571899,
            11.02563953
          ],
          [
            106.45504761,
            11.02633476
          ],
          [
            106.45417023,
            11.02725124
          ],
          [
            106.45376587,
            11.02773857
          ],
          [
            106.45376587,
            11.02773857
          ],
          [
            106.45314789,
            11.02835655
          ],
          [
            106.45246887,
            11.02911472
          ],
          [
            106.45117188,
            11.0304594
          ],
          [
            106.44989777,
            11.03185272
          ],
          [
            106.44923401,
            11.03253746
          ],
          [
            106.44858551,
            11.03318024
          ],
          [
            106.44858551,
            11.03318024
          ],
          [
            106.44858551,
            11.03318024
          ],
          [
            106.44792175,
            11.03393841
          ],
          [
            106.44724274,
            11.03469086
          ],
          [
            106.44800568,
            11.0353756
          ],
          [
            106.44870758,
            11.03608131
          ],
          [
            106.44943237,
            11.03678608
          ],
          [
            106.45018005,
            11.03747082
          ],
          [
            106.45024109,
            11.03744984
          ],
          [
            106.45024109,
            11.03744984
          ],
          [
            106.45019531,
            11.03747654
          ],
          [
            106.45050812,
            11.03779221
          ],
          [
            106.45133972,
            11.0383873
          ],
          [
            106.45256042,
            11.03927708
          ],
          [
            106.4539566,
            11.04025078
          ],
          [
            106.4547348,
            11.04087257
          ],
          [
            106.45481873,
            11.04111481
          ],
          [
            106.45487976,
            11.04110432
          ],
          [
            106.45487976,
            11.04110432
          ],
          [
            106.45487976,
            11.04110432
          ],
          [
            106.45487976,
            11.04110432
          ],
          [
            106.45481873,
            11.04111958
          ],
          [
            106.45491028,
            11.04167271
          ],
          [
            106.45495605,
            11.04222298
          ],
          [
            106.4549942,
            11.04278755
          ],
          [
            106.45503235,
            11.04335213
          ],
          [
            106.45517731,
            11.04334736
          ],
          [
            106.45517731,
            11.04334736
          ],
          [
            106.45517731,
            11.04334736
          ],
          [
            106.45517731,
            11.04334736
          ],
          [
            106.4550705,
            11.04336262
          ],
          [
            106.45511627,
            11.04454708
          ],
          [
            106.45516205,
            11.04573154
          ],
          [
            106.45523071,
            11.04692745
          ],
          [
            106.45521545,
            11.04812717
          ],
          [
            106.4552536,
            11.04812241
          ],
          [
            106.4552536,
            11.04812241
          ],
          [
            106.4552536,
            11.04812241
          ],
          [
            106.45521545,
            11.0481329
          ],
          [
            106.45523834,
            11.04872227
          ],
          [
            106.45536041,
            11.04918003
          ],
          [
            106.45563507,
            11.04958057
          ],
          [
            106.45573425,
            11.05004883
          ],
          [
            106.45594788,
            11.05132008
          ],
          [
            106.45613861,
            11.05211353
          ],
          [
            106.45633698,
            11.05292892
          ],
          [
            106.45657349,
            11.05375004
          ],
          [
            106.45682526,
            11.05463982
          ],
          [
            106.45697021,
            11.05481434
          ],
          [
            106.45723724,
            11.05515575
          ],
          [
            106.45781708,
            11.05571938
          ],
          [
            106.45819855,
            11.05599022
          ],
          [
            106.45847321,
            11.05609035
          ],
          [
            106.4594574,
            11.05624962
          ],
          [
            106.45978546,
            11.05625629
          ],
          [
            106.4610672,
            11.05615616
          ],
          [
            106.4610672,
            11.05608273
          ],
          [
            106.4610672,
            11.05608273
          ],
          [
            106.4610672,
            11.05608273
          ],
          [
            106.46109009,
            11.05613518
          ],
          [
            106.46257782,
            11.05597496
          ],
          [
            106.46407318,
            11.05581474
          ],
          [
            106.46559906,
            11.05565357
          ],
          [
            106.46710968,
            11.05554008
          ],
          [
            106.46711731,
            11.05549335
          ],
          [
            106.46711731,
            11.05549335
          ],
          [
            106.46712494,
            11.05552959
          ],
          [
            106.46836853,
            11.0554409
          ],
          [
            106.46909332,
            11.05542469
          ],
          [
            106.46954346,
            11.05559349
          ],
          [
            106.47060394,
            11.05618763
          ],
          [
            106.47164154,
            11.05676746
          ],
          [
            106.47166443,
            11.05671978
          ],
          [
            106.47166443,
            11.05671978
          ],
          [
            106.4716568,
            11.05679321
          ],
          [
            106.47280121,
            11.05745697
          ],
          [
            106.47394562,
            11.05812073
          ],
          [
            106.47509003,
            11.05881023
          ],
          [
            106.47624207,
            11.059515
          ],
          [
            106.47628021,
            11.05944157
          ],
          [
            106.47628021,
            11.05944157
          ],
          [
            106.47628021,
            11.05944157
          ],
          [
            106.47628021,
            11.05944157
          ],
          [
            106.47622681,
            11.05950451
          ],
          [
            106.47702789,
            11.06002331
          ],
          [
            106.47782898,
            11.06054211
          ],
          [
            106.47865295,
            11.06103706
          ],
          [
            106.4794693,
            11.06153202
          ],
          [
            106.47955322,
            11.06147385
          ],
          [
            106.47955322,
            11.06147385
          ],
          [
            106.47955322,
            11.06147385
          ],
          [
            106.47955322,
            11.06147385
          ],
          [
            106.47955322,
            11.06147385
          ],
          [
            106.47955322,
            11.06147385
          ],
          [
            106.47951508,
            11.06155777
          ],
          [
            106.48061371,
            11.06224537
          ],
          [
            106.48171997,
            11.06293201
          ],
          [
            106.48395538,
            11.06430626
          ],
          [
            106.48457336,
            11.06469059
          ],
          [
            106.48519897,
            11.06509113
          ],
          [
            106.48526764,
            11.06504345
          ],
          [
            106.48526764,
            11.06504345
          ],
          [
            106.48526764,
            11.06504345
          ],
          [
            106.48526764,
            11.06504345
          ],
          [
            106.48522186,
            11.06507969
          ],
          [
            106.4858551,
            11.06552505
          ],
          [
            106.48648071,
            11.06597042
          ],
          [
            106.48711395,
            11.06641483
          ],
          [
            106.48773956,
            11.0668602
          ],
          [
            106.48777771,
            11.06680679
          ],
          [
            106.48777771,
            11.06680679
          ],
          [
            106.48777771,
            11.06680679
          ],
          [
            106.48773956,
            11.0668602
          ],
          [
            106.48873138,
            11.06756592
          ],
          [
            106.48973083,
            11.06827068
          ],
          [
            106.49054718,
            11.06890202
          ],
          [
            106.49184418,
            11.06993103
          ],
          [
            106.49314117,
            11.07096004
          ],
          [
            106.49317932,
            11.07087135
          ],
          [
            106.49317932,
            11.07087135
          ],
          [
            106.49317932,
            11.07087135
          ],
          [
            106.49317932,
            11.07087135
          ],
          [
            106.49314117,
            11.07096004
          ],
          [
            106.49497986,
            11.0723896
          ],
          [
            106.49729919,
            11.07417202
          ],
          [
            106.49906921,
            11.07540417
          ],
          [
            106.49911499,
            11.07535744
          ],
          [
            106.49911499,
            11.07535744
          ],
          [
            106.49911499,
            11.07535744
          ],
          [
            106.49986267,
            11.07590389
          ],
          [
            106.50064087,
            11.07644653
          ],
          [
            106.50147247,
            11.07696819
          ],
          [
            106.50219727,
            11.07753658
          ],
          [
            106.50354767,
            11.07882595
          ],
          [
            106.50423431,
            11.07946301
          ],
          [
            106.50492859,
            11.08010006
          ],
          [
            106.50492859,
            11.08010006
          ],
          [
            106.50548553,
            11.0806427
          ],
          [
            106.50606537,
            11.08117962
          ],
          [
            106.50666046,
            11.08171082
          ],
          [
            106.50725555,
            11.0822401
          ],
          [
            106.50725555,
            11.0822401
          ],
          [
            106.50785828,
            11.08281136
          ],
          [
            106.50846863,
            11.08337975
          ],
          [
            106.50910187,
            11.08394337
          ],
          [
            106.50973511,
            11.08450603
          ],
          [
            106.50979614,
            11.08446407
          ],
          [
            106.50979614,
            11.08446407
          ],
          [
            106.5131073,
            11.08750153
          ],
          [
            106.5131073,
            11.08750153
          ],
          [
            106.51335144,
            11.08777523
          ],
          [
            106.51364136,
            11.08804893
          ],
          [
            106.51418304,
            11.08856487
          ],
          [
            106.51409912,
            11.08893871
          ],
          [
            106.51410675,
            11.08907127
          ],
          [
            106.51410675,
            11.08907127
          ],
          [
            106.51410675,
            11.08907127
          ],
          [
            106.51405334,
            11.08904934
          ],
          [
            106.51384735,
            11.08988953
          ],
          [
            106.51294708,
            11.08962345
          ],
          [
            106.51217651,
            11.08924961
          ],
          [
            106.51158142,
            11.0887394
          ],
          [
            106.51099396,
            11.08822823
          ],
          [
            106.51109314,
            11.08813381
          ],
          [
            106.51109314,
            11.08813381
          ]
        ]
      },
      "properties": {
        "feature_type": "route_path",
        "stt": 22,
        "route_id": 127,
        "route_no": "87",
        "display_code": "B 87",
        "route_name": "Bến xe Củ Chi - An Nhơn Tây",
        "direction": "Lượt đi",
        "outbound": true,
        "start_point": "Bến xe Củ Chi",
        "end_point": "An Nhơn Tây",
        "start_stop": "Bến xe Củ Chi",
        "end_stop": "Bến xe buýt An Nhơn Tây",
        "distance_km": 20.22,
        "listed_length_km": 20,
        "running_time_min": 40,
        "operating_hours": "5:00 - 20:30",
        "stroke": "#673AB7",
        "stroke_width": 4,
        "stroke_opacity": 0.85
      }
    },
    {
      "type": "Feature",
      "geometry": {
        "type": "LineString",
        "coordinates": [
          [
            106.51109314,
            11.08813381
          ],
          [
            106.51099396,
            11.08822823
          ],
          [
            106.51217651,
            11.08921814
          ],
          [
            106.51295471,
            11.08962345
          ],
          [
            106.51384735,
            11.08988953
          ],
          [
            106.51394653,
            11.08948612
          ],
          [
            106.5138855,
            11.08946705
          ],
          [
            106.5138855,
            11.08946705
          ],
          [
            106.51406097,
            11.08904934
          ],
          [
            106.51418304,
            11.08859634
          ],
          [
            106.5135498,
            11.08800697
          ],
          [
            106.51322174,
            11.08769608
          ],
          [
            106.51285553,
            11.08742332
          ],
          [
            106.51285553,
            11.08742332
          ],
          [
            106.51024628,
            11.08507538
          ],
          [
            106.51024628,
            11.08507538
          ],
          [
            106.51028442,
            11.08501148
          ],
          [
            106.5085907,
            11.08349991
          ],
          [
            106.50749207,
            11.08252716
          ],
          [
            106.50744629,
            11.08256912
          ],
          [
            106.50744629,
            11.08256912
          ],
          [
            106.50744629,
            11.08256912
          ],
          [
            106.50749969,
            11.08252716
          ],
          [
            106.50636292,
            11.08148479
          ],
          [
            106.50518799,
            11.08039474
          ],
          [
            106.50513458,
            11.08044815
          ],
          [
            106.50513458,
            11.08044815
          ],
          [
            106.50513458,
            11.08044815
          ],
          [
            106.50515747,
            11.08038998
          ],
          [
            106.5045166,
            11.07977962
          ],
          [
            106.50241089,
            11.07772064
          ],
          [
            106.50169373,
            11.077178
          ],
          [
            106.49946594,
            11.07566738
          ],
          [
            106.4994278,
            11.07573128
          ],
          [
            106.4994278,
            11.07573128
          ],
          [
            106.49946594,
            11.07566738
          ],
          [
            106.49749756,
            11.07432461
          ],
          [
            106.49596405,
            11.07314587
          ],
          [
            106.49481201,
            11.0722599
          ],
          [
            106.4934845,
            11.07119274
          ],
          [
            106.49344635,
            11.0712328
          ],
          [
            106.49344635,
            11.0712328
          ],
          [
            106.49344635,
            11.0712328
          ],
          [
            106.4934845,
            11.07118702
          ],
          [
            106.4916687,
            11.06976032
          ],
          [
            106.48974609,
            11.06828117
          ],
          [
            106.48912048,
            11.06785011
          ],
          [
            106.48806763,
            11.0671072
          ],
          [
            106.48802948,
            11.06715488
          ],
          [
            106.48802948,
            11.06715488
          ],
          [
            106.48802948,
            11.06715488
          ],
          [
            106.48802948,
            11.06715488
          ],
          [
            106.48806763,
            11.06709099
          ],
          [
            106.48654938,
            11.06601715
          ],
          [
            106.4849472,
            11.06490612
          ],
          [
            106.48492432,
            11.06494904
          ],
          [
            106.48492432,
            11.06494904
          ],
          [
            106.48492432,
            11.06494904
          ],
          [
            106.4849472,
            11.06488037
          ],
          [
            106.48297882,
            11.06363964
          ],
          [
            106.47901154,
            11.06122112
          ],
          [
            106.47897339,
            11.06129456
          ],
          [
            106.47897339,
            11.06129456
          ],
          [
            106.47902679,
            11.0612421
          ],
          [
            106.47780609,
            11.06048393
          ],
          [
            106.4765625,
            11.05969429
          ],
          [
            106.47651672,
            11.05973339
          ],
          [
            106.47651672,
            11.05973339
          ],
          [
            106.47653961,
            11.0597105
          ],
          [
            106.47596741,
            11.05935478
          ],
          [
            106.4753952,
            11.05899906
          ],
          [
            106.474823,
            11.05864429
          ],
          [
            106.47424316,
            11.05828857
          ],
          [
            106.47366333,
            11.05795097
          ],
          [
            106.47307587,
            11.05761242
          ],
          [
            106.47249603,
            11.05727386
          ],
          [
            106.47190857,
            11.05693531
          ],
          [
            106.47188568,
            11.05698299
          ],
          [
            106.47188568,
            11.05698299
          ],
          [
            106.47190857,
            11.05693531
          ],
          [
            106.47084808,
            11.05633545
          ],
          [
            106.4697876,
            11.05573559
          ],
          [
            106.4691925,
            11.05545139
          ],
          [
            106.46858978,
            11.05545616
          ],
          [
            106.46724701,
            11.05554008
          ],
          [
            106.46591187,
            11.05562496
          ],
          [
            106.46591949,
            11.05568314
          ],
          [
            106.46591949,
            11.05568314
          ],
          [
            106.46591949,
            11.05563545
          ],
          [
            106.4646759,
            11.05575085
          ],
          [
            106.46343994,
            11.05588818
          ],
          [
            106.46220398,
            11.05603027
          ],
          [
            106.46096039,
            11.05617237
          ],
          [
            106.46097565,
            11.05620861
          ],
          [
            106.46097565,
            11.05620861
          ],
          [
            106.46098328,
            11.05616188
          ],
          [
            106.45986176,
            11.05629349
          ],
          [
            106.45928192,
            11.05625629
          ],
          [
            106.45870972,
            11.05613518
          ],
          [
            106.45819855,
            11.05599022
          ],
          [
            106.45779419,
            11.05573559
          ],
          [
            106.45715332,
            11.05513477
          ],
          [
            106.45690155,
            11.0548296
          ],
          [
            106.45676422,
            11.05449295
          ],
          [
            106.45650482,
            11.05362415
          ],
          [
            106.45615387,
            11.05237675
          ],
          [
            106.45592499,
            11.05113411
          ],
          [
            106.45561981,
            11.04958057
          ],
          [
            106.45539856,
            11.04936981
          ],
          [
            106.45520782,
            11.04890633
          ],
          [
            106.45521545,
            11.04854298
          ],
          [
            106.45514679,
            11.0485487
          ],
          [
            106.45514679,
            11.0485487
          ],
          [
            106.45520782,
            11.0485487
          ],
          [
            106.45518494,
            11.04730701
          ],
          [
            106.45513916,
            11.04612255
          ],
          [
            106.45510101,
            11.04493904
          ],
          [
            106.45506287,
            11.04375458
          ],
          [
            106.45506287,
            11.04375458
          ],
          [
            106.45506287,
            11.04375458
          ],
          [
            106.45506287,
            11.04375458
          ],
          [
            106.45506287,
            11.04375458
          ],
          [
            106.45506287,
            11.04375458
          ],
          [
            106.45500183,
            11.04264164
          ],
          [
            106.45489502,
            11.04153538
          ],
          [
            106.45485687,
            11.04116154
          ],
          [
            106.45472717,
            11.04083538
          ],
          [
            106.45437622,
            11.04060364
          ],
          [
            106.4537735,
            11.04016685
          ],
          [
            106.45372009,
            11.04023457
          ],
          [
            106.45372009,
            11.04023457
          ],
          [
            106.45372009,
            11.04023457
          ],
          [
            106.45372009,
            11.04023457
          ],
          [
            106.45378113,
            11.04016113
          ],
          [
            106.4519043,
            11.03879738
          ],
          [
            106.45050049,
            11.03779697
          ],
          [
            106.45007324,
            11.03739738
          ],
          [
            106.45004272,
            11.03742409
          ],
          [
            106.45004272,
            11.03742409
          ],
          [
            106.45004272,
            11.03742409
          ],
          [
            106.45004272,
            11.03742409
          ],
          [
            106.45008087,
            11.03739166
          ],
          [
            106.44972229,
            11.03705215
          ],
          [
            106.44936371,
            11.03671265
          ],
          [
            106.4489975,
            11.03637314
          ],
          [
            106.44863892,
            11.03603363
          ],
          [
            106.44828796,
            11.03569984
          ],
          [
            106.44793701,
            11.0353651
          ],
          [
            106.44757843,
            11.03503132
          ],
          [
            106.44722748,
            11.03469658
          ],
          [
            106.44765472,
            11.03423595
          ],
          [
            106.44807434,
            11.03377533
          ],
          [
            106.44850159,
            11.03331375
          ],
          [
            106.44892883,
            11.03285313
          ],
          [
            106.44888306,
            11.03280067
          ],
          [
            106.44888306,
            11.03280067
          ],
          [
            106.44888306,
            11.03280067
          ],
          [
            106.44894409,
            11.03283215
          ],
          [
            106.45022583,
            11.03146362
          ],
          [
            106.45152283,
            11.03011036
          ],
          [
            106.45281982,
            11.02870941
          ],
          [
            106.45413208,
            11.02730942
          ],
          [
            106.45400238,
            11.02717686
          ],
          [
            106.45400238,
            11.02717686
          ],
          [
            106.45400238,
            11.02717686
          ],
          [
            106.45400238,
            11.02717686
          ],
          [
            106.45400238,
            11.02717686
          ],
          [
            106.45413971,
            11.02728271
          ],
          [
            106.45546722,
            11.02593517
          ],
          [
            106.45677185,
            11.02453423
          ],
          [
            106.45661926,
            11.02437592
          ],
          [
            106.45661926,
            11.02437592
          ],
          [
            106.45661926,
            11.02437592
          ],
          [
            106.45661926,
            11.02437592
          ],
          [
            106.45661926,
            11.02437592
          ],
          [
            106.45681,
            11.02448177
          ],
          [
            106.45831299,
            11.02291203
          ],
          [
            106.4597702,
            11.02132702
          ],
          [
            106.4596405,
            11.02121735
          ],
          [
            106.4596405,
            11.02121735
          ],
          [
            106.4596405,
            11.02121735
          ],
          [
            106.4596405,
            11.02121735
          ],
          [
            106.45976257,
            11.02134323
          ],
          [
            106.46128845,
            11.01978493
          ],
          [
            106.46276093,
            11.01816845
          ],
          [
            106.46271515,
            11.01811028
          ],
          [
            106.46271515,
            11.01811028
          ],
          [
            106.46271515,
            11.01811028
          ],
          [
            106.46271515,
            11.01811028
          ],
          [
            106.46276855,
            11.01814175
          ],
          [
            106.46401978,
            11.01680946
          ],
          [
            106.46531677,
            11.01549339
          ],
          [
            106.46660614,
            11.01410866
          ],
          [
            106.46789551,
            11.01272488
          ],
          [
            106.46789551,
            11.01272488
          ],
          [
            106.46789551,
            11.01272488
          ],
          [
            106.46875763,
            11.01181793
          ],
          [
            106.46958923,
            11.01089668
          ],
          [
            106.47046661,
            11.0100069
          ],
          [
            106.47132111,
            11.00908661
          ],
          [
            106.47132111,
            11.00908661
          ],
          [
            106.47209167,
            11.00829029
          ],
          [
            106.47281647,
            11.00748444
          ],
          [
            106.47281647,
            11.00748444
          ],
          [
            106.47473145,
            11.00549412
          ],
          [
            106.47661591,
            11.00346088
          ],
          [
            106.47661591,
            11.00346088
          ],
          [
            106.47769928,
            11.00252342
          ],
          [
            106.4798584,
            11.00110245
          ],
          [
            106.48213196,
            10.99973297
          ],
          [
            106.48213196,
            10.99973297
          ],
          [
            106.48297119,
            10.99948502
          ],
          [
            106.48462677,
            10.99879074
          ],
          [
            106.48439026,
            10.99773693
          ],
          [
            106.48439026,
            10.99773693
          ],
          [
            106.48412323,
            10.99684238
          ],
          [
            106.48371887,
            10.99571991
          ],
          [
            106.48358154,
            10.99520969
          ],
          [
            106.48364258,
            10.99367428
          ],
          [
            106.48364258,
            10.99367428
          ],
          [
            106.48370361,
            10.99293423
          ],
          [
            106.48374939,
            10.99130249
          ],
          [
            106.4838028,
            10.99011707
          ],
          [
            106.48377991,
            10.98893261
          ],
          [
            106.48377991,
            10.98893261
          ],
          [
            106.48377991,
            10.98893261
          ],
          [
            106.48381805,
            10.98893738
          ],
          [
            106.48392487,
            10.98527431
          ],
          [
            106.48392487,
            10.98527431
          ],
          [
            106.48392487,
            10.98527431
          ],
          [
            106.48392487,
            10.98527431
          ],
          [
            106.48392487,
            10.98527431
          ],
          [
            106.48394012,
            10.98426247
          ],
          [
            106.48394775,
            10.98325062
          ],
          [
            106.48387146,
            10.9831295
          ],
          [
            106.48395538,
            10.98299217
          ],
          [
            106.48399353,
            10.98168373
          ],
          [
            106.48402405,
            10.98037529
          ],
          [
            106.4839325,
            10.98036289
          ],
          [
            106.4839325,
            10.98036289
          ],
          [
            106.4839325,
            10.98036289
          ],
          [
            106.4839325,
            10.98036289
          ],
          [
            106.48400879,
            10.98037529
          ],
          [
            106.48404694,
            10.9792614
          ],
          [
            106.48407745,
            10.97814751
          ],
          [
            106.48413849,
            10.97703648
          ],
          [
            106.48414612,
            10.97593021
          ],
          [
            106.48408508,
            10.97559357
          ],
          [
            106.48350525,
            10.97459793
          ],
          [
            106.48293304,
            10.97360229
          ],
          [
            106.48256683,
            10.97304726
          ],
          [
            106.48219299,
            10.97249126
          ],
          [
            106.48182678,
            10.97194386
          ],
          [
            106.48145294,
            10.97139549
          ],
          [
            106.48194885,
            10.97094536
          ],
          [
            106.48245239,
            10.97049522
          ],
          [
            106.48245239,
            10.97049522
          ],
          [
            106.48248291,
            10.97053242
          ],
          [
            106.48420715,
            10.96936321
          ],
          [
            106.48522949,
            10.9686842
          ],
          [
            106.48571014,
            10.96838856
          ],
          [
            106.48602295,
            10.96812534
          ],
          [
            106.48632813,
            10.96824646
          ],
          [
            106.48619843,
            10.96862602
          ],
          [
            106.48579407,
            10.9686203
          ],
          [
            106.48487091,
            10.9690733
          ],
          [
            106.48377991,
            10.96977901
          ],
          [
            106.48271942,
            10.9705162
          ],
          [
            106.48174286,
            10.97130108
          ],
          [
            106.48210144,
            10.97161674
          ]
        ]
      },
      "properties": {
        "feature_type": "route_path",
        "stt": 22,
        "route_id": 127,
        "route_no": "87",
        "display_code": "B 87",
        "route_name": "Bến xe Củ Chi - An Nhơn Tây",
        "direction": "Lượt về",
        "outbound": false,
        "start_point": "Bến xe Củ Chi",
        "end_point": "An Nhơn Tây",
        "start_stop": "Bến xe buýt An Nhơn Tây",
        "end_stop": "Bến xe Củ Chi",
        "distance_km": 21.4,
        "listed_length_km": 20,
        "running_time_min": 40,
        "operating_hours": "5:00 - 20:30",
        "stroke": "#673AB7",
        "stroke_width": 4,
        "stroke_opacity": 0.85
      }
    },
    {
      "type": "Feature",
      "geometry": {
        "type": "Point",
        "coordinates": [
          106.482099,
          10.971617
        ]
      },
      "properties": {
        "feature_type": "bus_stop",
        "stop_id": 732,
        "stop_code": "BX 63",
        "stop_name": "Bến xe Củ Chi",
        "stop_type": "Bến xe",
        "route_no": "87",
        "display_code": "B 87",
        "direction": "Lượt đi",
        "address": "Bến xe Củ Chi Quốc lộ 22",
        "street": "Quốc lộ 22",
        "zone": "Huyện Củ Chi",
        "ward": null,
        "all_routes": "100, 107, 126, 13, 70-1, 70-2, 74, 79, 87, 94",
        "marker_color": "#673AB7"
      }
    },
    {
      "type": "Feature",
      "geometry": {
        "type": "Point",
        "coordinates": [
          106.484283,
          10.978617
        ]
      },
      "properties": {
        "feature_type": "bus_stop",
        "stop_id": 4020,
        "stop_code": "HCC 287",
        "stop_name": "Công ty HanSae",
        "stop_type": "Trụ dừng",
        "route_no": "87",
        "display_code": "B 87",
        "direction": "Lượt đi",
        "address": "Công ty HanSae Giáp Hải",
        "street": "Giáp Hải",
        "zone": "Huyện Củ Chi",
        "ward": "Xã Tân An Hội",
        "all_routes": "87",
        "marker_color": "#673AB7"
      }
    },
    {
      "type": "Feature",
      "geometry": {
        "type": "Point",
        "coordinates": [
          106.484213,
          10.984693
        ]
      },
      "properties": {
        "feature_type": "bus_stop",
        "stop_id": 4021,
        "stop_code": "HCC 288",
        "stop_name": "Nhà máy bia Sài Gòn",
        "stop_type": "Trụ dừng",
        "route_no": "87",
        "display_code": "B 87",
        "direction": "Lượt đi",
        "address": "Nhà máy bia Sài Gòn Giáp Hải",
        "street": "Giáp Hải",
        "zone": "Huyện Củ Chi",
        "ward": "Xã Tân An Hội",
        "all_routes": "87",
        "marker_color": "#673AB7"
      }
    },
    {
      "type": "Feature",
      "geometry": {
        "type": "Point",
        "coordinates": [
          106.484095,
          10.98838
        ]
      },
      "properties": {
        "feature_type": "bus_stop",
        "stop_id": 4022,
        "stop_code": "HCC 289",
        "stop_name": "Công ty Kim Đan",
        "stop_type": "Trụ dừng",
        "route_no": "87",
        "display_code": "B 87",
        "direction": "Lượt đi",
        "address": "đối diện Công ty Kim Đan Giáp Hải",
        "street": "Giáp Hải",
        "zone": "Huyện Củ Chi",
        "ward": "Xã Trung Lập Hạ",
        "all_routes": "87",
        "marker_color": "#673AB7"
      }
    },
    {
      "type": "Feature",
      "geometry": {
        "type": "Point",
        "coordinates": [
          106.483837,
          10.993424
        ]
      },
      "properties": {
        "feature_type": "bus_stop",
        "stop_id": 4639,
        "stop_code": "HCC 290",
        "stop_name": "Vườn cao su",
        "stop_type": "Trụ dừng",
        "route_no": "87",
        "display_code": "B 87",
        "direction": "Lượt đi",
        "address": "73 Giáp Hải",
        "street": "Giáp Hải",
        "zone": "Huyện Củ Chi",
        "ward": "Xã Trung Lập Hạ",
        "all_routes": "87",
        "marker_color": "#673AB7"
      }
    },
    {
      "type": "Feature",
      "geometry": {
        "type": "Point",
        "coordinates": [
          106.484427,
          10.997416
        ]
      },
      "properties": {
        "feature_type": "bus_stop",
        "stop_id": 5818,
        "stop_code": "HCC 291",
        "stop_name": "Tỉnh lộ 2",
        "stop_type": "Trụ dừng",
        "route_no": "87",
        "display_code": "B 87",
        "direction": "Lượt đi",
        "address": "166 (09) Giáp Hải",
        "street": "Giáp Hải",
        "zone": "Huyện Củ Chi",
        "ward": "Xã Trung Lập Hạ",
        "all_routes": "87",
        "marker_color": "#673AB7"
      }
    },
    {
      "type": "Feature",
      "geometry": {
        "type": "Point",
        "coordinates": [
          106.482625,
          10.999754
        ]
      },
      "properties": {
        "feature_type": "bus_stop",
        "stop_id": 4023,
        "stop_code": "HCC 311",
        "stop_name": "Trường tiểu học Lê Văn Thế",
        "stop_type": "Trụ dừng",
        "route_no": "87",
        "display_code": "B 87",
        "direction": "Lượt đi",
        "address": "96 Tỉnh lộ 2",
        "street": "Tỉnh lộ 2",
        "zone": "Huyện Củ Chi",
        "ward": null,
        "all_routes": "87",
        "marker_color": "#673AB7"
      }
    },
    {
      "type": "Feature",
      "geometry": {
        "type": "Point",
        "coordinates": [
          106.477025,
          11.003377
        ]
      },
      "properties": {
        "feature_type": "bus_stop",
        "stop_id": 4024,
        "stop_code": "HCC 312",
        "stop_name": "Đường Nguyễn Thị Hương",
        "stop_type": "Trụ dừng",
        "route_no": "87",
        "display_code": "B 87",
        "direction": "Lượt đi",
        "address": "138 Tỉnh lộ 2",
        "street": "Tỉnh lộ 2",
        "zone": "Huyện Củ Chi",
        "ward": "Xã Trung Lập Hạ",
        "all_routes": "87",
        "marker_color": "#673AB7"
      }
    },
    {
      "type": "Feature",
      "geometry": {
        "type": "Point",
        "coordinates": [
          106.473291,
          11.007295
        ]
      },
      "properties": {
        "feature_type": "bus_stop",
        "stop_id": 4027,
        "stop_code": "HCC 313",
        "stop_name": "Trường THCS Trung Lập Hạ",
        "stop_type": "Nhà chờ",
        "route_no": "87",
        "display_code": "B 87",
        "direction": "Lượt đi",
        "address": "206 (Trường THCS Trung Lập Hạ) Tỉnh lộ 2",
        "street": "Tỉnh lộ 2",
        "zone": "Huyện Củ Chi",
        "ward": "Xã Trung Lập Hạ",
        "all_routes": "87",
        "marker_color": "#673AB7"
      }
    },
    {
      "type": "Feature",
      "geometry": {
        "type": "Point",
        "coordinates": [
          106.471274,
          11.009359
        ]
      },
      "properties": {
        "feature_type": "bus_stop",
        "stop_id": 4025,
        "stop_code": "HCC 314",
        "stop_name": "Ủy ban nhân dân xã Trung Lập Hạ",
        "stop_type": "Trụ dừng",
        "route_no": "87",
        "display_code": "B 87",
        "direction": "Lượt đi",
        "address": "244 (238) Tỉnh lộ 2",
        "street": "Tỉnh lộ 2",
        "zone": "Huyện Củ Chi",
        "ward": null,
        "all_routes": "87",
        "marker_color": "#673AB7"
      }
    },
    {
      "type": "Feature",
      "geometry": {
        "type": "Point",
        "coordinates": [
          106.470126,
          11.010475
        ]
      },
      "properties": {
        "feature_type": "bus_stop",
        "stop_id": 7708,
        "stop_code": "HCC 283",
        "stop_name": "Trường mầm non Trung Lập Hạ",
        "stop_type": "Nhà chờ",
        "route_no": "87",
        "display_code": "B 87",
        "direction": "Lượt đi",
        "address": "Trường mầm non Trung Lập Hạ Tỉnh lộ 2",
        "street": "Tỉnh lộ 2",
        "zone": "Huyện Củ Chi",
        "ward": "Xã Trung Lập Hạ",
        "all_routes": "87",
        "marker_color": "#673AB7"
      }
    },
    {
      "type": "Feature",
      "geometry": {
        "type": "Point",
        "coordinates": [
          106.468377,
          11.012497
        ]
      },
      "properties": {
        "feature_type": "bus_stop",
        "stop_id": 4030,
        "stop_code": "HCC 315",
        "stop_name": "Vật liệu Trung lập",
        "stop_type": "Trụ dừng",
        "route_no": "87",
        "display_code": "B 87",
        "direction": "Lượt đi",
        "address": "đối diện 335A (đối diện 135) Tỉnh lộ 2",
        "street": "Tỉnh lộ 2",
        "zone": "Huyện Củ Chi",
        "ward": null,
        "all_routes": "87",
        "marker_color": "#673AB7"
      }
    },
    {
      "type": "Feature",
      "geometry": {
        "type": "Point",
        "coordinates": [
          106.462455,
          11.018647
        ]
      },
      "properties": {
        "feature_type": "bus_stop",
        "stop_id": 4026,
        "stop_code": "HCC 316",
        "stop_name": "Tạp hóa Thanh Xuân",
        "stop_type": "Trụ dừng",
        "route_no": "87",
        "display_code": "B 87",
        "direction": "Lượt đi",
        "address": "đối diện 449 (412) Tỉnh lộ 2",
        "street": "Tỉnh lộ 2",
        "zone": "Huyện Củ Chi",
        "ward": null,
        "all_routes": "87",
        "marker_color": "#673AB7"
      }
    },
    {
      "type": "Feature",
      "geometry": {
        "type": "Point",
        "coordinates": [
          106.459429,
          11.021775
        ]
      },
      "properties": {
        "feature_type": "bus_stop",
        "stop_id": 4028,
        "stop_code": "HCC 317",
        "stop_name": "Basa",
        "stop_type": "Trụ dừng",
        "route_no": "87",
        "display_code": "B 87",
        "direction": "Lượt đi",
        "address": "444 Tỉnh lộ 2",
        "street": "Tỉnh lộ 2",
        "zone": "Huyện Củ Chi",
        "ward": null,
        "all_routes": "87",
        "marker_color": "#673AB7"
      }
    },
    {
      "type": "Feature",
      "geometry": {
        "type": "Point",
        "coordinates": [
          106.456404,
          11.024966
        ]
      },
      "properties": {
        "feature_type": "bus_stop",
        "stop_id": 4029,
        "stop_code": "HCC 318",
        "stop_name": "Bóng đá mini Trung Lập",
        "stop_type": "Trụ dừng",
        "route_no": "87",
        "display_code": "B 87",
        "direction": "Lượt đi",
        "address": "472 Tỉnh lộ 2",
        "street": "Tỉnh lộ 2",
        "zone": "Huyện Củ Chi",
        "ward": null,
        "all_routes": "87",
        "marker_color": "#673AB7"
      }
    },
    {
      "type": "Feature",
      "geometry": {
        "type": "Point",
        "coordinates": [
          106.453767,
          11.027739
        ]
      },
      "properties": {
        "feature_type": "bus_stop",
        "stop_id": 4031,
        "stop_code": "HCC 319",
        "stop_name": "Kênh điều tiết nước",
        "stop_type": "Trụ dừng",
        "route_no": "87",
        "display_code": "B 87",
        "direction": "Lượt đi",
        "address": "đập nước Tỉnh lộ 2",
        "street": "Tỉnh lộ 2",
        "zone": "Huyện Củ Chi",
        "ward": null,
        "all_routes": "87",
        "marker_color": "#673AB7"
      }
    },
    {
      "type": "Feature",
      "geometry": {
        "type": "Point",
        "coordinates": [
          106.448636,
          11.033232
        ]
      },
      "properties": {
        "feature_type": "bus_stop",
        "stop_id": 3975,
        "stop_code": "HCC 320",
        "stop_name": "Sài Gòn 2",
        "stop_type": "Trụ dừng",
        "route_no": "87",
        "display_code": "B 87",
        "direction": "Lượt đi",
        "address": "đối diện Sài Gòn 2 Tỉnh lộ 2",
        "street": "Tỉnh lộ 2",
        "zone": "Huyện Củ Chi",
        "ward": null,
        "all_routes": "87",
        "marker_color": "#673AB7"
      }
    },
    {
      "type": "Feature",
      "geometry": {
        "type": "Point",
        "coordinates": [
          106.45024,
          11.03745
        ]
      },
      "properties": {
        "feature_type": "bus_stop",
        "stop_id": 951,
        "stop_code": "HCC 110",
        "stop_name": "Cà phê Huyền Thảo",
        "stop_type": "Trụ dừng",
        "route_no": "87",
        "display_code": "B 87",
        "direction": "Lượt đi",
        "address": "242 ( Đối diện 257 ) Tỉnh lộ 7",
        "street": "Tỉnh lộ 7",
        "zone": "Huyện Củ Chi",
        "ward": "Xã Trung Lập Hạ",
        "all_routes": "87",
        "marker_color": "#673AB7"
      }
    },
    {
      "type": "Feature",
      "geometry": {
        "type": "Point",
        "coordinates": [
          106.45488,
          11.041104
        ]
      },
      "properties": {
        "feature_type": "bus_stop",
        "stop_id": 943,
        "stop_code": "HCC 111",
        "stop_name": "Trường tiểu học Trung Lập Hạ",
        "stop_type": "Nhà chờ",
        "route_no": "87",
        "display_code": "B 87",
        "direction": "Lượt đi",
        "address": "Trường tiểu học Trung Lập Hạ Tỉnh lộ 7",
        "street": "Tỉnh lộ 7",
        "zone": "Huyện Củ Chi",
        "ward": "Xã Trung Lập Hạ",
        "all_routes": "87",
        "marker_color": "#673AB7"
      }
    },
    {
      "type": "Feature",
      "geometry": {
        "type": "Point",
        "coordinates": [
          106.455175,
          11.043347
        ]
      },
      "properties": {
        "feature_type": "bus_stop",
        "stop_id": 4033,
        "stop_code": "QCCT149",
        "stop_name": "Siêu thị Trung Hòa",
        "stop_type": "Ô sơn",
        "route_no": "87",
        "display_code": "B 87",
        "direction": "Lượt đi",
        "address": "338 Tỉnh lộ 7",
        "street": "Tỉnh lộ 7",
        "zone": "Huyện Củ Chi",
        "ward": "Xã Trung Lập Hạ",
        "all_routes": "87",
        "marker_color": "#673AB7"
      }
    },
    {
      "type": "Feature",
      "geometry": {
        "type": "Point",
        "coordinates": [
          106.455256,
          11.048122
        ]
      },
      "properties": {
        "feature_type": "bus_stop",
        "stop_id": 4034,
        "stop_code": "HCC 113",
        "stop_name": "Trung lập",
        "stop_type": "Ô sơn",
        "route_no": "87",
        "display_code": "B 87",
        "direction": "Lượt đi",
        "address": "512 Tỉnh lộ 7",
        "street": "Tỉnh lộ 7",
        "zone": "Huyện Củ Chi",
        "ward": "Xã Trung Lập Hạ",
        "all_routes": "87",
        "marker_color": "#673AB7"
      }
    },
    {
      "type": "Feature",
      "geometry": {
        "type": "Point",
        "coordinates": [
          106.461071,
          11.056083
        ]
      },
      "properties": {
        "feature_type": "bus_stop",
        "stop_id": 4032,
        "stop_code": "HCC 114",
        "stop_name": "An Nhơn Tây",
        "stop_type": "Trụ dừng",
        "route_no": "87",
        "display_code": "B 87",
        "direction": "Lượt đi",
        "address": "642 Tỉnh lộ 7",
        "street": "Tỉnh lộ 7",
        "zone": "Huyện Củ Chi",
        "ward": "Xã Trung Lập Hạ",
        "all_routes": "87",
        "marker_color": "#673AB7"
      }
    },
    {
      "type": "Feature",
      "geometry": {
        "type": "Point",
        "coordinates": [
          106.467116,
          11.055493
        ]
      },
      "properties": {
        "feature_type": "bus_stop",
        "stop_id": 7846,
        "stop_code": "HCC 354",
        "stop_name": "Đường 754",
        "stop_type": "Ô sơn",
        "route_no": "87",
        "display_code": "B 87",
        "direction": "Lượt đi",
        "address": "702 Tỉnh lộ 7",
        "street": "Tỉnh lộ 7",
        "zone": "Huyện Củ Chi",
        "ward": "Xã An Nhơn Tây",
        "all_routes": "87",
        "marker_color": "#673AB7"
      }
    },
    {
      "type": "Feature",
      "geometry": {
        "type": "Point",
        "coordinates": [
          106.471666,
          11.05672
        ]
      },
      "properties": {
        "feature_type": "bus_stop",
        "stop_id": 7714,
        "stop_code": "HCC 285",
        "stop_name": "Đối diện đường 756",
        "stop_type": "Trụ dừng",
        "route_no": "87",
        "display_code": "B 87",
        "direction": "Lượt đi",
        "address": "Đối diện trụ điện 145 (Đối diện cà phê bất động sản) Tỉnh lộ 7",
        "street": "Tỉnh lộ 7",
        "zone": "Huyện Củ Chi",
        "ward": "Xã An Nhơn Tây",
        "all_routes": "87",
        "marker_color": "#673AB7"
      }
    },
    {
      "type": "Feature",
      "geometry": {
        "type": "Point",
        "coordinates": [
          106.476284,
          11.059442
        ]
      },
      "properties": {
        "feature_type": "bus_stop",
        "stop_id": 4036,
        "stop_code": "QCCT152",
        "stop_name": "Nhuận Đức",
        "stop_type": "Trụ dừng",
        "route_no": "87",
        "display_code": "B 87",
        "direction": "Lượt đi",
        "address": "826 Tỉnh lộ 7",
        "street": "Tỉnh lộ 7",
        "zone": "Huyện Củ Chi",
        "ward": "Xã An Nhơn Tây",
        "all_routes": "87",
        "marker_color": "#673AB7"
      }
    },
    {
      "type": "Feature",
      "geometry": {
        "type": "Point",
        "coordinates": [
          106.479551,
          11.061474
        ]
      },
      "properties": {
        "feature_type": "bus_stop",
        "stop_id": 4035,
        "stop_code": "QCCT153",
        "stop_name": "Nguyễn Thị Rành",
        "stop_type": "Trụ dừng",
        "route_no": "87",
        "display_code": "B 87",
        "direction": "Lượt đi",
        "address": "910 Tỉnh lộ 7",
        "street": "Tỉnh lộ 7",
        "zone": "Huyện Củ Chi",
        "ward": "Xã Trung Lập Hạ",
        "all_routes": "87",
        "marker_color": "#673AB7"
      }
    },
    {
      "type": "Feature",
      "geometry": {
        "type": "Point",
        "coordinates": [
          106.485264,
          11.065043
        ]
      },
      "properties": {
        "feature_type": "bus_stop",
        "stop_id": 4038,
        "stop_code": "QCCT154",
        "stop_name": "Hồ bơi An Nhơn Tây",
        "stop_type": "Trụ dừng",
        "route_no": "87",
        "display_code": "B 87",
        "direction": "Lượt đi",
        "address": "kế 998A (1026) Tỉnh lộ 7",
        "street": "Tỉnh lộ 7",
        "zone": "Huyện Củ Chi",
        "ward": "Xã An Nhơn Tây",
        "all_routes": "87",
        "marker_color": "#673AB7"
      }
    },
    {
      "type": "Feature",
      "geometry": {
        "type": "Point",
        "coordinates": [
          106.48778,
          11.066807
        ]
      },
      "properties": {
        "feature_type": "bus_stop",
        "stop_id": 4037,
        "stop_code": "QCCT155",
        "stop_name": "Bến đình",
        "stop_type": "Trụ dừng",
        "route_no": "87",
        "display_code": "B 87",
        "direction": "Lượt đi",
        "address": "Đối diện 1031 Tỉnh lộ 7",
        "street": "Tỉnh lộ 7",
        "zone": "Huyện Củ Chi",
        "ward": "Xã An Nhơn Tây",
        "all_routes": "87",
        "marker_color": "#673AB7"
      }
    },
    {
      "type": "Feature",
      "geometry": {
        "type": "Point",
        "coordinates": [
          106.493177,
          11.070871
        ]
      },
      "properties": {
        "feature_type": "bus_stop",
        "stop_id": 4039,
        "stop_code": "HCC 119",
        "stop_name": "Trường Tiểu học An Nhơn Tây",
        "stop_type": "Trụ dừng",
        "route_no": "87",
        "display_code": "B 87",
        "direction": "Lượt đi",
        "address": "1114 Tỉnh lộ 7",
        "street": "Tỉnh lộ 7",
        "zone": "Huyện Củ Chi",
        "ward": "Xã An Nhơn Tây",
        "all_routes": "87",
        "marker_color": "#673AB7"
      }
    },
    {
      "type": "Feature",
      "geometry": {
        "type": "Point",
        "coordinates": [
          106.499115,
          11.075357
        ]
      },
      "properties": {
        "feature_type": "bus_stop",
        "stop_id": 4040,
        "stop_code": "HCC 118",
        "stop_name": "Cây xăng Petrolimex",
        "stop_type": "Trụ dừng",
        "route_no": "87",
        "display_code": "B 87",
        "direction": "Lượt đi",
        "address": "1180A Tỉnh lộ 7",
        "street": "Tỉnh lộ 7",
        "zone": "Huyện Củ Chi",
        "ward": "Xã An Nhơn Tây",
        "all_routes": "87",
        "marker_color": "#673AB7"
      }
    },
    {
      "type": "Feature",
      "geometry": {
        "type": "Point",
        "coordinates": [
          106.504925,
          11.0801
        ]
      },
      "properties": {
        "feature_type": "bus_stop",
        "stop_id": 4041,
        "stop_code": "HCC 121",
        "stop_name": "Trường tiểu học An Nhơn Tây",
        "stop_type": "Trụ dừng",
        "route_no": "87",
        "display_code": "B 87",
        "direction": "Lượt đi",
        "address": "1238 Tỉnh lộ 7",
        "street": "Tỉnh lộ 7",
        "zone": "Huyện Củ Chi",
        "ward": "Xã An Nhơn Tây",
        "all_routes": "87",
        "marker_color": "#673AB7"
      }
    },
    {
      "type": "Feature",
      "geometry": {
        "type": "Point",
        "coordinates": [
          106.507256,
          11.08224
        ]
      },
      "properties": {
        "feature_type": "bus_stop",
        "stop_id": 4045,
        "stop_code": "HCC 122",
        "stop_name": "Trường trung học phổ thông An Nhơn Tây",
        "stop_type": "Trụ dừng",
        "route_no": "87",
        "display_code": "B 87",
        "direction": "Lượt đi",
        "address": "1270 Tỉnh lộ 7",
        "street": "Tỉnh lộ 7",
        "zone": "Huyện Củ Chi",
        "ward": "Xã An Nhơn Tây",
        "all_routes": "87",
        "marker_color": "#673AB7"
      }
    },
    {
      "type": "Feature",
      "geometry": {
        "type": "Point",
        "coordinates": [
          106.509796,
          11.084464
        ]
      },
      "properties": {
        "feature_type": "bus_stop",
        "stop_id": 4042,
        "stop_code": "HCC 123",
        "stop_name": "Bệnh viện đa khoa khu vực Củ Chi",
        "stop_type": "Trụ dừng",
        "route_no": "87",
        "display_code": "B 87",
        "direction": "Lượt đi",
        "address": "1304 Tỉnh lộ 7",
        "street": "Tỉnh lộ 7",
        "zone": "Huyện Củ Chi",
        "ward": "Xã An Nhơn Tây",
        "all_routes": "87",
        "marker_color": "#673AB7"
      }
    },
    {
      "type": "Feature",
      "geometry": {
        "type": "Point",
        "coordinates": [
          106.513106,
          11.087502
        ]
      },
      "properties": {
        "feature_type": "bus_stop",
        "stop_id": 8289,
        "stop_code": "HCC 360",
        "stop_name": "Ủy ban nhân dân xã An Nhơn Tây",
        "stop_type": "Trụ dừng",
        "route_no": "87",
        "display_code": "B 87",
        "direction": "Lượt đi",
        "address": "1434-1436 Tỉnh lộ 7",
        "street": "Tỉnh lộ 7",
        "zone": "Huyện Củ Chi",
        "ward": "Xã An Nhơn Tây",
        "all_routes": "87",
        "marker_color": "#673AB7"
      }
    },
    {
      "type": "Feature",
      "geometry": {
        "type": "Point",
        "coordinates": [
          106.514109,
          11.089071
        ]
      },
      "properties": {
        "feature_type": "bus_stop",
        "stop_id": 3506,
        "stop_code": "QCCT089",
        "stop_name": "Nhà văn hóa Cụm An Nhơn Tây",
        "stop_type": "Trụ dừng",
        "route_no": "87",
        "display_code": "B 87",
        "direction": "Lượt đi",
        "address": "980 (Đối diện 1029) Tỉnh lộ 15",
        "street": "Tỉnh lộ 15",
        "zone": "Huyện Củ Chi",
        "ward": "Xã An Nhơn Tây",
        "all_routes": "70, 87",
        "marker_color": "#673AB7"
      }
    },
    {
      "type": "Feature",
      "geometry": {
        "type": "Point",
        "coordinates": [
          106.511093,
          11.088134
        ]
      },
      "properties": {
        "feature_type": "bus_stop",
        "stop_id": 3957,
        "stop_code": "BX 68",
        "stop_name": "Bến xe buýt An Nhơn Tây",
        "stop_type": "Bến xe",
        "route_no": "87",
        "display_code": "B 87",
        "direction": "Lượt đi",
        "address": "BẾN XE BUÝT AN NHƠN TÂY An Nhơn Tây",
        "street": "An Nhơn Tây",
        "zone": "Huyện Củ Chi",
        "ward": "Xã An Nhơn Tây",
        "all_routes": "87",
        "marker_color": "#673AB7"
      }
    },
    {
      "type": "Feature",
      "geometry": {
        "type": "Point",
        "coordinates": [
          106.513885,
          11.089467
        ]
      },
      "properties": {
        "feature_type": "bus_stop",
        "stop_id": 3547,
        "stop_code": "QCCT116",
        "stop_name": "Nhà văn hóa Cụm An Nhơn Tây",
        "stop_type": "Trụ dừng",
        "route_no": "87",
        "display_code": "B 87",
        "direction": "Lượt về",
        "address": "1045 (20-22) Tỉnh lộ 15",
        "street": "Tỉnh lộ 15",
        "zone": "Huyện Củ Chi",
        "ward": "Xã An Nhơn Tây",
        "all_routes": "70, 87",
        "marker_color": "#673AB7"
      }
    },
    {
      "type": "Feature",
      "geometry": {
        "type": "Point",
        "coordinates": [
          106.512859,
          11.087423
        ]
      },
      "properties": {
        "feature_type": "bus_stop",
        "stop_id": 8288,
        "stop_code": "HCC 359",
        "stop_name": "Ủy ban nhân dân xã An Nhơn Tây",
        "stop_type": "Trụ dừng",
        "route_no": "87",
        "display_code": "B 87",
        "direction": "Lượt về",
        "address": "1407-1409 Tỉnh lộ 7",
        "street": "Tỉnh lộ 7",
        "zone": "Huyện Củ Chi",
        "ward": "Xã An Nhơn Tây",
        "all_routes": "87",
        "marker_color": "#673AB7"
      }
    },
    {
      "type": "Feature",
      "geometry": {
        "type": "Point",
        "coordinates": [
          106.510246,
          11.085075
        ]
      },
      "properties": {
        "feature_type": "bus_stop",
        "stop_id": 3958,
        "stop_code": "HCC 124",
        "stop_name": "Bệnh viện đa khoa khu vực Củ Chi",
        "stop_type": "Nhà chờ",
        "route_no": "87",
        "display_code": "B 87",
        "direction": "Lượt về",
        "address": "1307 (Bệnh viện đa khoa khu vực Củ Chi) Tỉnh lộ 7",
        "street": "Tỉnh lộ 7",
        "zone": "Huyện Củ Chi",
        "ward": "Xã An Nhơn Tây",
        "all_routes": "87",
        "marker_color": "#673AB7"
      }
    },
    {
      "type": "Feature",
      "geometry": {
        "type": "Point",
        "coordinates": [
          106.507446,
          11.082569
        ]
      },
      "properties": {
        "feature_type": "bus_stop",
        "stop_id": 3960,
        "stop_code": "HCC 125",
        "stop_name": "Trường Trung học phổ thông An Nhơn Tây",
        "stop_type": "Trụ dừng",
        "route_no": "87",
        "display_code": "B 87",
        "direction": "Lượt về",
        "address": "1281 Tỉnh lộ 7 Củ Chi",
        "street": "Tỉnh lộ 7 Củ Chi",
        "zone": "Huyện Củ Chi",
        "ward": "Xã An Nhơn Tây",
        "all_routes": "87",
        "marker_color": "#673AB7"
      }
    },
    {
      "type": "Feature",
      "geometry": {
        "type": "Point",
        "coordinates": [
          106.505134,
          11.080448
        ]
      },
      "properties": {
        "feature_type": "bus_stop",
        "stop_id": 3961,
        "stop_code": "HCC 126",
        "stop_name": "Trường tiểu học An Nhơn Tây",
        "stop_type": "Trụ dừng",
        "route_no": "87",
        "display_code": "B 87",
        "direction": "Lượt về",
        "address": "1235 Tỉnh lộ 7",
        "street": "Tỉnh lộ 7",
        "zone": "Huyện Củ Chi",
        "ward": "Xã An Nhơn Tây",
        "all_routes": "87",
        "marker_color": "#673AB7"
      }
    },
    {
      "type": "Feature",
      "geometry": {
        "type": "Point",
        "coordinates": [
          106.499426,
          11.075731
        ]
      },
      "properties": {
        "feature_type": "bus_stop",
        "stop_id": 3963,
        "stop_code": "HCC 127",
        "stop_name": "Cây xăng Petrolimex",
        "stop_type": "Trụ dừng",
        "route_no": "87",
        "display_code": "B 87",
        "direction": "Lượt về",
        "address": "1181 Tỉnh lộ 7 Củ Chi",
        "street": "Tỉnh lộ 7 Củ Chi",
        "zone": "Huyện Củ Chi",
        "ward": "Xã An Nhơn Tây",
        "all_routes": "87",
        "marker_color": "#673AB7"
      }
    },
    {
      "type": "Feature",
      "geometry": {
        "type": "Point",
        "coordinates": [
          106.493446,
          11.071233
        ]
      },
      "properties": {
        "feature_type": "bus_stop",
        "stop_id": 3965,
        "stop_code": "HCC 128",
        "stop_name": "Trường Tiểu học An Nhơn Tây",
        "stop_type": "Trụ dừng",
        "route_no": "87",
        "display_code": "B 87",
        "direction": "Lượt về",
        "address": "1107 Tỉnh lộ 7",
        "street": "Tỉnh lộ 7",
        "zone": "Huyện Củ Chi",
        "ward": "Xã An Nhơn Tây",
        "all_routes": "87",
        "marker_color": "#673AB7"
      }
    },
    {
      "type": "Feature",
      "geometry": {
        "type": "Point",
        "coordinates": [
          106.488032,
          11.067155
        ]
      },
      "properties": {
        "feature_type": "bus_stop",
        "stop_id": 3966,
        "stop_code": "HCC 129",
        "stop_name": "Bến đình",
        "stop_type": "Trụ dừng",
        "route_no": "87",
        "display_code": "B 87",
        "direction": "Lượt về",
        "address": "1051 Tỉnh lộ 7",
        "street": "Tỉnh lộ 7",
        "zone": "Huyện Củ Chi",
        "ward": "Xã An Nhơn Tây",
        "all_routes": "87",
        "marker_color": "#673AB7"
      }
    },
    {
      "type": "Feature",
      "geometry": {
        "type": "Point",
        "coordinates": [
          106.484926,
          11.064949
        ]
      },
      "properties": {
        "feature_type": "bus_stop",
        "stop_id": 3968,
        "stop_code": "HCC 130",
        "stop_name": "Hồ Bơi An Nhơn Tây",
        "stop_type": "Trụ dừng",
        "route_no": "87",
        "display_code": "B 87",
        "direction": "Lượt về",
        "address": "Đối diện 996 (40) Tỉnh lộ 7",
        "street": "Tỉnh lộ 7",
        "zone": "Huyện Củ Chi",
        "ward": "Xã An Nhơn Tây",
        "all_routes": "87",
        "marker_color": "#673AB7"
      }
    },
    {
      "type": "Feature",
      "geometry": {
        "type": "Point",
        "coordinates": [
          106.478977,
          11.061295
        ]
      },
      "properties": {
        "feature_type": "bus_stop",
        "stop_id": 3977,
        "stop_code": "HCC 131",
        "stop_name": "Nguyễn Thị Rành",
        "stop_type": "Trụ dừng",
        "route_no": "87",
        "display_code": "B 87",
        "direction": "Lượt về",
        "address": "927 Tỉnh lộ 7",
        "street": "Tỉnh lộ 7",
        "zone": "Huyện Củ Chi",
        "ward": "Xã An Nhơn Tây",
        "all_routes": "87",
        "marker_color": "#673AB7"
      }
    },
    {
      "type": "Feature",
      "geometry": {
        "type": "Point",
        "coordinates": [
          106.476517,
          11.059733
        ]
      },
      "properties": {
        "feature_type": "bus_stop",
        "stop_id": 3970,
        "stop_code": "HCC 132",
        "stop_name": "Nhuận Đức",
        "stop_type": "Trụ dừng",
        "route_no": "87",
        "display_code": "B 87",
        "direction": "Lượt về",
        "address": "865 (Đối diện 79) Tỉnh lộ 7",
        "street": "Tỉnh lộ 7",
        "zone": "Huyện Củ Chi",
        "ward": "Xã An Nhơn Tây",
        "all_routes": "87",
        "marker_color": "#673AB7"
      }
    },
    {
      "type": "Feature",
      "geometry": {
        "type": "Point",
        "coordinates": [
          106.471885,
          11.056983
        ]
      },
      "properties": {
        "feature_type": "bus_stop",
        "stop_id": 7713,
        "stop_code": "HCC 284",
        "stop_name": "Đường 756",
        "stop_type": "Trụ dừng",
        "route_no": "87",
        "display_code": "B 87",
        "direction": "Lượt về",
        "address": "Trụ điện 148 (Cạnh đường 756) Tỉnh lộ 7",
        "street": "Tỉnh lộ 7",
        "zone": "Huyện Củ Chi",
        "ward": "Xã An Nhơn Tây",
        "all_routes": "87",
        "marker_color": "#673AB7"
      }
    },
    {
      "type": "Feature",
      "geometry": {
        "type": "Point",
        "coordinates": [
          106.46592,
          11.055683
        ]
      },
      "properties": {
        "feature_type": "bus_stop",
        "stop_id": 7715,
        "stop_code": "HCC 286",
        "stop_name": "Đường 754",
        "stop_type": "Trụ dừng",
        "route_no": "87",
        "display_code": "B 87",
        "direction": "Lượt về",
        "address": "số 679 Tỉnh lộ 7",
        "street": "Tỉnh lộ 7",
        "zone": "Huyện Củ Chi",
        "ward": "Xã An Nhơn Tây",
        "all_routes": "87",
        "marker_color": "#673AB7"
      }
    },
    {
      "type": "Feature",
      "geometry": {
        "type": "Point",
        "coordinates": [
          106.460974,
          11.056209
        ]
      },
      "properties": {
        "feature_type": "bus_stop",
        "stop_id": 3978,
        "stop_code": "HCC 133",
        "stop_name": "An Nhơn Tây",
        "stop_type": "Trụ dừng",
        "route_no": "87",
        "display_code": "B 87",
        "direction": "Lượt về",
        "address": "621 (14) Tỉnh lộ 7",
        "street": "Tỉnh lộ 7",
        "zone": "Huyện Củ Chi",
        "ward": "Xã An Nhơn Tây",
        "all_routes": "87",
        "marker_color": "#673AB7"
      }
    },
    {
      "type": "Feature",
      "geometry": {
        "type": "Point",
        "coordinates": [
          106.455148,
          11.048549
        ]
      },
      "properties": {
        "feature_type": "bus_stop",
        "stop_id": 3981,
        "stop_code": "HCC 134",
        "stop_name": "Trung lập",
        "stop_type": "Trụ dừng",
        "route_no": "87",
        "display_code": "B 87",
        "direction": "Lượt về",
        "address": "509 Tỉnh lộ 7",
        "street": "Tỉnh lộ 7",
        "zone": "Huyện Củ Chi",
        "ward": "Xã Trung Lập Thượng",
        "all_routes": "87",
        "marker_color": "#673AB7"
      }
    },
    {
      "type": "Feature",
      "geometry": {
        "type": "Point",
        "coordinates": [
          106.455061,
          11.043755
        ]
      },
      "properties": {
        "feature_type": "bus_stop",
        "stop_id": 3972,
        "stop_code": "HCC 169",
        "stop_name": "siêu thị Trung Hòa",
        "stop_type": "Trụ dừng",
        "route_no": "87",
        "display_code": "B 87",
        "direction": "Lượt về",
        "address": "341 (355) Tỉnh lộ 7",
        "street": "Tỉnh lộ 7",
        "zone": "Huyện Củ Chi",
        "ward": "Xã Trung Lập Thượng",
        "all_routes": "87",
        "marker_color": "#673AB7"
      }
    },
    {
      "type": "Feature",
      "geometry": {
        "type": "Point",
        "coordinates": [
          106.453722,
          11.040235
        ]
      },
      "properties": {
        "feature_type": "bus_stop",
        "stop_id": 3973,
        "stop_code": "HCC 136",
        "stop_name": "Trường trung học Trung Lập Hạ",
        "stop_type": "Trụ dừng",
        "route_no": "87",
        "display_code": "B 87",
        "direction": "Lượt về",
        "address": "311 (Đối diện 302) Tỉnh lộ 7",
        "street": "Tỉnh lộ 7",
        "zone": "Huyện Củ Chi",
        "ward": "Xã Trung Lập Thượng",
        "all_routes": "87",
        "marker_color": "#673AB7"
      }
    },
    {
      "type": "Feature",
      "geometry": {
        "type": "Point",
        "coordinates": [
          106.450042,
          11.037424
        ]
      },
      "properties": {
        "feature_type": "bus_stop",
        "stop_id": 967,
        "stop_code": "HCC 137",
        "stop_name": "Cà phê Huyền Thảo",
        "stop_type": "Trụ dừng",
        "route_no": "87",
        "display_code": "B 87",
        "direction": "Lượt về",
        "address": "251 Tỉnh lộ 7",
        "street": "Tỉnh lộ 7",
        "zone": "Huyện Củ Chi",
        "ward": "Xã Trung Lập Thượng",
        "all_routes": "87",
        "marker_color": "#673AB7"
      }
    },
    {
      "type": "Feature",
      "geometry": {
        "type": "Point",
        "coordinates": [
          106.448883,
          11.032801
        ]
      },
      "properties": {
        "feature_type": "bus_stop",
        "stop_id": 3983,
        "stop_code": "HCC 335",
        "stop_name": "Sài Gòn 2",
        "stop_type": "Trụ dừng",
        "route_no": "87",
        "display_code": "B 87",
        "direction": "Lượt về",
        "address": "Sài gòn 2 Tỉnh lộ 2",
        "street": "Tỉnh lộ 2",
        "zone": "Huyện Củ Chi",
        "ward": null,
        "all_routes": "87",
        "marker_color": "#673AB7"
      }
    },
    {
      "type": "Feature",
      "geometry": {
        "type": "Point",
        "coordinates": [
          106.454,
          11.027177
        ]
      },
      "properties": {
        "feature_type": "bus_stop",
        "stop_id": 3976,
        "stop_code": "HCC 336",
        "stop_name": "Kênh điều tiết nước",
        "stop_type": "Trụ dừng",
        "route_no": "87",
        "display_code": "B 87",
        "direction": "Lượt về",
        "address": "đối diện đập nước Tỉnh lộ 2",
        "street": "Tỉnh lộ 2",
        "zone": "Huyện Củ Chi",
        "ward": null,
        "all_routes": "87",
        "marker_color": "#673AB7"
      }
    },
    {
      "type": "Feature",
      "geometry": {
        "type": "Point",
        "coordinates": [
          106.456618,
          11.024376
        ]
      },
      "properties": {
        "feature_type": "bus_stop",
        "stop_id": 3979,
        "stop_code": "HCC 310",
        "stop_name": "sân bóng đá mini",
        "stop_type": "Trụ dừng",
        "route_no": "87",
        "display_code": "B 87",
        "direction": "Lượt về",
        "address": "529 Tình lộ 2",
        "street": "Tình lộ 2",
        "zone": "Huyện Củ Chi",
        "ward": null,
        "all_routes": "87",
        "marker_color": "#673AB7"
      }
    },
    {
      "type": "Feature",
      "geometry": {
        "type": "Point",
        "coordinates": [
          106.459644,
          11.021217
        ]
      },
      "properties": {
        "feature_type": "bus_stop",
        "stop_id": 3985,
        "stop_code": "HCC 337",
        "stop_name": "Basa",
        "stop_type": "Trụ dừng",
        "route_no": "87",
        "display_code": "B 87",
        "direction": "Lượt về",
        "address": "487 Tỉnh lộ 2",
        "street": "Tỉnh lộ 2",
        "zone": "Huyện Củ Chi",
        "ward": null,
        "all_routes": "87",
        "marker_color": "#673AB7"
      }
    },
    {
      "type": "Feature",
      "geometry": {
        "type": "Point",
        "coordinates": [
          106.462712,
          11.01811
        ]
      },
      "properties": {
        "feature_type": "bus_stop",
        "stop_id": 3980,
        "stop_code": "HCC 338",
        "stop_name": "Tạp hóa Thanh Xuân",
        "stop_type": "Trụ dừng",
        "route_no": "87",
        "display_code": "B 87",
        "direction": "Lượt về",
        "address": "429 Tỉnh lộ 2",
        "street": "Tỉnh lộ 2",
        "zone": "Huyện Củ Chi",
        "ward": null,
        "all_routes": "87",
        "marker_color": "#673AB7"
      }
    },
    {
      "type": "Feature",
      "geometry": {
        "type": "Point",
        "coordinates": [
          106.467896,
          11.012725
        ]
      },
      "properties": {
        "feature_type": "bus_stop",
        "stop_id": 3982,
        "stop_code": "HCC 339",
        "stop_name": "Vật liệu xây dựng Trung Lập",
        "stop_type": "Trụ dừng",
        "route_no": "87",
        "display_code": "B 87",
        "direction": "Lượt về",
        "address": "359 Tỉnh lộ 2",
        "street": "Tỉnh lộ 2",
        "zone": "Huyện Củ Chi",
        "ward": null,
        "all_routes": "87",
        "marker_color": "#673AB7"
      }
    },
    {
      "type": "Feature",
      "geometry": {
        "type": "Point",
        "coordinates": [
          106.471321,
          11.009087
        ]
      },
      "properties": {
        "feature_type": "bus_stop",
        "stop_id": 3987,
        "stop_code": "HCC 340",
        "stop_name": "Ủy ban nhân dân xã Trung Lập Hạ",
        "stop_type": "Trụ dừng",
        "route_no": "87",
        "display_code": "B 87",
        "direction": "Lượt về",
        "address": "295 Tỉnh lộ 2",
        "street": "Tỉnh lộ 2",
        "zone": "Huyện Củ Chi",
        "ward": null,
        "all_routes": "87",
        "marker_color": "#673AB7"
      }
    },
    {
      "type": "Feature",
      "geometry": {
        "type": "Point",
        "coordinates": [
          106.472814,
          11.007484
        ]
      },
      "properties": {
        "feature_type": "bus_stop",
        "stop_id": 3984,
        "stop_code": "HCC 341",
        "stop_name": "Trường trung học Trung Lập Hạ",
        "stop_type": "Trụ dừng",
        "route_no": "87",
        "display_code": "B 87",
        "direction": "Lượt về",
        "address": "kế 281 Tỉnh lộ 2",
        "street": "Tỉnh lộ 2",
        "zone": "Huyện Củ Chi",
        "ward": "Xã Trung Lập Hạ",
        "all_routes": "87",
        "marker_color": "#673AB7"
      }
    },
    {
      "type": "Feature",
      "geometry": {
        "type": "Point",
        "coordinates": [
          106.476617,
          11.003461
        ]
      },
      "properties": {
        "feature_type": "bus_stop",
        "stop_id": 5795,
        "stop_code": "HCC 342",
        "stop_name": "Đường Nguyễn Thị Hương",
        "stop_type": "Trụ dừng",
        "route_no": "87",
        "display_code": "B 87",
        "direction": "Lượt về",
        "address": "195B (193) Tỉnh lộ 2",
        "street": "Tỉnh lộ 2",
        "zone": "Huyện Củ Chi",
        "ward": "Xã Trung Lập Hạ",
        "all_routes": "87",
        "marker_color": "#673AB7"
      }
    },
    {
      "type": "Feature",
      "geometry": {
        "type": "Point",
        "coordinates": [
          106.482131,
          10.999733
        ]
      },
      "properties": {
        "feature_type": "bus_stop",
        "stop_id": 5796,
        "stop_code": "HCC 343",
        "stop_name": "Trường tiểu học Lê Văn Thế",
        "stop_type": "Trụ dừng",
        "route_no": "87",
        "display_code": "B 87",
        "direction": "Lượt về",
        "address": "Trường tiểu học Lê Văn Thế Tỉnh lộ 2",
        "street": "Tỉnh lộ 2",
        "zone": "Huyện Củ Chi",
        "ward": "Thị trấn Củ Chi",
        "all_routes": "87",
        "marker_color": "#673AB7"
      }
    },
    {
      "type": "Feature",
      "geometry": {
        "type": "Point",
        "coordinates": [
          106.48439,
          10.997737
        ]
      },
      "properties": {
        "feature_type": "bus_stop",
        "stop_id": 5819,
        "stop_code": "HCC 292",
        "stop_name": "Tỉnh lộ 2",
        "stop_type": "Trụ dừng",
        "route_no": "87",
        "display_code": "B 87",
        "direction": "Lượt về",
        "address": "06 (107) Giáp Hải",
        "street": "Giáp Hải",
        "zone": "Huyện Củ Chi",
        "ward": "Xã Trung Lập Hạ",
        "all_routes": "87",
        "marker_color": "#673AB7"
      }
    },
    {
      "type": "Feature",
      "geometry": {
        "type": "Point",
        "coordinates": [
          106.483639,
          10.993674
        ]
      },
      "properties": {
        "feature_type": "bus_stop",
        "stop_id": 5816,
        "stop_code": "HCC 293",
        "stop_name": "Vườn cao su",
        "stop_type": "Trụ dừng",
        "route_no": "87",
        "display_code": "B 87",
        "direction": "Lượt về",
        "address": "đối diện 67 Giáp Hải",
        "street": "Giáp Hải",
        "zone": "Huyện Củ Chi",
        "ward": "Xã Trung Lập Hạ",
        "all_routes": "87",
        "marker_color": "#673AB7"
      }
    },
    {
      "type": "Feature",
      "geometry": {
        "type": "Point",
        "coordinates": [
          106.48378,
          10.988933
        ]
      },
      "properties": {
        "feature_type": "bus_stop",
        "stop_id": 3988,
        "stop_code": "HCC 294",
        "stop_name": "Công ty Kim Đan",
        "stop_type": "Trụ dừng",
        "route_no": "87",
        "display_code": "B 87",
        "direction": "Lượt về",
        "address": "công ty Kim Đan Giáp Hải",
        "street": "Giáp Hải",
        "zone": "Huyện Củ Chi",
        "ward": "Xã Trung Lập Hạ",
        "all_routes": "87",
        "marker_color": "#673AB7"
      }
    },
    {
      "type": "Feature",
      "geometry": {
        "type": "Point",
        "coordinates": [
          106.483925,
          10.985274
        ]
      },
      "properties": {
        "feature_type": "bus_stop",
        "stop_id": 3986,
        "stop_code": "HCC 295",
        "stop_name": "Bia Sài Gòn",
        "stop_type": "Trụ dừng",
        "route_no": "87",
        "display_code": "B 87",
        "direction": "Lượt về",
        "address": "Kiềm Ngọc Nghĩa Giáp Hải",
        "street": "Giáp Hải",
        "zone": "Huyện Củ Chi",
        "ward": "Xã Tân An Hội",
        "all_routes": "87",
        "marker_color": "#673AB7"
      }
    },
    {
      "type": "Feature",
      "geometry": {
        "type": "Point",
        "coordinates": [
          106.483932,
          10.980363
        ]
      },
      "properties": {
        "feature_type": "bus_stop",
        "stop_id": 3992,
        "stop_code": "HCC 296",
        "stop_name": "Công ty HanSae",
        "stop_type": "Trụ dừng",
        "route_no": "87",
        "display_code": "B 87",
        "direction": "Lượt về",
        "address": "Đối diện công ty HanSae Giáp Hải",
        "street": "Giáp Hải",
        "zone": "Huyện Củ Chi",
        "ward": "Xã Tân An Hội",
        "all_routes": "87",
        "marker_color": "#673AB7"
      }
    },
    {
      "type": "Feature",
      "geometry": {
        "type": "Point",
        "coordinates": [
          106.482453,
          10.970495
        ]
      },
      "properties": {
        "feature_type": "bus_stop",
        "stop_id": 7617,
        "stop_code": "HCC 279",
        "stop_name": "chợ Củ Chi",
        "stop_type": "Nhà chờ",
        "route_no": "87",
        "display_code": "B 87",
        "direction": "Lượt về",
        "address": "chợ Củ Chi Quốc lộ 22",
        "street": "Quốc lộ 22",
        "zone": "Huyện Củ Chi",
        "ward": "Thị trấn Củ Chi",
        "all_routes": "100, 107, 126, 13, 70-1, 70-2, 74, 79, 87, 94",
        "marker_color": "#673AB7"
      }
    }
  ]
}