{
  "type": "FeatureCollection",
  "properties": {
    "stt": 26,
    "route_no": "107",
    "display_code": "B 107",
    "route_name": "Bến xe Củ Chi - Bố Heo",
    "start_point": "Bến xe Củ Chi",
    "end_point": "Bố Heo",
    "listed_length_km": 15,
    "operating_hours": "4:45 - 20:00",
    "color": "#009688",
    "num_variants": 2,
    "total_stops": 60,
    "total_points": 459
  },
  "features": [
    {
      "type": "Feature",
      "geometry": {
        "type": "LineString",
        "coordinates": [
          [
            106.48210144,
            10.97161674
          ],
          [
            106.48210144,
            10.97161674
          ],
          [
            106.48210144,
            10.97161674
          ],
          [
            106.48236084,
            10.97199631
          ],
          [
            106.48212433,
            10.9721384
          ],
          [
            106.48261261,
            10.97294426
          ],
          [
            106.48312378,
            10.97368145
          ],
          [
            106.48300934,
            10.97375011
          ],
          [
            106.4822464,
            10.97263908
          ],
          [
            106.48152161,
            10.97147465
          ],
          [
            106.4809494,
            10.97199631
          ],
          [
            106.48029327,
            10.9724865
          ],
          [
            106.48034668,
            10.97253323
          ],
          [
            106.48034668,
            10.97253323
          ],
          [
            106.48034668,
            10.97253323
          ],
          [
            106.48034668,
            10.97253323
          ],
          [
            106.48034668,
            10.97253323
          ],
          [
            106.4803009,
            10.9724865
          ],
          [
            106.4793396,
            10.97297573
          ],
          [
            106.47834778,
            10.97343922
          ],
          [
            106.47702789,
            10.97407627
          ],
          [
            106.47569275,
            10.97467709
          ],
          [
            106.47573853,
            10.97475624
          ],
          [
            106.47573853,
            10.97475624
          ],
          [
            106.47570038,
            10.97468758
          ],
          [
            106.47437286,
            10.97536182
          ],
          [
            106.4730835,
            10.97607803
          ],
          [
            106.47312927,
            10.97613335
          ],
          [
            106.47312927,
            10.97613335
          ],
          [
            106.47312927,
            10.97613335
          ],
          [
            106.47312927,
            10.97613335
          ],
          [
            106.47310638,
            10.97607231
          ],
          [
            106.47118378,
            10.97709942
          ],
          [
            106.46941376,
            10.97809982
          ],
          [
            106.4694519,
            10.97817898
          ],
          [
            106.4694519,
            10.97817898
          ],
          [
            106.46940613,
            10.97810555
          ],
          [
            106.46672821,
            10.97958469
          ],
          [
            106.4642334,
            10.98101234
          ],
          [
            106.46430206,
            10.98113346
          ],
          [
            106.46430206,
            10.98113346
          ],
          [
            106.46421814,
            10.98101234
          ],
          [
            106.46263885,
            10.98194408
          ],
          [
            106.46114349,
            10.98294449
          ],
          [
            106.46123505,
            10.98305035
          ],
          [
            106.46123505,
            10.98305035
          ],
          [
            106.46116638,
            10.98295498
          ],
          [
            106.46046448,
            10.98340797
          ],
          [
            106.4597702,
            10.98386097
          ],
          [
            106.45907593,
            10.9843111
          ],
          [
            106.45837402,
            10.98476124
          ],
          [
            106.4584198,
            10.98480892
          ],
          [
            106.4584198,
            10.98480892
          ],
          [
            106.45839691,
            10.98475075
          ],
          [
            106.45732117,
            10.98546505
          ],
          [
            106.45624542,
            10.9861784
          ],
          [
            106.45517731,
            10.9868679
          ],
          [
            106.45411682,
            10.98755836
          ],
          [
            106.45295715,
            10.98830032
          ],
          [
            106.45191193,
            10.9890852
          ],
          [
            106.45101929,
            10.99002743
          ],
          [
            106.4502182,
            10.99092293
          ],
          [
            106.45037842,
            10.99103546
          ],
          [
            106.45037842,
            10.99103546
          ],
          [
            106.45022583,
            10.99089146
          ],
          [
            106.44994354,
            10.99120426
          ],
          [
            106.44965363,
            10.99151707
          ],
          [
            106.44937134,
            10.99182987
          ],
          [
            106.44908142,
            10.99214172
          ],
          [
            106.44879913,
            10.99245453
          ],
          [
            106.44850922,
            10.99276733
          ],
          [
            106.44822693,
            10.99308014
          ],
          [
            106.44793701,
            10.99339294
          ],
          [
            106.44799042,
            10.99342442
          ],
          [
            106.44799042,
            10.99342442
          ],
          [
            106.44792938,
            10.99337673
          ],
          [
            106.44755554,
            10.99379253
          ],
          [
            106.4471817,
            10.99420929
          ],
          [
            106.44680786,
            10.99462509
          ],
          [
            106.44643402,
            10.99504089
          ],
          [
            106.44606018,
            10.9954567
          ],
          [
            106.44569397,
            10.99587345
          ],
          [
            106.44532013,
            10.99628925
          ],
          [
            106.44494629,
            10.99670506
          ],
          [
            106.44506073,
            10.99678898
          ],
          [
            106.44506073,
            10.99678898
          ],
          [
            106.44494629,
            10.99669933
          ],
          [
            106.44412994,
            10.99761105
          ],
          [
            106.44329071,
            10.9985323
          ],
          [
            106.44238281,
            10.99943256
          ],
          [
            106.44187164,
            10.99982262
          ],
          [
            106.44133759,
            11.00016499
          ],
          [
            106.43898773,
            11.0014286
          ],
          [
            106.43782043,
            11.00205517
          ],
          [
            106.43666077,
            11.00268173
          ],
          [
            106.43667603,
            11.00271893
          ],
          [
            106.43667603,
            11.00271893
          ],
          [
            106.43666077,
            11.00266647
          ],
          [
            106.4355545,
            11.00326061
          ],
          [
            106.4344635,
            11.00375557
          ],
          [
            106.43319702,
            11.00415325
          ],
          [
            106.4319458,
            11.00456142
          ],
          [
            106.43196869,
            11.00463009
          ],
          [
            106.43196869,
            11.00463009
          ],
          [
            106.43196869,
            11.00463009
          ],
          [
            106.43196869,
            11.00463009
          ],
          [
            106.4319458,
            11.00455666
          ],
          [
            106.43119812,
            11.00477505
          ],
          [
            106.43045807,
            11.00499344
          ],
          [
            106.42972565,
            11.00524902
          ],
          [
            106.42899323,
            11.00550461
          ],
          [
            106.42814636,
            11.00576687
          ],
          [
            106.42814636,
            11.00576687
          ],
          [
            106.42814636,
            11.00576687
          ],
          [
            106.42814636,
            11.00576687
          ],
          [
            106.42814636,
            11.00576687
          ],
          [
            106.42737579,
            11.00601482
          ],
          [
            106.42759705,
            11.00645733
          ],
          [
            106.42814636,
            11.0069418
          ],
          [
            106.42822266,
            11.00687313
          ],
          [
            106.42822266,
            11.00687313
          ],
          [
            106.42816162,
            11.00695229
          ],
          [
            106.42964172,
            11.00818443
          ],
          [
            106.4311142,
            11.00950146
          ],
          [
            106.4311142,
            11.00950146
          ],
          [
            106.43247986,
            11.0108757
          ],
          [
            106.43287659,
            11.01138115
          ],
          [
            106.43322754,
            11.01194954
          ],
          [
            106.43382263,
            11.01308727
          ],
          [
            106.43450165,
            11.01420021
          ],
          [
            106.43453217,
            11.01416111
          ],
          [
            106.43453217,
            11.01416111
          ],
          [
            106.43450165,
            11.01420021
          ],
          [
            106.43498993,
            11.01513481
          ],
          [
            106.43551636,
            11.01602459
          ],
          [
            106.43659973,
            11.01783085
          ],
          [
            106.43671417,
            11.01777267
          ],
          [
            106.43671417,
            11.01777267
          ],
          [
            106.43658447,
            11.01783657
          ],
          [
            106.43723297,
            11.01894474
          ],
          [
            106.43788147,
            11.02005291
          ],
          [
            106.43854523,
            11.02116394
          ],
          [
            106.43920898,
            11.02227497
          ],
          [
            106.44052124,
            11.02450275
          ],
          [
            106.44186401,
            11.026721
          ],
          [
            106.44187927,
            11.0266304
          ],
          [
            106.44187927,
            11.0266304
          ],
          [
            106.44186401,
            11.026721
          ],
          [
            106.44179535,
            11.02668285
          ],
          [
            106.44252014,
            11.02799416
          ],
          [
            106.44317627,
            11.02926731
          ],
          [
            106.44384003,
            11.03058434
          ],
          [
            106.44448853,
            11.03185272
          ],
          [
            106.44490051,
            11.03238487
          ],
          [
            106.44671631,
            11.03415012
          ],
          [
            106.4467392,
            11.03404331
          ],
          [
            106.4467392,
            11.03404331
          ],
          [
            106.4466629,
            11.03412724
          ],
          [
            106.44722748,
            11.03468037
          ],
          [
            106.44675446,
            11.03518963
          ],
          [
            106.44675446,
            11.03518963
          ],
          [
            106.44570923,
            11.03627014
          ],
          [
            106.4447403,
            11.03731823
          ],
          [
            106.4437561,
            11.03835011
          ],
          [
            106.44280243,
            11.0393877
          ],
          [
            106.44181061,
            11.04039955
          ],
          [
            106.44112396,
            11.04114056
          ],
          [
            106.44041443,
            11.04186249
          ],
          [
            106.44045258,
            11.04187775
          ],
          [
            106.44045258,
            11.04187775
          ],
          [
            106.44041443,
            11.04186726
          ],
          [
            106.43894958,
            11.04341507
          ],
          [
            106.43746948,
            11.04497337
          ],
          [
            106.43677521,
            11.04574299
          ],
          [
            106.43605804,
            11.04650593
          ],
          [
            106.43609619,
            11.04654789
          ],
          [
            106.43609619,
            11.04654789
          ],
          [
            106.43605042,
            11.04652691
          ],
          [
            106.43513489,
            11.04748249
          ],
          [
            106.43421936,
            11.04843807
          ],
          [
            106.43340302,
            11.04932308
          ],
          [
            106.43255615,
            11.05019093
          ],
          [
            106.4325943,
            11.05022335
          ],
          [
            106.4325943,
            11.05022335
          ],
          [
            106.43255615,
            11.05018616
          ],
          [
            106.43159485,
            11.05122852
          ],
          [
            106.43064117,
            11.05227089
          ],
          [
            106.42871857,
            11.0542984
          ],
          [
            106.42764282,
            11.05543041
          ],
          [
            106.42771149,
            11.05548286
          ],
          [
            106.42771149,
            11.05548286
          ],
          [
            106.42765045,
            11.05542469
          ],
          [
            106.42680359,
            11.05635166
          ],
          [
            106.42592621,
            11.0572834
          ],
          [
            106.42507172,
            11.05818176
          ],
          [
            106.42421722,
            11.05908012
          ],
          [
            106.42421722,
            11.05908012
          ],
          [
            106.42224121,
            11.06116295
          ],
          [
            106.42230988,
            11.06121063
          ],
          [
            106.42230988,
            11.06121063
          ],
          [
            106.42224121,
            11.06116295
          ],
          [
            106.42164612,
            11.06182098
          ],
          [
            106.42169952,
            11.06184769
          ]
        ]
      },
      "properties": {
        "feature_type": "route_path",
        "stt": 26,
        "route_id": 16,
        "route_no": "107",
        "display_code": "B 107",
        "route_name": "Bến xe Củ Chi - Bố Heo",
        "direction": "Lượt đi",
        "outbound": true,
        "start_point": "Bến xe Củ Chi",
        "end_point": "Bố Heo",
        "start_stop": "Bến xe Củ Chi",
        "end_stop": "Bố Heo",
        "distance_km": 16.25,
        "listed_length_km": 15,
        "running_time_min": 30,
        "operating_hours": "4:45 - 20:00",
        "stroke": "#009688",
        "stroke_width": 4,
        "stroke_opacity": 0.85
      }
    },
    {
      "type": "Feature",
      "geometry": {
        "type": "LineString",
        "coordinates": [
          [
            106.42169952,
            11.06184769
          ],
          [
            106.42163086,
            11.06181622
          ],
          [
            106.42169952,
            11.06173229
          ],
          [
            106.42160034,
            11.06163216
          ],
          [
            106.42169189,
            11.06172657
          ],
          [
            106.42245483,
            11.06091022
          ],
          [
            106.42321777,
            11.06009483
          ],
          [
            106.42399596999999,
            11.05928612
          ],
          [
            106.42477417,
            11.05847836
          ],
          [
            106.42462158,
            11.05834675
          ],
          [
            106.42462158,
            11.05834675
          ],
          [
            106.42478943,
            11.05846214
          ],
          [
            106.42558289,
            11.05763054
          ],
          [
            106.4263916,
            11.05679321
          ],
          [
            106.42630768,
            11.05670357
          ],
          [
            106.42630768,
            11.05670357
          ],
          [
            106.42630768,
            11.05670357
          ],
          [
            106.4263916,
            11.05677795
          ],
          [
            106.4278717,
            11.05516624
          ],
          [
            106.42938232,
            11.0535717
          ],
          [
            106.4309082,
            11.05198193
          ],
          [
            106.43235779,
            11.0503912
          ],
          [
            106.43224335,
            11.05028057
          ],
          [
            106.43224335,
            11.05028057
          ],
          [
            106.43224335,
            11.05028057
          ],
          [
            106.43224335,
            11.05028057
          ],
          [
            106.43235779,
            11.05037594
          ],
          [
            106.43320465,
            11.04950142
          ],
          [
            106.43414307,
            11.04853821
          ],
          [
            106.43501282,
            11.04760647
          ],
          [
            106.43589783,
            11.0466795
          ],
          [
            106.43580627,
            11.0466156
          ],
          [
            106.43580627,
            11.0466156
          ],
          [
            106.43580627,
            11.0466156
          ],
          [
            106.43589783,
            11.0466795
          ],
          [
            106.4368515,
            11.04563713
          ],
          [
            106.43783569,
            11.04459476
          ],
          [
            106.438797,
            11.0435524
          ],
          [
            106.43980408,
            11.0425148
          ],
          [
            106.43968964,
            11.04242516
          ],
          [
            106.43968964,
            11.04242516
          ],
          [
            106.43979645,
            11.04251003
          ],
          [
            106.44068146,
            11.04160976
          ],
          [
            106.44155884,
            11.0406723
          ],
          [
            106.44245148,
            11.03973007
          ],
          [
            106.44335175,
            11.03879261
          ],
          [
            106.44419861,
            11.03788185
          ],
          [
            106.44506073,
            11.03697109
          ],
          [
            106.44593048,
            11.0360651
          ],
          [
            106.4467926,
            11.03514862
          ],
          [
            106.44659424,
            11.0349493
          ],
          [
            106.44659424,
            11.0349493
          ],
          [
            106.44680786,
            11.03512764
          ],
          [
            106.44723511,
            11.03468609
          ],
          [
            106.44636536,
            11.03380108
          ],
          [
            106.44636536,
            11.03380108
          ],
          [
            106.44549561,
            11.03299522
          ],
          [
            106.44465637,
            11.03212643
          ],
          [
            106.44404602,
            11.03093719
          ],
          [
            106.44339752,
            11.02974701
          ],
          [
            106.44280243,
            11.02854061
          ],
          [
            106.44218445,
            11.02735615
          ],
          [
            106.4421463,
            11.02737236
          ],
          [
            106.4421463,
            11.02737236
          ],
          [
            106.4421463,
            11.02737236
          ],
          [
            106.44218445,
            11.02736187
          ],
          [
            106.44155121,
            11.0262928
          ],
          [
            106.44095612,
            11.02521324
          ],
          [
            106.43968964,
            11.02305984
          ],
          [
            106.43785095,
            11.02001953
          ],
          [
            106.4369278,
            11.01842022
          ],
          [
            106.43642426,
            11.01750469
          ],
          [
            106.43642426,
            11.01750469
          ],
          [
            106.43642426,
            11.01750469
          ],
          [
            106.43642426,
            11.01750469
          ],
          [
            106.43642426,
            11.01750469
          ],
          [
            106.43524933,
            11.01564598
          ],
          [
            106.43474579,
            11.01469803
          ],
          [
            106.43421173,
            11.01376057
          ],
          [
            106.4341507,
            11.01378727
          ],
          [
            106.4341507,
            11.01378727
          ],
          [
            106.4341507,
            11.01378727
          ],
          [
            106.4341507,
            11.01378727
          ],
          [
            106.4342041,
            11.0137558
          ],
          [
            106.43385315,
            11.01315022
          ],
          [
            106.43354034,
            11.01252365
          ],
          [
            106.43283844,
            11.01132011
          ],
          [
            106.43213654,
            11.01049995
          ],
          [
            106.43109894,
            11.00954342
          ],
          [
            106.43067932,
            11.00912666
          ],
          [
            106.43061829,
            11.00919628
          ],
          [
            106.43061829,
            11.00919628
          ],
          [
            106.43061829,
            11.00919628
          ],
          [
            106.43061829,
            11.00919628
          ],
          [
            106.43069458,
            11.00913715
          ],
          [
            106.43018341,
            11.00865841
          ],
          [
            106.42957306,
            11.00809479
          ],
          [
            106.42895508,
            11.00761318
          ],
          [
            106.4283371,
            11.00713062
          ],
          [
            106.4283371,
            11.00713062
          ],
          [
            106.4283371,
            11.00713062
          ],
          [
            106.4283371,
            11.00713062
          ],
          [
            106.42762756,
            11.00648403
          ],
          [
            106.42740631,
            11.00587273
          ],
          [
            106.42808533,
            11.00564957
          ],
          [
            106.42807007,
            11.0055666
          ],
          [
            106.42807007,
            11.0055666
          ],
          [
            106.42808533,
            11.00567245
          ],
          [
            106.42988586,
            11.00510979
          ],
          [
            106.43165588,
            11.00455093
          ],
          [
            106.43164825,
            11.0045042
          ],
          [
            106.43164825,
            11.0045042
          ],
          [
            106.43165588,
            11.00456142
          ],
          [
            106.43273163,
            11.00420856
          ],
          [
            106.43382263,
            11.00384045
          ],
          [
            106.43483734,
            11.00349808
          ],
          [
            106.43578339,
            11.00303459
          ],
          [
            106.43575287,
            11.00296593
          ],
          [
            106.43575287,
            11.00296593
          ],
          [
            106.43580627,
            11.0030241
          ],
          [
            106.43778229,
            11.00198174
          ],
          [
            106.43877411,
            11.00144196
          ],
          [
            106.43976593,
            11.00090218
          ],
          [
            106.44074249,
            11.0003624
          ],
          [
            106.44171143,
            10.99982262
          ],
          [
            106.44216156,
            10.99950123
          ],
          [
            106.44258118,
            10.99915886
          ],
          [
            106.44329071,
            10.99839497
          ],
          [
            106.4432373,
            10.99835873
          ],
          [
            106.4432373,
            10.99835873
          ],
          [
            106.44329834,
            10.9983902
          ],
          [
            106.44368744,
            10.99795341
          ],
          [
            106.44407654,
            10.99751568
          ],
          [
            106.44448853,
            10.99707413
          ],
          [
            106.44487,
            10.99661732
          ],
          [
            106.44487,
            10.99661732
          ],
          [
            106.44487,
            10.99661732
          ],
          [
            106.44487,
            10.99661732
          ],
          [
            106.44491577,
            10.99664211
          ],
          [
            106.44532776,
            10.99616814
          ],
          [
            106.44578552,
            10.99568844
          ],
          [
            106.44620514,
            10.99521255
          ],
          [
            106.44663239,
            10.99473572
          ],
          [
            106.44706726,
            10.99425697
          ],
          [
            106.44750214,
            10.99377728
          ],
          [
            106.44792175,
            10.99328899
          ],
          [
            106.44833374,
            10.99279976
          ],
          [
            106.44833374,
            10.99279976
          ],
          [
            106.44836426,
            10.99269772
          ],
          [
            106.44836426,
            10.99269772
          ],
          [
            106.44833374,
            10.99279976
          ],
          [
            106.44871521,
            10.99242496
          ],
          [
            106.44909668,
            10.99205017
          ],
          [
            106.44947815,
            10.99163151
          ],
          [
            106.44985199,
            10.99121284
          ],
          [
            106.45023346,
            10.99079418
          ],
          [
            106.4506073,
            10.99037552
          ],
          [
            106.45126343,
            10.9895668
          ],
          [
            106.45126343,
            10.9895668
          ],
          [
            106.45126343,
            10.9895668
          ],
          [
            106.45173645,
            10.98910618
          ],
          [
            106.45226288,
            10.98869038
          ],
          [
            106.45340729,
            10.98792171
          ],
          [
            106.45458984,
            10.9871521
          ],
          [
            106.45570374,
            10.9864254
          ],
          [
            106.45565796,
            10.98633575
          ],
          [
            106.45565796,
            10.98633575
          ],
          [
            106.45571899,
            10.98639965
          ],
          [
            106.45700073,
            10.98556232
          ],
          [
            106.45827484,
            10.98471451
          ],
          [
            106.45823669,
            10.98466206
          ],
          [
            106.45823669,
            10.98466206
          ],
          [
            106.45826721,
            10.98470879
          ],
          [
            106.45897675,
            10.98425579
          ],
          [
            106.45967865,
            10.9838028
          ],
          [
            106.46038055,
            10.98334503
          ],
          [
            106.46108246,
            10.98288727
          ],
          [
            106.46103668,
            10.98285484
          ],
          [
            106.46101379,
            10.98288345
          ],
          [
            106.46101379,
            10.98288345
          ],
          [
            106.46105194,
            10.98292923
          ],
          [
            106.46173096,
            10.98248196
          ],
          [
            106.46240997,
            10.98203373
          ],
          [
            106.46311188,
            10.98159981
          ],
          [
            106.46380615,
            10.98116493
          ],
          [
            106.46374512,
            10.98104858
          ],
          [
            106.46374512,
            10.98104858
          ],
          [
            106.46374512,
            10.98104858
          ],
          [
            106.46374512,
            10.98104858
          ],
          [
            106.46379852,
            10.98114395
          ],
          [
            106.46451569,
            10.98073292
          ],
          [
            106.46524048,
            10.98031712
          ],
          [
            106.4659729,
            10.97991467
          ],
          [
            106.46670532,
            10.97951126
          ],
          [
            106.46744537,
            10.97910309
          ],
          [
            106.46818542,
            10.97869492
          ],
          [
            106.46892548,
            10.97828674
          ],
          [
            106.46966553,
            10.97787857
          ],
          [
            106.46963501,
            10.97778416
          ],
          [
            106.46963501,
            10.97778416
          ],
          [
            106.46963501,
            10.97778416
          ],
          [
            106.46963501,
            10.97778416
          ],
          [
            106.46966553,
            10.97787857
          ],
          [
            106.47042084,
            10.97744942
          ],
          [
            106.47117615,
            10.97702026
          ],
          [
            106.47195435,
            10.97659683
          ],
          [
            106.47274017,
            10.97617245
          ],
          [
            106.47271729,
            10.97610855
          ],
          [
            106.47271729,
            10.97610855
          ],
          [
            106.47271729,
            10.97610855
          ],
          [
            106.47271729,
            10.97610855
          ],
          [
            106.47273254,
            10.97614956
          ],
          [
            106.47273254,
            10.97614956
          ],
          [
            106.47333527,
            10.97581673
          ],
          [
            106.47393799,
            10.97548294
          ],
          [
            106.47455597,
            10.97516727
          ],
          [
            106.47518158,
            10.97485065
          ],
          [
            106.47574615,
            10.97456169
          ],
          [
            106.47631073,
            10.97427177
          ],
          [
            106.47689056,
            10.97400284
          ],
          [
            106.4774704,
            10.97373295
          ],
          [
            106.4774704,
            10.97373295
          ],
          [
            106.47743988,
            10.97365475
          ],
          [
            106.47743988,
            10.97365475
          ],
          [
            106.47657776,
            10.97406101
          ],
          [
            106.47689819,
            10.97399235
          ],
          [
            106.47734833,
            10.97375488
          ],
          [
            106.47782135,
            10.97355556
          ],
          [
            106.47809601,
            10.97330761
          ],
          [
            106.47809601,
            10.97330761
          ],
          [
            106.4785614,
            10.97319698
          ],
          [
            106.47930908,
            10.97284985
          ],
          [
            106.4799881,
            10.97250748
          ],
          [
            106.48049164,
            10.97209072
          ],
          [
            106.48049164,
            10.97209072
          ],
          [
            106.48049164,
            10.97209072
          ],
          [
            106.48056793,
            10.97216511
          ],
          [
            106.48134613,
            10.97150135
          ],
          [
            106.48191071,
            10.97102737
          ],
          [
            106.48249054,
            10.9705534
          ],
          [
            106.48245239,
            10.97049522
          ],
          [
            106.48245239,
            10.97049522
          ],
          [
            106.48245239,
            10.97049522
          ],
          [
            106.48248291,
            10.97053242
          ],
          [
            106.48420715,
            10.96936321
          ],
          [
            106.48522949,
            10.9686842
          ],
          [
            106.48571014,
            10.96838856
          ],
          [
            106.48602295,
            10.96812534
          ],
          [
            106.48632813,
            10.96824646
          ],
          [
            106.48619843,
            10.96862602
          ],
          [
            106.48579407,
            10.9686203
          ],
          [
            106.48487091,
            10.9690733
          ],
          [
            106.48377991,
            10.96977901
          ],
          [
            106.48271942,
            10.9705162
          ],
          [
            106.48174286,
            10.97130108
          ],
          [
            106.48210144,
            10.97161674
          ]
        ]
      },
      "properties": {
        "feature_type": "route_path",
        "stt": 26,
        "route_id": 16,
        "route_no": "107",
        "display_code": "B 107",
        "route_name": "Bến xe Củ Chi - Bố Heo",
        "direction": "Lượt về",
        "outbound": false,
        "start_point": "Bến xe Củ Chi",
        "end_point": "Bố Heo",
        "start_stop": "Bố Heo",
        "end_stop": "Bến xe Củ Chi",
        "distance_km": 17.13,
        "listed_length_km": 15,
        "running_time_min": 30,
        "operating_hours": "4:45 - 20:00",
        "stroke": "#009688",
        "stroke_width": 4,
        "stroke_opacity": 0.85
      }
    },
    {
      "type": "Feature",
      "geometry": {
        "type": "Point",
        "coordinates": [
          106.482099,
          10.971617
        ]
      },
      "properties": {
        "feature_type": "bus_stop",
        "stop_id": 732,
        "stop_code": "BX 63",
        "stop_name": "Bến xe Củ Chi",
        "stop_type": "Bến xe",
        "route_no": "107",
        "display_code": "B 107",
        "direction": "Lượt đi",
        "address": "Bến xe Củ Chi Quốc lộ 22",
        "street": "Quốc lộ 22",
        "zone": "Huyện Củ Chi",
        "ward": null,
        "all_routes": "100, 107, 126, 13, 70-1, 70-2, 74, 79, 87, 94",
        "marker_color": "#009688"
      }
    },
    {
      "type": "Feature",
      "geometry": {
        "type": "Point",
        "coordinates": [
          106.480347,
          10.972533
        ]
      },
      "properties": {
        "feature_type": "bus_stop",
        "stop_id": 734,
        "stop_code": "HCC 018",
        "stop_name": "Bến xe Củ Chi",
        "stop_type": "Nhà chờ",
        "route_no": "107",
        "display_code": "B 107",
        "direction": "Lượt đi",
        "address": "928 Quốc lộ 22",
        "street": "Quốc lộ 22",
        "zone": "Huyện Củ Chi",
        "ward": null,
        "all_routes": "100, 107, 70-1, 70-2, 79",
        "marker_color": "#009688"
      }
    },
    {
      "type": "Feature",
      "geometry": {
        "type": "Point",
        "coordinates": [
          106.475742,
          10.974756
        ]
      },
      "properties": {
        "feature_type": "bus_stop",
        "stop_id": 733,
        "stop_code": "HCC 019",
        "stop_name": "Bệnh viện Củ Chi",
        "stop_type": "Trụ dừng",
        "route_no": "107",
        "display_code": "B 107",
        "direction": "Lượt đi",
        "address": "18 Quốc lộ 22",
        "street": "Quốc lộ 22",
        "zone": "Huyện Củ Chi",
        "ward": "Thị trấn Củ Chi",
        "all_routes": "100, 107, 70-1, 70-2, 79",
        "marker_color": "#009688"
      }
    },
    {
      "type": "Feature",
      "geometry": {
        "type": "Point",
        "coordinates": [
          106.473129,
          10.976133
        ]
      },
      "properties": {
        "feature_type": "bus_stop",
        "stop_id": 738,
        "stop_code": "HCC 020",
        "stop_name": "Trạm xăng",
        "stop_type": "Ô sơn",
        "route_no": "107",
        "display_code": "B 107",
        "direction": "Lượt đi",
        "address": "86 Quốc lộ 22",
        "street": "Quốc lộ 22",
        "zone": "Huyện Củ Chi",
        "ward": null,
        "all_routes": "100, 107, 70-1, 70-2, 79",
        "marker_color": "#009688"
      }
    },
    {
      "type": "Feature",
      "geometry": {
        "type": "Point",
        "coordinates": [
          106.469455,
          10.978179
        ]
      },
      "properties": {
        "feature_type": "bus_stop",
        "stop_id": 735,
        "stop_code": "HCC 021",
        "stop_name": "Công ty phân bón Sinh hóa Củ Chi",
        "stop_type": "Trụ dừng",
        "route_no": "107",
        "display_code": "B 107",
        "direction": "Lượt đi",
        "address": "128 Quốc lộ 22",
        "street": "Quốc lộ 22",
        "zone": "Huyện Củ Chi",
        "ward": null,
        "all_routes": "100, 107, 70-1, 70-2",
        "marker_color": "#009688"
      }
    },
    {
      "type": "Feature",
      "geometry": {
        "type": "Point",
        "coordinates": [
          106.4643,
          10.981133
        ]
      },
      "properties": {
        "feature_type": "bus_stop",
        "stop_id": 7679,
        "stop_code": "HCC 297",
        "stop_name": "Ấp Bàu Tre",
        "stop_type": "Trụ dừng",
        "route_no": "107",
        "display_code": "B 107",
        "direction": "Lượt đi",
        "address": "246B Quốc lộ 22",
        "street": "Quốc lộ 22",
        "zone": "Huyện Củ Chi",
        "ward": "Xã Phước Hiệp",
        "all_routes": "100, 107, 70-1, 70-2",
        "marker_color": "#009688"
      }
    },
    {
      "type": "Feature",
      "geometry": {
        "type": "Point",
        "coordinates": [
          106.461232,
          10.98305
        ]
      },
      "properties": {
        "feature_type": "bus_stop",
        "stop_id": 741,
        "stop_code": "HCC 022",
        "stop_name": "Trạm xăng Phước Hiệp 1",
        "stop_type": "Trụ dừng",
        "route_no": "107",
        "display_code": "B 107",
        "direction": "Lượt đi",
        "address": "282 Quốc lộ 22",
        "street": "Quốc lộ 22",
        "zone": "Huyện Củ Chi",
        "ward": null,
        "all_routes": "100, 107, 70-1, 70-2",
        "marker_color": "#009688"
      }
    },
    {
      "type": "Feature",
      "geometry": {
        "type": "Point",
        "coordinates": [
          106.458421,
          10.984809
        ]
      },
      "properties": {
        "feature_type": "bus_stop",
        "stop_id": 7833,
        "stop_code": "HCC 344",
        "stop_name": "Đường số 606",
        "stop_type": "Nhà chờ",
        "route_no": "107",
        "display_code": "B 107",
        "direction": "Lượt đi",
        "address": "Cạnh đường số 606 Quốc lộ 22",
        "street": "Quốc lộ 22",
        "zone": "Huyện Củ Chi",
        "ward": "Xã Tân An Hội",
        "all_routes": "100, 107, 70-1, 70-2",
        "marker_color": "#009688"
      }
    },
    {
      "type": "Feature",
      "geometry": {
        "type": "Point",
        "coordinates": [
          106.451361,
          10.989707
        ]
      },
      "properties": {
        "feature_type": "bus_stop",
        "stop_id": 736,
        "stop_code": "HCC 023",
        "stop_name": "Đối diện UBND xa Phước Hiệp",
        "stop_type": "Trụ dừng",
        "route_no": "107",
        "display_code": "B 107",
        "direction": "Lượt đi",
        "address": "Đối diện UBND xa Phước Hiệp (số 438) Quốc lộ 22",
        "street": "Quốc lộ 22",
        "zone": "Huyện Củ Chi",
        "ward": "Xã Phước Hiệp",
        "all_routes": "100, 107, 70-1, 70-2",
        "marker_color": "#009688"
      }
    },
    {
      "type": "Feature",
      "geometry": {
        "type": "Point",
        "coordinates": [
          106.447987,
          10.993424
        ]
      },
      "properties": {
        "feature_type": "bus_stop",
        "stop_id": 743,
        "stop_code": "HCC 024",
        "stop_name": "Đối diện Trường Tiểu học Phước Hiệp",
        "stop_type": "Nhà chờ",
        "route_no": "107",
        "display_code": "B 107",
        "direction": "Lượt đi",
        "address": "Đối diện cây xăng 54 (508) Quốc lộ 22",
        "street": "Quốc lộ 22",
        "zone": "Huyện Củ Chi",
        "ward": "Xã Phước Hiệp",
        "all_routes": "100, 107, 70-1, 70-2",
        "marker_color": "#009688"
      }
    },
    {
      "type": "Feature",
      "geometry": {
        "type": "Point",
        "coordinates": [
          106.445058,
          10.996789
        ]
      },
      "properties": {
        "feature_type": "bus_stop",
        "stop_id": 737,
        "stop_code": "HCC 025",
        "stop_name": "Cây xăng Phước Thạnh",
        "stop_type": "Trụ dừng",
        "route_no": "107",
        "display_code": "B 107",
        "direction": "Lượt đi",
        "address": "576 Quốc lộ 22",
        "street": "Quốc lộ 22",
        "zone": "Huyện Củ Chi",
        "ward": "Xã Phước Hiệp",
        "all_routes": "100, 107, 70-1, 70-2",
        "marker_color": "#009688"
      }
    },
    {
      "type": "Feature",
      "geometry": {
        "type": "Point",
        "coordinates": [
          106.436679,
          11.002719
        ]
      },
      "properties": {
        "feature_type": "bus_stop",
        "stop_id": 7845,
        "stop_code": "HCC 349",
        "stop_name": "Đường 622",
        "stop_type": "Ô sơn",
        "route_no": "107",
        "display_code": "B 107",
        "direction": "Lượt đi",
        "address": "Đối diện 671 Quốc lộ 22",
        "street": "Quốc lộ 22",
        "zone": "Huyện Củ Chi",
        "ward": "Xã Phước Thạnh",
        "all_routes": "100, 107, 70-1, 70-2",
        "marker_color": "#009688"
      }
    },
    {
      "type": "Feature",
      "geometry": {
        "type": "Point",
        "coordinates": [
          106.431969,
          11.00463
        ]
      },
      "properties": {
        "feature_type": "bus_stop",
        "stop_id": 745,
        "stop_code": "HCC 026",
        "stop_name": "UBND xã Phước Thạnh",
        "stop_type": "Nhà chờ",
        "route_no": "107",
        "display_code": "B 107",
        "direction": "Lượt đi",
        "address": "UBND xã Phước Thạnh Quốc lộ 22",
        "street": "Quốc lộ 22",
        "zone": "Huyện Củ Chi",
        "ward": "Xã Phước Thạnh",
        "all_routes": "100, 107, 70-1, 70-2",
        "marker_color": "#009688"
      }
    },
    {
      "type": "Feature",
      "geometry": {
        "type": "Point",
        "coordinates": [
          106.428146,
          11.005767
        ]
      },
      "properties": {
        "feature_type": "bus_stop",
        "stop_id": 739,
        "stop_code": "QCCT028",
        "stop_name": "Ngã tư Phước Thạnh",
        "stop_type": "Trụ dừng",
        "route_no": "107",
        "display_code": "B 107",
        "direction": "Lượt đi",
        "address": "826 Quốc lộ 22",
        "street": "Quốc lộ 22",
        "zone": "Huyện Củ Chi",
        "ward": "Xã Phước Thạnh",
        "all_routes": "100, 107, 70-1, 70-2",
        "marker_color": "#009688"
      }
    },
    {
      "type": "Feature",
      "geometry": {
        "type": "Point",
        "coordinates": [
          106.428219,
          11.006873
        ]
      },
      "properties": {
        "feature_type": "bus_stop",
        "stop_id": 947,
        "stop_code": "HCC 104",
        "stop_name": "Trường tiểu học An Phước",
        "stop_type": "Trụ dừng",
        "route_no": "107",
        "display_code": "B 107",
        "direction": "Lượt đi",
        "address": "816 Tỉnh lộ 7",
        "street": "Tỉnh lộ 7",
        "zone": "Huyện Củ Chi",
        "ward": null,
        "all_routes": "107",
        "marker_color": "#009688"
      }
    },
    {
      "type": "Feature",
      "geometry": {
        "type": "Point",
        "coordinates": [
          106.431111,
          11.009501
        ]
      },
      "properties": {
        "feature_type": "bus_stop",
        "stop_id": 939,
        "stop_code": "HCC 105",
        "stop_name": "Ấp Phước Hưng",
        "stop_type": "Trụ dừng",
        "route_no": "107",
        "display_code": "B 107",
        "direction": "Lượt đi",
        "address": "896 (901) Tỉnh lộ 7",
        "street": "Tỉnh lộ 7",
        "zone": "Huyện Củ Chi",
        "ward": null,
        "all_routes": "107",
        "marker_color": "#009688"
      }
    },
    {
      "type": "Feature",
      "geometry": {
        "type": "Point",
        "coordinates": [
          106.434533,
          11.014161
        ]
      },
      "properties": {
        "feature_type": "bus_stop",
        "stop_id": 949,
        "stop_code": "HCC 106",
        "stop_name": "Miếu thờ Họ Ngô",
        "stop_type": "Trụ dừng",
        "route_no": "107",
        "display_code": "B 107",
        "direction": "Lượt đi",
        "address": "1022 Tỉnh lộ 7",
        "street": "Tỉnh lộ 7",
        "zone": "Huyện Củ Chi",
        "ward": null,
        "all_routes": "107",
        "marker_color": "#009688"
      }
    },
    {
      "type": "Feature",
      "geometry": {
        "type": "Point",
        "coordinates": [
          106.436716,
          11.017773
        ]
      },
      "properties": {
        "feature_type": "bus_stop",
        "stop_id": 940,
        "stop_code": "HCC 107",
        "stop_name": "Bàu điều",
        "stop_type": "Trụ dừng",
        "route_no": "107",
        "display_code": "B 107",
        "direction": "Lượt đi",
        "address": "1080B-1080C Tỉnh lộ 7",
        "street": "Tỉnh lộ 7",
        "zone": "Huyện Củ Chi",
        "ward": null,
        "all_routes": "107",
        "marker_color": "#009688"
      }
    },
    {
      "type": "Feature",
      "geometry": {
        "type": "Point",
        "coordinates": [
          106.441877,
          11.02663
        ]
      },
      "properties": {
        "feature_type": "bus_stop",
        "stop_id": 950,
        "stop_code": "HCC 108",
        "stop_name": "đường 703",
        "stop_type": "Trụ dừng",
        "route_no": "107",
        "display_code": "B 107",
        "direction": "Lượt đi",
        "address": "Đối diện 37 (26) Tỉnh lộ 7",
        "street": "Tỉnh lộ 7",
        "zone": "Huyện Củ Chi",
        "ward": null,
        "all_routes": "107",
        "marker_color": "#009688"
      }
    },
    {
      "type": "Feature",
      "geometry": {
        "type": "Point",
        "coordinates": [
          106.446742,
          11.034043
        ]
      },
      "properties": {
        "feature_type": "bus_stop",
        "stop_id": 941,
        "stop_code": "HCC 109",
        "stop_name": "Tỉnh Lộ 2",
        "stop_type": "Trụ dừng",
        "route_no": "107",
        "display_code": "B 107",
        "direction": "Lượt đi",
        "address": "176 Tỉnh lộ 7",
        "street": "Tỉnh lộ 7",
        "zone": "Huyện Củ Chi",
        "ward": "Xã Trung Lập Hạ",
        "all_routes": "107",
        "marker_color": "#009688"
      }
    },
    {
      "type": "Feature",
      "geometry": {
        "type": "Point",
        "coordinates": [
          106.446757,
          11.03519
        ]
      },
      "properties": {
        "feature_type": "bus_stop",
        "stop_id": 952,
        "stop_code": "HCC 321",
        "stop_name": "Tỉnh lộ 7",
        "stop_type": "Trụ dừng",
        "route_no": "107",
        "display_code": "B 107",
        "direction": "Lượt đi",
        "address": "598 Tỉnh lộ 2",
        "street": "Tỉnh lộ 2",
        "zone": "Huyện Củ Chi",
        "ward": null,
        "all_routes": "107",
        "marker_color": "#009688"
      }
    },
    {
      "type": "Feature",
      "geometry": {
        "type": "Point",
        "coordinates": [
          106.44045,
          11.041878
        ]
      },
      "properties": {
        "feature_type": "bus_stop",
        "stop_id": 945,
        "stop_code": "HCC 322",
        "stop_name": "Trường tiểu học Liên Trung",
        "stop_type": "Trụ dừng",
        "route_no": "107",
        "display_code": "B 107",
        "direction": "Lượt đi",
        "address": "660 Tỉnh lộ 2",
        "street": "Tỉnh lộ 2",
        "zone": "Huyện Củ Chi",
        "ward": null,
        "all_routes": "107",
        "marker_color": "#009688"
      }
    },
    {
      "type": "Feature",
      "geometry": {
        "type": "Point",
        "coordinates": [
          106.436094,
          11.046548
        ]
      },
      "properties": {
        "feature_type": "bus_stop",
        "stop_id": 953,
        "stop_code": "HCC 323",
        "stop_name": "Kênh Đông",
        "stop_type": "Trụ dừng",
        "route_no": "107",
        "display_code": "B 107",
        "direction": "Lượt đi",
        "address": "772 Tỉnh lộ 2",
        "street": "Tỉnh lộ 2",
        "zone": "Huyện Củ Chi",
        "ward": null,
        "all_routes": "107",
        "marker_color": "#009688"
      }
    },
    {
      "type": "Feature",
      "geometry": {
        "type": "Point",
        "coordinates": [
          106.432596,
          11.050223
        ]
      },
      "properties": {
        "feature_type": "bus_stop",
        "stop_id": 948,
        "stop_code": "HCC 324",
        "stop_name": "Nhà may Bích Liễu",
        "stop_type": "Trụ dừng",
        "route_no": "107",
        "display_code": "B 107",
        "direction": "Lượt đi",
        "address": "846-848 Tỉnh lộ 2",
        "street": "Tỉnh lộ 2",
        "zone": "Huyện Củ Chi",
        "ward": null,
        "all_routes": "107",
        "marker_color": "#009688"
      }
    },
    {
      "type": "Feature",
      "geometry": {
        "type": "Point",
        "coordinates": [
          106.427715,
          11.055483
        ]
      },
      "properties": {
        "feature_type": "bus_stop",
        "stop_id": 954,
        "stop_code": "HCC 325",
        "stop_name": "Văn phòng ấp Trung Hưng",
        "stop_type": "Trụ dừng",
        "route_no": "107",
        "display_code": "B 107",
        "direction": "Lượt đi",
        "address": "đối diện 967 Tỉnh lộ 2",
        "street": "Tỉnh lộ 2",
        "zone": "Huyện Củ Chi",
        "ward": null,
        "all_routes": "107",
        "marker_color": "#009688"
      }
    },
    {
      "type": "Feature",
      "geometry": {
        "type": "Point",
        "coordinates": [
          106.424217,
          11.05908
        ]
      },
      "properties": {
        "feature_type": "bus_stop",
        "stop_id": 956,
        "stop_code": "HCC 326",
        "stop_name": "Cây xăng Sông Châu",
        "stop_type": "Trụ dừng",
        "route_no": "107",
        "display_code": "B 107",
        "direction": "Lượt đi",
        "address": "980 Tỉnh lộ 2",
        "street": "Tỉnh lộ 2",
        "zone": "Huyện Củ Chi",
        "ward": null,
        "all_routes": "107",
        "marker_color": "#009688"
      }
    },
    {
      "type": "Feature",
      "geometry": {
        "type": "Point",
        "coordinates": [
          106.422307,
          11.061211
        ]
      },
      "properties": {
        "feature_type": "bus_stop",
        "stop_id": 958,
        "stop_code": "HCC 327",
        "stop_name": "Bố Heo",
        "stop_type": "Trụ dừng",
        "route_no": "107",
        "display_code": "B 107",
        "direction": "Lượt đi",
        "address": "1010 Tỉnh lộ 2",
        "street": "Tỉnh lộ 2",
        "zone": "Huyện Củ Chi",
        "ward": null,
        "all_routes": "107",
        "marker_color": "#009688"
      }
    },
    {
      "type": "Feature",
      "geometry": {
        "type": "Point",
        "coordinates": [
          106.421696,
          11.061848
        ]
      },
      "properties": {
        "feature_type": "bus_stop",
        "stop_id": 955,
        "stop_code": "BX 65",
        "stop_name": "Bố Heo",
        "stop_type": "Bến xe",
        "route_no": "107",
        "display_code": "B 107",
        "direction": "Lượt đi",
        "address": "ĐẦU BẾN BỐ HEO Hương lộ 2",
        "street": "Hương lộ 2",
        "zone": "Huyện Củ Chi",
        "ward": null,
        "all_routes": "107",
        "marker_color": "#009688"
      }
    },
    {
      "type": "Feature",
      "geometry": {
        "type": "Point",
        "coordinates": [
          106.421599,
          11.061632
        ]
      },
      "properties": {
        "feature_type": "bus_stop",
        "stop_id": 959,
        "stop_code": "HCC 328",
        "stop_name": "Bố Heo",
        "stop_type": "Trụ dừng",
        "route_no": "107",
        "display_code": "B 107",
        "direction": "Lượt về",
        "address": "đối diện 1010 Tỉnh lộ 2",
        "street": "Tỉnh lộ 2",
        "zone": "Huyện Củ Chi",
        "ward": null,
        "all_routes": "107",
        "marker_color": "#009688"
      }
    },
    {
      "type": "Feature",
      "geometry": {
        "type": "Point",
        "coordinates": [
          106.424625,
          11.058347
        ]
      },
      "properties": {
        "feature_type": "bus_stop",
        "stop_id": 960,
        "stop_code": "HCC 329",
        "stop_name": "cây xăng Sông Châu",
        "stop_type": "Trụ dừng",
        "route_no": "107",
        "display_code": "B 107",
        "direction": "Lượt về",
        "address": "1021 (1029) Tỉnh lộ 2",
        "street": "Tỉnh lộ 2",
        "zone": "Huyện Củ Chi",
        "ward": null,
        "all_routes": "107",
        "marker_color": "#009688"
      }
    },
    {
      "type": "Feature",
      "geometry": {
        "type": "Point",
        "coordinates": [
          106.426309,
          11.056704
        ]
      },
      "properties": {
        "feature_type": "bus_stop",
        "stop_id": 962,
        "stop_code": "HCC 330",
        "stop_name": "văn phòng Ấp Trung Hưng",
        "stop_type": "Trụ dừng",
        "route_no": "107",
        "display_code": "B 107",
        "direction": "Lượt về",
        "address": "971A (đối diện 938) Tỉnh lộ 2",
        "street": "Tỉnh lộ 2",
        "zone": "Huyện Củ Chi",
        "ward": null,
        "all_routes": "107",
        "marker_color": "#009688"
      }
    },
    {
      "type": "Feature",
      "geometry": {
        "type": "Point",
        "coordinates": [
          106.432242,
          11.050281
        ]
      },
      "properties": {
        "feature_type": "bus_stop",
        "stop_id": 5791,
        "stop_code": "HCC 331",
        "stop_name": "Nhà may Bích Liễu",
        "stop_type": "Trụ dừng",
        "route_no": "107",
        "display_code": "B 107",
        "direction": "Lượt về",
        "address": "893 Tỉnh lộ 2",
        "street": "Tỉnh lộ 2",
        "zone": "Huyện Củ Chi",
        "ward": "Thị trấn Củ Chi",
        "all_routes": "107",
        "marker_color": "#009688"
      }
    },
    {
      "type": "Feature",
      "geometry": {
        "type": "Point",
        "coordinates": [
          106.435804,
          11.046616
        ]
      },
      "properties": {
        "feature_type": "bus_stop",
        "stop_id": 5792,
        "stop_code": "HCC 332",
        "stop_name": "Kênh Đông",
        "stop_type": "Trụ dừng",
        "route_no": "107",
        "display_code": "B 107",
        "direction": "Lượt về",
        "address": "791A Tỉnh lộ 2",
        "street": "Tỉnh lộ 2",
        "zone": "Huyện Củ Chi",
        "ward": "Thị trấn Củ Chi",
        "all_routes": "107",
        "marker_color": "#009688"
      }
    },
    {
      "type": "Feature",
      "geometry": {
        "type": "Point",
        "coordinates": [
          106.439688,
          11.042425
        ]
      },
      "properties": {
        "feature_type": "bus_stop",
        "stop_id": 5793,
        "stop_code": "HCC 333",
        "stop_name": "Trường tiểu học Liên Trung",
        "stop_type": "Trụ dừng",
        "route_no": "107",
        "display_code": "B 107",
        "direction": "Lượt về",
        "address": "715-717A Tỉnh lộ 2",
        "street": "Tỉnh lộ 2",
        "zone": "Huyện Củ Chi",
        "ward": "Thị trấn Củ Chi",
        "all_routes": "107",
        "marker_color": "#009688"
      }
    },
    {
      "type": "Feature",
      "geometry": {
        "type": "Point",
        "coordinates": [
          106.446598,
          11.034949
        ]
      },
      "properties": {
        "feature_type": "bus_stop",
        "stop_id": 5794,
        "stop_code": "HCC 334",
        "stop_name": "Tỉnh lộ 7",
        "stop_type": "Trụ dừng",
        "route_no": "107",
        "display_code": "B 107",
        "direction": "Lượt về",
        "address": "641 Tỉnh lộ 2",
        "street": "Tỉnh lộ 2",
        "zone": "Huyện Củ Chi",
        "ward": "Thị trấn Củ Chi",
        "all_routes": "107",
        "marker_color": "#009688"
      }
    },
    {
      "type": "Feature",
      "geometry": {
        "type": "Point",
        "coordinates": [
          106.446367,
          11.033801
        ]
      },
      "properties": {
        "feature_type": "bus_stop",
        "stop_id": 968,
        "stop_code": "QCCT186",
        "stop_name": "Tỉnh lộ 2",
        "stop_type": "Trụ dừng",
        "route_no": "107",
        "display_code": "B 107",
        "direction": "Lượt về",
        "address": "Đối diện 178 Tỉnh lộ 7",
        "street": "Tỉnh lộ 7",
        "zone": "Huyện Củ Chi",
        "ward": "Xã Trung Lập Thượng",
        "all_routes": "107",
        "marker_color": "#009688"
      }
    },
    {
      "type": "Feature",
      "geometry": {
        "type": "Point",
        "coordinates": [
          106.44215,
          11.027372
        ]
      },
      "properties": {
        "feature_type": "bus_stop",
        "stop_id": 970,
        "stop_code": "HCC 139",
        "stop_name": "đường 703",
        "stop_type": "Trụ dừng",
        "route_no": "107",
        "display_code": "B 107",
        "direction": "Lượt về",
        "address": "57 (Đối diện 44) Tỉnh lộ 7",
        "street": "Tỉnh lộ 7",
        "zone": "Huyện Củ Chi",
        "ward": "Xã Trung Lập Thượng",
        "all_routes": "107",
        "marker_color": "#009688"
      }
    },
    {
      "type": "Feature",
      "geometry": {
        "type": "Point",
        "coordinates": [
          106.436427,
          11.017505
        ]
      },
      "properties": {
        "feature_type": "bus_stop",
        "stop_id": 957,
        "stop_code": "HCC 140",
        "stop_name": "Bàu điều",
        "stop_type": "Trụ dừng",
        "route_no": "107",
        "display_code": "B 107",
        "direction": "Lượt về",
        "address": "977 Tỉnh lộ 7",
        "street": "Tỉnh lộ 7",
        "zone": "Huyện Củ Chi",
        "ward": null,
        "all_routes": "107",
        "marker_color": "#009688"
      }
    },
    {
      "type": "Feature",
      "geometry": {
        "type": "Point",
        "coordinates": [
          106.434147,
          11.013787
        ]
      },
      "properties": {
        "feature_type": "bus_stop",
        "stop_id": 971,
        "stop_code": "HCC 141",
        "stop_name": "Miếu thờ họ Ngô",
        "stop_type": "Trụ dừng",
        "route_no": "107",
        "display_code": "B 107",
        "direction": "Lượt về",
        "address": "917 Tỉnh lộ 7",
        "street": "Tỉnh lộ 7",
        "zone": "Huyện Củ Chi",
        "ward": null,
        "all_routes": "107",
        "marker_color": "#009688"
      }
    },
    {
      "type": "Feature",
      "geometry": {
        "type": "Point",
        "coordinates": [
          106.430617,
          11.009196
        ]
      },
      "properties": {
        "feature_type": "bus_stop",
        "stop_id": 961,
        "stop_code": "HCC 142",
        "stop_name": "Ấp Phước Hưng",
        "stop_type": "Trụ dừng",
        "route_no": "107",
        "display_code": "B 107",
        "direction": "Lượt về",
        "address": "Đối diện 878 Tỉnh lộ 7",
        "street": "Tỉnh lộ 7",
        "zone": "Huyện Củ Chi",
        "ward": null,
        "all_routes": "107",
        "marker_color": "#009688"
      }
    },
    {
      "type": "Feature",
      "geometry": {
        "type": "Point",
        "coordinates": [
          106.428337,
          11.007131
        ]
      },
      "properties": {
        "feature_type": "bus_stop",
        "stop_id": 975,
        "stop_code": "HCC 143",
        "stop_name": "trường tiểu học An Phước",
        "stop_type": "Trụ dừng",
        "route_no": "107",
        "display_code": "B 107",
        "direction": "Lượt về",
        "address": "829 Tỉnh lộ 7",
        "street": "Tỉnh lộ 7",
        "zone": "Huyện Củ Chi",
        "ward": null,
        "all_routes": "107",
        "marker_color": "#009688"
      }
    },
    {
      "type": "Feature",
      "geometry": {
        "type": "Point",
        "coordinates": [
          106.428069,
          11.005567
        ]
      },
      "properties": {
        "feature_type": "bus_stop",
        "stop_id": 790,
        "stop_code": "HCC 028",
        "stop_name": "Ngã tư Phước Thạnh",
        "stop_type": "Nhà chờ",
        "route_no": "107",
        "display_code": "B 107",
        "direction": "Lượt về",
        "address": "863 Quốc lộ 22",
        "street": "Quốc lộ 22",
        "zone": "Huyện Củ Chi",
        "ward": "Xã Phước Thạnh",
        "all_routes": "100, 107, 70-1, 70-2",
        "marker_color": "#009688"
      }
    },
    {
      "type": "Feature",
      "geometry": {
        "type": "Point",
        "coordinates": [
          106.431647,
          11.004504
        ]
      },
      "properties": {
        "feature_type": "bus_stop",
        "stop_id": 783,
        "stop_code": "HCC 029",
        "stop_name": "Ủy Ban nhân dân Xã Phước Thạnh",
        "stop_type": "Trụ dừng",
        "route_no": "107",
        "display_code": "B 107",
        "direction": "Lượt về",
        "address": "755 Quốc lộ 22",
        "street": "Quốc lộ 22",
        "zone": "Huyện Củ Chi",
        "ward": "Xã Phước Thạnh",
        "all_routes": "100, 107, 70-1, 70-2",
        "marker_color": "#009688"
      }
    },
    {
      "type": "Feature",
      "geometry": {
        "type": "Point",
        "coordinates": [
          106.435756,
          11.002966
        ]
      },
      "properties": {
        "feature_type": "bus_stop",
        "stop_id": 7844,
        "stop_code": "HCC 348",
        "stop_name": "Đường 622",
        "stop_type": "Ô sơn",
        "route_no": "107",
        "display_code": "B 107",
        "direction": "Lượt về",
        "address": "cạnh 685 (cạnh đường 622) Quốc lộ 22",
        "street": "Quốc lộ 22",
        "zone": "Huyện Củ Chi",
        "ward": "Xã Phước Thạnh",
        "all_routes": "100, 107, 70-1, 70-2",
        "marker_color": "#009688"
      }
    },
    {
      "type": "Feature",
      "geometry": {
        "type": "Point",
        "coordinates": [
          106.443239,
          10.998359
        ]
      },
      "properties": {
        "feature_type": "bus_stop",
        "stop_id": 7843,
        "stop_code": "HCC 353",
        "stop_name": "Cây xăng Phước Thạnh 2",
        "stop_type": "Nhà chờ",
        "route_no": "107",
        "display_code": "B 107",
        "direction": "Lượt về",
        "address": "613 (cạnh hẻm 53) Quốc lộ 22",
        "street": "Quốc lộ 22",
        "zone": "Huyện Củ Chi",
        "ward": "Xã Tân An Hội",
        "all_routes": "100, 107, 70-1, 70-2",
        "marker_color": "#009688"
      }
    },
    {
      "type": "Feature",
      "geometry": {
        "type": "Point",
        "coordinates": [
          106.44487,
          10.996617
        ]
      },
      "properties": {
        "feature_type": "bus_stop",
        "stop_id": 784,
        "stop_code": "HCC 030",
        "stop_name": "ấp cây trôm",
        "stop_type": "Trụ dừng",
        "route_no": "107",
        "display_code": "B 107",
        "direction": "Lượt về",
        "address": "585 Quốc lộ 22",
        "street": "Quốc lộ 22",
        "zone": "Huyện Củ Chi",
        "ward": "Xã Phước Hiệp",
        "all_routes": "100, 107, 70-1, 70-2",
        "marker_color": "#009688"
      }
    },
    {
      "type": "Feature",
      "geometry": {
        "type": "Point",
        "coordinates": [
          106.448362,
          10.992698
        ]
      },
      "properties": {
        "feature_type": "bus_stop",
        "stop_id": 792,
        "stop_code": "HCC 031",
        "stop_name": "Trường Tiểu học Phước Hiệp",
        "stop_type": "Nhà chờ",
        "route_no": "107",
        "display_code": "B 107",
        "direction": "Lượt về",
        "address": "499 Quốc lộ 22",
        "street": "Quốc lộ 22",
        "zone": "Huyện Củ Chi",
        "ward": "Xã Phước Hiệp",
        "all_routes": "100, 107, 70-1, 70-2",
        "marker_color": "#009688"
      }
    },
    {
      "type": "Feature",
      "geometry": {
        "type": "Point",
        "coordinates": [
          106.451263,
          10.989567
        ]
      },
      "properties": {
        "feature_type": "bus_stop",
        "stop_id": 794,
        "stop_code": "HCC 032",
        "stop_name": "UBND xã Phước Hiệp",
        "stop_type": "Nhà chờ",
        "route_no": "107",
        "display_code": "B 107",
        "direction": "Lượt về",
        "address": "UBND xã Phước Hiệp Quốc lộ 22",
        "street": "Quốc lộ 22",
        "zone": "Huyện Củ Chi",
        "ward": null,
        "all_routes": "100, 107, 70-1, 70-2",
        "marker_color": "#009688"
      }
    },
    {
      "type": "Feature",
      "geometry": {
        "type": "Point",
        "coordinates": [
          106.455658,
          10.986336
        ]
      },
      "properties": {
        "feature_type": "bus_stop",
        "stop_id": 7836,
        "stop_code": "HCC 347",
        "stop_name": "Cây xăng Phước Thạnh 3",
        "stop_type": "Ô sơn",
        "route_no": "107",
        "display_code": "B 107",
        "direction": "Lượt về",
        "address": "351 Quốc lộ 22",
        "street": "Quốc lộ 22",
        "zone": "Huyện Củ Chi",
        "ward": "Xã Phước Hiệp",
        "all_routes": "100, 107, 70-1, 70-2",
        "marker_color": "#009688"
      }
    },
    {
      "type": "Feature",
      "geometry": {
        "type": "Point",
        "coordinates": [
          106.458238,
          10.984662
        ]
      },
      "properties": {
        "feature_type": "bus_stop",
        "stop_id": 7834,
        "stop_code": "HCC 345",
        "stop_name": "Đường số 606",
        "stop_type": "Nhà chờ",
        "route_no": "107",
        "display_code": "B 107",
        "direction": "Lượt về",
        "address": "Đối diện đường số 606 Quốc lộ 22",
        "street": "Quốc lộ 22",
        "zone": "Huyện Củ Chi",
        "ward": "Xã Tân An Hội",
        "all_routes": "100, 107, 70-1, 70-2",
        "marker_color": "#009688"
      }
    },
    {
      "type": "Feature",
      "geometry": {
        "type": "Point",
        "coordinates": [
          106.461033,
          10.982855
        ]
      },
      "properties": {
        "feature_type": "bus_stop",
        "stop_id": 785,
        "stop_code": "HCC 033",
        "stop_name": "Cây xăng Tài Lộc 3",
        "stop_type": "Nhà chờ",
        "route_no": "107",
        "display_code": "B 107",
        "direction": "Lượt về",
        "address": "281 Quốc lộ 22",
        "street": "Quốc lộ 22",
        "zone": "Huyện Củ Chi",
        "ward": "Xã Phước Hiệp",
        "all_routes": "100, 107, 70-1, 70-2",
        "marker_color": "#009688"
      }
    },
    {
      "type": "Feature",
      "geometry": {
        "type": "Point",
        "coordinates": [
          106.463742,
          10.981049
        ]
      },
      "properties": {
        "feature_type": "bus_stop",
        "stop_id": 7680,
        "stop_code": "HCC 298",
        "stop_name": "Ấp Bàu Tre",
        "stop_type": "Trụ dừng",
        "route_no": "107",
        "display_code": "B 107",
        "direction": "Lượt về",
        "address": "227 Quốc lộ 22",
        "street": "Quốc lộ 22",
        "zone": "Huyện Củ Chi",
        "ward": "Xã Phước Hiệp",
        "all_routes": "100, 107, 70-1, 70-2",
        "marker_color": "#009688"
      }
    },
    {
      "type": "Feature",
      "geometry": {
        "type": "Point",
        "coordinates": [
          106.469632,
          10.977784
        ]
      },
      "properties": {
        "feature_type": "bus_stop",
        "stop_id": 796,
        "stop_code": "HCC 034",
        "stop_name": "Công ty phân bón sinh hóa Củ Chi",
        "stop_type": "Nhà chờ",
        "route_no": "107",
        "display_code": "B 107",
        "direction": "Lượt về",
        "address": "121 Quốc lộ 22",
        "street": "Quốc lộ 22",
        "zone": "Huyện Củ Chi",
        "ward": null,
        "all_routes": "100, 107, 70-1, 70-2",
        "marker_color": "#009688"
      }
    },
    {
      "type": "Feature",
      "geometry": {
        "type": "Point",
        "coordinates": [
          106.472717,
          10.976109
        ]
      },
      "properties": {
        "feature_type": "bus_stop",
        "stop_id": 787,
        "stop_code": "HCC 035",
        "stop_name": "Ngã 3 Nguyễn Thị Rành",
        "stop_type": "Nhà chờ",
        "route_no": "107",
        "display_code": "B 107",
        "direction": "Lượt về",
        "address": "55 Quốc lộ 22",
        "street": "Quốc lộ 22",
        "zone": "Huyện Củ Chi",
        "ward": "Xã Tân An Hội",
        "all_routes": "100, 107, 70-1, 70-2, 79",
        "marker_color": "#009688"
      }
    },
    {
      "type": "Feature",
      "geometry": {
        "type": "Point",
        "coordinates": [
          106.476579,
          10.974061
        ]
      },
      "properties": {
        "feature_type": "bus_stop",
        "stop_id": 788,
        "stop_code": "HCC 036",
        "stop_name": "Bệnh viện Củ Chi",
        "stop_type": "Trụ dừng",
        "route_no": "107",
        "display_code": "B 107",
        "direction": "Lượt về",
        "address": "991 (số 5-7 xe máy Quang Phương) Quốc lộ 22",
        "street": "Quốc lộ 22",
        "zone": "Huyện Củ Chi",
        "ward": "Xã Tân An Hội",
        "all_routes": "100, 107, 70-1, 70-2, 79",
        "marker_color": "#009688"
      }
    },
    {
      "type": "Feature",
      "geometry": {
        "type": "Point",
        "coordinates": [
          106.478097,
          10.973308
        ]
      },
      "properties": {
        "feature_type": "bus_stop",
        "stop_id": 9465,
        "stop_code": "HCC 365",
        "stop_name": "Bệnh viện đa khoa khu vực Củ Chi",
        "stop_type": "Trụ dừng",
        "route_no": "107",
        "display_code": "B 107",
        "direction": "Lượt về",
        "address": "965 Phan Văn Khải",
        "street": "Phan Văn Khải",
        "zone": "Huyện Củ Chi",
        "ward": "Xã Tân An Hội",
        "all_routes": "100, 107, 70-1, 70-2, 79",
        "marker_color": "#009688"
      }
    },
    {
      "type": "Feature",
      "geometry": {
        "type": "Point",
        "coordinates": [
          106.48049,
          10.972091
        ]
      },
      "properties": {
        "feature_type": "bus_stop",
        "stop_id": 963,
        "stop_code": "HCC 037",
        "stop_name": "Bến xe Củ Chi",
        "stop_type": "Trụ dừng",
        "route_no": "107",
        "display_code": "B 107",
        "direction": "Lượt về",
        "address": "907 (Chợ Củ Chi) Quốc lộ 22",
        "street": "Quốc lộ 22",
        "zone": "Huyện Củ Chi",
        "ward": "Thị trấn Củ Chi",
        "all_routes": "100, 107, 70-1, 70-2, 79",
        "marker_color": "#009688"
      }
    },
    {
      "type": "Feature",
      "geometry": {
        "type": "Point",
        "coordinates": [
          106.482453,
          10.970495
        ]
      },
      "properties": {
        "feature_type": "bus_stop",
        "stop_id": 7617,
        "stop_code": "HCC 279",
        "stop_name": "chợ Củ Chi",
        "stop_type": "Nhà chờ",
        "route_no": "107",
        "display_code": "B 107",
        "direction": "Lượt về",
        "address": "chợ Củ Chi Quốc lộ 22",
        "street": "Quốc lộ 22",
        "zone": "Huyện Củ Chi",
        "ward": "Thị trấn Củ Chi",
        "all_routes": "100, 107, 126, 13, 70-1, 70-2, 74, 79, 87, 94",
        "marker_color": "#009688"
      }
    }
  ]
}