{
  "type": "FeatureCollection",
  "properties": {
    "stt": 15,
    "route_no": "70-1",
    "display_code": "B 70-1",
    "route_name": " Bến xe Củ Chi - Bến xe Tây Ninh",
    "start_point": "Bến xe Củ Chi",
    "end_point": "Bến xe Tây Ninh",
    "listed_length_km": 66,
    "operating_hours": "3:00 - 19:00",
    "color": "#FB8C00",
    "num_variants": 2,
    "total_stops": 34,
    "total_points": 586
  },
  "features": [
    {
      "type": "Feature",
      "geometry": {
        "type": "LineString",
        "coordinates": [
          [
            106.48210144,
            10.97161674
          ],
          [
            106.48210144,
            10.97161674
          ],
          [
            106.48210144,
            10.97161674
          ],
          [
            106.48210144,
            10.97161674
          ],
          [
            106.48187256,
            10.97175407
          ],
          [
            106.4832077,
            10.97370815
          ],
          [
            106.48303986,
            10.97380257
          ],
          [
            106.48154449,
            10.97150612
          ],
          [
            106.48094177,
            10.97202015
          ],
          [
            106.48064423,
            10.97227573
          ],
          [
            106.48030853,
            10.9724865
          ],
          [
            106.48034668,
            10.97253323
          ],
          [
            106.48034668,
            10.97253323
          ],
          [
            106.48034668,
            10.97253323
          ],
          [
            106.48034668,
            10.97253323
          ],
          [
            106.48034668,
            10.97253323
          ],
          [
            106.48031616,
            10.97248077
          ],
          [
            106.47977448,
            10.97278118
          ],
          [
            106.47917938,
            10.97306538
          ],
          [
            106.47802734,
            10.97359753
          ],
          [
            106.47686768,
            10.97415066
          ],
          [
            106.47570801,
            10.97469234
          ],
          [
            106.47573853,
            10.97475624
          ],
          [
            106.47573853,
            10.97475624
          ],
          [
            106.47572327,
            10.97468758
          ],
          [
            106.47505951,
            10.97502708
          ],
          [
            106.47438812,
            10.97536659
          ],
          [
            106.47373962,
            10.97572708
          ],
          [
            106.47309875,
            10.97608852
          ],
          [
            106.47312927,
            10.97613335
          ],
          [
            106.47312927,
            10.97613335
          ],
          [
            106.47310638,
            10.9760828
          ],
          [
            106.47216797,
            10.97659397
          ],
          [
            106.47125244,
            10.97710991
          ],
          [
            106.47033691,
            10.9776001
          ],
          [
            106.46942139,
            10.97811604
          ],
          [
            106.4694519,
            10.97817898
          ],
          [
            106.4694519,
            10.97817898
          ],
          [
            106.4694519,
            10.97817898
          ],
          [
            106.46940613,
            10.97810555
          ],
          [
            106.46873474,
            10.97847557
          ],
          [
            106.46807098,
            10.9788456
          ],
          [
            106.4673996,
            10.97921467
          ],
          [
            106.46672821,
            10.97958469
          ],
          [
            106.4661026,
            10.97994137
          ],
          [
            106.46547699,
            10.980299
          ],
          [
            106.46485901,
            10.98065567
          ],
          [
            106.4642334,
            10.98101711
          ],
          [
            106.46430206,
            10.98113346
          ],
          [
            106.46430206,
            10.98113346
          ],
          [
            106.46430206,
            10.98113346
          ],
          [
            106.46430206,
            10.98113346
          ],
          [
            106.46421814,
            10.98101234
          ],
          [
            106.46342468,
            10.98147869
          ],
          [
            106.46263885,
            10.98194408
          ],
          [
            106.46189117,
            10.98244476
          ],
          [
            106.46114349,
            10.98294449
          ],
          [
            106.46123505,
            10.98305035
          ],
          [
            106.46123505,
            10.98305035
          ],
          [
            106.46123505,
            10.98305035
          ],
          [
            106.46116638,
            10.98295498
          ],
          [
            106.46046448,
            10.98340797
          ],
          [
            106.4597702,
            10.98386097
          ],
          [
            106.45907593,
            10.9843111
          ],
          [
            106.45837402,
            10.98476124
          ],
          [
            106.4584198,
            10.98480892
          ],
          [
            106.4584198,
            10.98480892
          ],
          [
            106.45839691,
            10.98475075
          ],
          [
            106.45732117,
            10.98546505
          ],
          [
            106.45624542,
            10.9861784
          ],
          [
            106.45517731,
            10.9868679
          ],
          [
            106.45411682,
            10.98755836
          ],
          [
            106.45295715,
            10.98830032
          ],
          [
            106.45191193,
            10.9890852
          ],
          [
            106.45101929,
            10.99002743
          ],
          [
            106.4502182,
            10.99092293
          ],
          [
            106.45037842,
            10.99103546
          ],
          [
            106.45037842,
            10.99103546
          ],
          [
            106.45022583,
            10.99089146
          ],
          [
            106.44994354,
            10.99120426
          ],
          [
            106.44965363,
            10.99151707
          ],
          [
            106.44937134,
            10.99182987
          ],
          [
            106.44908142,
            10.99214172
          ],
          [
            106.44879913,
            10.99245453
          ],
          [
            106.44850922,
            10.99276733
          ],
          [
            106.44822693,
            10.99308014
          ],
          [
            106.44793701,
            10.99339294
          ],
          [
            106.44799042,
            10.99342442
          ],
          [
            106.44799042,
            10.99342442
          ],
          [
            106.44792938,
            10.99337673
          ],
          [
            106.44755554,
            10.99379253
          ],
          [
            106.4471817,
            10.99420929
          ],
          [
            106.44680786,
            10.99462509
          ],
          [
            106.44643402,
            10.99504089
          ],
          [
            106.44606018,
            10.9954567
          ],
          [
            106.44569397,
            10.99587345
          ],
          [
            106.44532013,
            10.99628925
          ],
          [
            106.44494629,
            10.99670506
          ],
          [
            106.44506073,
            10.99678898
          ],
          [
            106.44506073,
            10.99678898
          ],
          [
            106.44494629,
            10.99669933
          ],
          [
            106.44412994,
            10.99761105
          ],
          [
            106.44329071,
            10.9985323
          ],
          [
            106.44238281,
            10.99943256
          ],
          [
            106.44187164,
            10.99982262
          ],
          [
            106.44133759,
            11.00016499
          ],
          [
            106.43898773,
            11.0014286
          ],
          [
            106.43782043,
            11.00205517
          ],
          [
            106.43666077,
            11.00268173
          ],
          [
            106.43667603,
            11.00271893
          ],
          [
            106.43667603,
            11.00271893
          ],
          [
            106.43666077,
            11.00266647
          ],
          [
            106.4355545,
            11.00326061
          ],
          [
            106.4344635,
            11.00375557
          ],
          [
            106.43319702,
            11.00415325
          ],
          [
            106.4319458,
            11.00456142
          ],
          [
            106.43196869,
            11.00463009
          ],
          [
            106.43196869,
            11.00463009
          ],
          [
            106.43196869,
            11.00463009
          ],
          [
            106.43196869,
            11.00463009
          ],
          [
            106.4319458,
            11.00455666
          ],
          [
            106.43119812,
            11.00477505
          ],
          [
            106.43045807,
            11.00499344
          ],
          [
            106.42972565,
            11.00524902
          ],
          [
            106.42899323,
            11.00550461
          ],
          [
            106.42814636,
            11.00576687
          ],
          [
            106.42814636,
            11.00576687
          ],
          [
            106.42814636,
            11.00576687
          ],
          [
            106.42814636,
            11.00576687
          ],
          [
            106.4187851,
            11.00885296
          ],
          [
            106.41801453,
            11.00918007
          ],
          [
            106.41703796,
            11.00979042
          ],
          [
            106.41625977,
            11.01052761
          ],
          [
            106.41454315,
            11.01203346
          ],
          [
            106.41300201,
            11.01336098
          ],
          [
            106.40552521,
            11.01692009
          ],
          [
            106.39746857,
            11.02068996
          ],
          [
            106.38716888,
            11.02544022
          ],
          [
            106.37459564,
            11.02846241
          ],
          [
            106.36972809,
            11.03079987
          ],
          [
            106.36493683,
            11.03291607
          ],
          [
            106.36190796,
            11.03166294
          ],
          [
            106.35946655,
            11.03071594
          ],
          [
            106.35858154,
            11.03045273
          ],
          [
            106.35774231,
            11.03049469
          ],
          [
            106.35722351,
            11.03081036
          ],
          [
            106.35562897,
            11.03213692
          ],
          [
            106.35125732,
            11.03592873
          ],
          [
            106.3422699,
            11.04412079
          ],
          [
            106.33177948,
            11.05334473
          ],
          [
            106.32969666,
            11.05517769
          ],
          [
            106.32666016,
            11.05729389
          ],
          [
            106.32583618,
            11.05788326
          ],
          [
            106.32492065,
            11.05831528
          ],
          [
            106.31804657,
            11.06083202
          ],
          [
            106.3042984,
            11.06589603
          ],
          [
            106.29747772,
            11.06833935
          ],
          [
            106.28971863,
            11.07115078
          ],
          [
            106.27729797,
            11.07563591
          ],
          [
            106.27616119,
            11.0763092
          ],
          [
            106.27407837,
            11.07774162
          ],
          [
            106.27085876,
            11.07984734
          ],
          [
            106.2669754,
            11.08251095
          ],
          [
            106.26586914,
            11.08295345
          ],
          [
            106.26560211,
            11.08441734
          ],
          [
            106.26248932,
            11.10029411
          ],
          [
            106.26219177,
            11.10196781
          ],
          [
            106.26134491,
            11.10424137
          ],
          [
            106.25950623,
            11.10835838
          ],
          [
            106.25765991,
            11.11188507
          ],
          [
            106.2565155,
            11.11454868
          ],
          [
            106.25511932,
            11.11767483
          ],
          [
            106.24819946,
            11.13240242
          ],
          [
            106.24460602,
            11.14002419
          ],
          [
            106.24228668,
            11.14487648
          ],
          [
            106.24043274,
            11.14936161
          ],
          [
            106.23924255,
            11.15212917
          ],
          [
            106.23737335,
            11.15563488
          ],
          [
            106.23197937,
            11.15924549
          ],
          [
            106.22577667,
            11.16319275
          ],
          [
            106.22399902,
            11.16431904
          ],
          [
            106.22270966,
            11.16482353
          ],
          [
            106.21933746,
            11.16552925
          ],
          [
            106.21636963,
            11.16641331
          ],
          [
            106.21016693,
            11.16966534
          ],
          [
            106.20396423,
            11.17301273
          ],
          [
            106.19187164,
            11.17958069
          ],
          [
            106.18304443,
            11.18450642
          ],
          [
            106.18245697,
            11.18468571
          ],
          [
            106.1811676,
            11.18484306
          ],
          [
            106.17131805,
            11.18420124
          ],
          [
            106.16696167,
            11.18392754
          ],
          [
            106.16345215,
            11.18390656
          ],
          [
            106.16143799,
            11.18440151
          ],
          [
            106.1594162,
            11.18499088
          ],
          [
            106.15249634,
            11.18947411
          ],
          [
            106.15207672,
            11.18990612
          ],
          [
            106.15182495,
            11.19043159
          ],
          [
            106.1517334,
            11.19095802
          ],
          [
            106.15161133,
            11.19320011
          ],
          [
            106.15126801,
            11.19489479
          ],
          [
            106.14936829,
            11.1991148
          ],
          [
            106.1492691,
            11.20000935
          ],
          [
            106.14964294,
            11.20492458
          ],
          [
            106.15032959,
            11.21062851
          ],
          [
            106.15116882,
            11.21811104
          ],
          [
            106.15112305,
            11.21920586
          ],
          [
            106.15074921,
            11.21983719
          ],
          [
            106.14996338,
            11.22046852
          ],
          [
            106.14797211,
            11.22119427
          ],
          [
            106.14738464,
            11.22148895
          ],
          [
            106.14654541,
            11.22269917
          ],
          [
            106.14544678,
            11.22479343
          ],
          [
            106.14361572,
            11.22809792
          ],
          [
            106.1413269,
            11.23132896
          ],
          [
            106.14039612,
            11.23295975
          ],
          [
            106.13961029,
            11.23447514
          ],
          [
            106.13905334,
            11.23579025
          ],
          [
            106.13860321,
            11.23732662
          ],
          [
            106.13804626,
            11.23883152
          ],
          [
            106.13742828,
            11.23976803
          ],
          [
            106.13674164,
            11.2406311
          ],
          [
            106.13319397,
            11.24309349
          ],
          [
            106.13280487,
            11.24817085
          ],
          [
            106.13232422,
            11.25332737
          ],
          [
            106.13148499,
            11.26356506
          ],
          [
            106.13106537,
            11.2686739
          ],
          [
            106.13058472,
            11.27378178
          ],
          [
            106.13010406,
            11.27948475
          ],
          [
            106.12992859,
            11.28224182
          ],
          [
            106.13041687,
            11.28228378
          ],
          [
            106.13056183,
            11.28235245
          ],
          [
            106.13065338,
            11.28249359
          ],
          [
            106.13056183,
            11.28389835
          ],
          [
            106.13040924,
            11.28404045
          ],
          [
            106.12975311,
            11.28402519
          ],
          [
            106.12954712,
            11.28625584
          ],
          [
            106.12947083,
            11.28646088
          ],
          [
            106.12955475,
            11.28695011
          ],
          [
            106.1293869,
            11.28741264
          ],
          [
            106.12934875,
            11.28792572
          ],
          [
            106.12923431,
            11.28939056
          ],
          [
            106.12900543,
            11.29207897
          ],
          [
            106.12876129,
            11.29476166
          ],
          [
            106.12783051,
            11.29493523
          ],
          [
            106.12715912,
            11.29508781
          ],
          [
            106.12718964,
            11.29577732
          ],
          [
            106.12820435,
            11.29921532
          ],
          [
            106.12924957,
            11.30334187
          ],
          [
            106.12930298,
            11.30539322
          ],
          [
            106.12586975,
            11.3064661
          ],
          [
            106.12241364,
            11.30722332
          ],
          [
            106.11501312,
            11.30871773
          ],
          [
            106.11277008,
            11.30890751
          ],
          [
            106.11035919,
            11.30866528
          ],
          [
            106.10794067,
            11.30861282
          ],
          [
            106.10378265,
            11.31055832
          ],
          [
            106.09700775,
            11.31362057
          ],
          [
            106.09677887,
            11.31389904
          ],
          [
            106.09648132,
            11.31379414
          ],
          [
            106.0966568,
            11.3128624
          ],
          [
            106.09697723,
            11.31192112
          ],
          [
            106.09747314,
            11.31039047
          ],
          [
            106.09814453,
            11.30826569
          ],
          [
            106.09824371,
            11.30774975
          ],
          [
            106.0982132,
            11.30720234
          ],
          [
            106.09802246,
            11.30708694
          ],
          [
            106.09796143,
            11.30695057
          ],
          [
            106.09796906,
            11.30677128
          ],
          [
            106.09767151,
            11.30645561
          ],
          [
            106.09732819,
            11.30626106
          ],
          [
            106.09708405,
            11.3061924
          ],
          [
            106.09680939,
            11.30619812
          ],
          [
            106.09481049,
            11.30643463
          ],
          [
            106.09259796,
            11.306777
          ],
          [
            106.09214783,
            11.3069191
          ],
          [
            106.09172821,
            11.30710316
          ],
          [
            106.08960724,
            11.30851746
          ],
          [
            106.08773804,
            11.30975914
          ],
          [
            106.08783722,
            11.30993843
          ],
          [
            106.08783722,
            11.30993843
          ],
          [
            106.08783722,
            11.30993843
          ]
        ]
      },
      "properties": {
        "feature_type": "route_path",
        "stt": 15,
        "route_id": 107,
        "route_no": "70-1",
        "display_code": "B 70-1",
        "route_name": " Bến xe Củ Chi - Bến xe Tây Ninh",
        "direction": "Lượt đi",
        "outbound": true,
        "start_point": "Bến xe Củ Chi",
        "end_point": "Bến xe Tây Ninh",
        "start_stop": "Bến xe Củ Chi",
        "end_stop": "Bến xe Tây Ninh",
        "distance_km": 67.11,
        "listed_length_km": 66,
        "running_time_min": 115,
        "operating_hours": "3:00 - 19:00",
        "stroke": "#FB8C00",
        "stroke_width": 4,
        "stroke_opacity": 0.85
      }
    },
    {
      "type": "Feature",
      "geometry": {
        "type": "LineString",
        "coordinates": [
          [
            106.08783722,
            11.30993843
          ],
          [
            106.087677,
            11.30966473
          ],
          [
            106.0916214,
            11.30703449
          ],
          [
            106.09218597,
            11.30678177
          ],
          [
            106.09257507,
            11.30667114
          ],
          [
            106.09675598,
            11.30608273
          ],
          [
            106.09725952,
            11.30613518
          ],
          [
            106.09758759,
            11.30628777
          ],
          [
            106.09806061,
            11.30669785
          ],
          [
            106.09825897,
            11.30671883
          ],
          [
            106.09838104,
            11.30680275
          ],
          [
            106.09844971,
            11.30696106
          ],
          [
            106.09830475,
            11.30718708
          ],
          [
            106.09832764,
            11.30778122
          ],
          [
            106.09822845,
            11.3083334
          ],
          [
            106.09765625,
            11.31010628
          ],
          [
            106.09705353,
            11.31195259
          ],
          [
            106.09707642,
            11.3121109
          ],
          [
            106.09677887,
            11.31301498
          ],
          [
            106.09680176,
            11.31339931
          ],
          [
            106.09689331,
            11.31348324
          ],
          [
            106.10208893,
            11.31111145
          ],
          [
            106.1076355,
            11.30857563
          ],
          [
            106.10801697,
            11.30842304
          ],
          [
            106.11074829,
            11.30852795
          ],
          [
            106.11260986,
            11.30869102
          ],
          [
            106.11506653,
            11.3085022
          ],
          [
            106.12271881,
            11.30694485
          ],
          [
            106.12573242,
            11.30629253
          ],
          [
            106.12916565,
            11.30518246
          ],
          [
            106.12909698,
            11.30339432
          ],
          [
            106.12765503,
            11.29784489
          ],
          [
            106.1271286,
            11.29581356
          ],
          [
            106.12708282,
            11.29503059
          ],
          [
            106.12870026,
            11.29469872
          ],
          [
            106.1292038,
            11.28842258
          ],
          [
            106.12931061,
            11.28738117
          ],
          [
            106.12918854,
            11.28692341
          ],
          [
            106.12939453,
            11.28641891
          ],
          [
            106.12935638,
            11.28625011
          ],
          [
            106.12954712,
            11.28403568
          ],
          [
            106.12889862,
            11.28394032
          ],
          [
            106.1288147,
            11.28373528
          ],
          [
            106.12891388,
            11.28234196
          ],
          [
            106.1290741,
            11.28221035
          ],
          [
            106.1297226,
            11.28224182
          ],
          [
            106.12995148,
            11.27947426
          ],
          [
            106.13084412,
            11.2698946
          ],
          [
            106.13130951,
            11.26436996
          ],
          [
            106.13170624,
            11.25926685
          ],
          [
            106.13252258,
            11.25035477
          ],
          [
            106.13304901,
            11.24304104
          ],
          [
            106.13667297,
            11.24055767
          ],
          [
            106.1372757,
            11.23973656
          ],
          [
            106.13790894,
            11.23881054
          ],
          [
            106.13817596,
            11.23820019
          ],
          [
            106.13899994,
            11.23555946
          ],
          [
            106.13944244,
            11.23449612
          ],
          [
            106.14093018,
            11.23178101
          ],
          [
            106.14308929,
            11.2286768
          ],
          [
            106.14461517,
            11.22600365
          ],
          [
            106.14612579,
            11.22319412
          ],
          [
            106.14696503,
            11.22175217
          ],
          [
            106.14746857,
            11.22125816
          ],
          [
            106.14826965,
            11.22092056
          ],
          [
            106.15016937,
            11.22024727
          ],
          [
            106.1506958,
            11.21975327
          ],
          [
            106.15093994,
            11.21936321
          ],
          [
            106.15106964,
            11.21882153
          ],
          [
            106.15106964,
            11.21799564
          ],
          [
            106.15065002,
            11.2143116
          ],
          [
            106.150383,
            11.21184921
          ],
          [
            106.15003967,
            11.20905018
          ],
          [
            106.14953613,
            11.20503998
          ],
          [
            106.14939117,
            11.203125
          ],
          [
            106.14916229,
            11.1999836
          ],
          [
            106.14930725,
            11.19904613
          ],
          [
            106.15034485,
            11.19673634
          ],
          [
            106.15114594,
            11.19487858
          ],
          [
            106.15146637,
            11.19358444
          ],
          [
            106.15153503,
            11.19281578
          ],
          [
            106.15161133,
            11.19091606
          ],
          [
            106.15171051,
            11.19046402
          ],
          [
            106.15194702,
            11.18992138
          ],
          [
            106.15253448,
            11.18930054
          ],
          [
            106.15937805,
            11.18488503
          ],
          [
            106.16036987,
            11.18455887
          ],
          [
            106.16234589,
            11.18399048
          ],
          [
            106.16339111,
            11.18381214
          ],
          [
            106.16711426,
            11.18381214
          ],
          [
            106.17266846,
            11.18414879
          ],
          [
            106.18128204,
            11.18474865
          ],
          [
            106.18236542,
            11.18459034
          ],
          [
            106.18312836,
            11.18433762
          ],
          [
            106.1882019,
            11.18149662
          ],
          [
            106.19562531,
            11.17738056
          ],
          [
            106.21430969,
            11.16734982
          ],
          [
            106.21637726,
            11.1663084
          ],
          [
            106.21929932,
            11.16545582
          ],
          [
            106.22278595,
            11.16472435
          ],
          [
            106.22389221,
            11.16423416
          ],
          [
            106.22805786,
            11.16162682
          ],
          [
            106.23069763,
            11.15998745
          ],
          [
            106.23432922,
            11.15757656
          ],
          [
            106.23731232,
            11.15555096
          ],
          [
            106.23916626,
            11.15204525
          ],
          [
            106.24169159,
            11.14607143
          ],
          [
            106.24463654,
            11.13968754
          ],
          [
            106.24884033,
            11.13062859
          ],
          [
            106.25104523,
            11.12589169
          ],
          [
            106.25228882,
            11.12319183
          ],
          [
            106.25370026,
            11.12026501
          ],
          [
            106.25733185,
            11.11218452
          ],
          [
            106.2596817,
            11.107584
          ],
          [
            106.26029968,
            11.10631084
          ],
          [
            106.26139832,
            11.10359383
          ],
          [
            106.2620163,
            11.10176754
          ],
          [
            106.26364899,
            11.09357643
          ],
          [
            106.26462555,
            11.08843327
          ],
          [
            106.26527405,
            11.0849905
          ],
          [
            106.26580811,
            11.08256912
          ],
          [
            106.26686859,
            11.08231068
          ],
          [
            106.2765274,
            11.07578278
          ],
          [
            106.28884125,
            11.0712347
          ],
          [
            106.30922699,
            11.06388569
          ],
          [
            106.31815338,
            11.06049442
          ],
          [
            106.32527924,
            11.05794621
          ],
          [
            106.32686615,
            11.05689335
          ],
          [
            106.32933044,
            11.05520916
          ],
          [
            106.33360291,
            11.05156517
          ],
          [
            106.34020996,
            11.04571056
          ],
          [
            106.34542084,
            11.04099846
          ],
          [
            106.35134888,
            11.03553867
          ],
          [
            106.35440826,
            11.032938
          ],
          [
            106.35701752,
            11.03069496
          ],
          [
            106.35778046,
            11.03032589
          ],
          [
            106.35858154,
            11.03026772
          ],
          [
            106.35929108,
            11.03041553
          ],
          [
            106.361763,
            11.03142166
          ],
          [
            106.36439514,
            11.03250599
          ],
          [
            106.36523438,
            11.03258991
          ],
          [
            106.36780548,
            11.03147411
          ],
          [
            106.37234497,
            11.02926254
          ],
          [
            106.37411499,
            11.02845192
          ],
          [
            106.37775421,
            11.0274725
          ],
          [
            106.38658142,
            11.02541828
          ],
          [
            106.38761139,
            11.02502918
          ],
          [
            106.39006042,
            11.02389145
          ],
          [
            106.4092865,
            11.01494026
          ],
          [
            106.41175842,
            11.01380253
          ],
          [
            106.41282654,
            11.01321888
          ],
          [
            106.41699982,
            11.00960636
          ],
          [
            106.41773987,
            11.00910568
          ],
          [
            106.41873932,
            11.0086422
          ],
          [
            106.42245483,
            11.00744247
          ],
          [
            106.42802429,
            11.00567245
          ],
          [
            106.42807007,
            11.0055666
          ],
          [
            106.42809296,
            11.00564671
          ],
          [
            106.43164825,
            11.0045042
          ],
          [
            106.43164825,
            11.0045042
          ],
          [
            106.43165588,
            11.00456142
          ],
          [
            106.43273163,
            11.00420856
          ],
          [
            106.43382263,
            11.00384045
          ],
          [
            106.43483734,
            11.00349808
          ],
          [
            106.43578339,
            11.00303459
          ],
          [
            106.43575287,
            11.00296593
          ],
          [
            106.43575287,
            11.00296593
          ],
          [
            106.43580627,
            11.0030241
          ],
          [
            106.43778229,
            11.00198174
          ],
          [
            106.43877411,
            11.00144196
          ],
          [
            106.43976593,
            11.00090218
          ],
          [
            106.44074249,
            11.0003624
          ],
          [
            106.44171143,
            10.99982262
          ],
          [
            106.44216156,
            10.99950123
          ],
          [
            106.44258118,
            10.99915886
          ],
          [
            106.44329071,
            10.99839497
          ],
          [
            106.4432373,
            10.99835873
          ],
          [
            106.4432373,
            10.99835873
          ],
          [
            106.44329834,
            10.9983902
          ],
          [
            106.44368744,
            10.99795341
          ],
          [
            106.44407654,
            10.99751568
          ],
          [
            106.44448853,
            10.99707413
          ],
          [
            106.44487,
            10.99661732
          ],
          [
            106.44487,
            10.99661732
          ],
          [
            106.44487,
            10.99661732
          ],
          [
            106.44487,
            10.99661732
          ],
          [
            106.44491577,
            10.99664211
          ],
          [
            106.44532776,
            10.99616814
          ],
          [
            106.44578552,
            10.99568844
          ],
          [
            106.44620514,
            10.99521255
          ],
          [
            106.44663239,
            10.99473572
          ],
          [
            106.44706726,
            10.99425697
          ],
          [
            106.44750214,
            10.99377728
          ],
          [
            106.44792175,
            10.99328899
          ],
          [
            106.44833374,
            10.99279976
          ],
          [
            106.44833374,
            10.99279976
          ],
          [
            106.44836426,
            10.99269772
          ],
          [
            106.44836426,
            10.99269772
          ],
          [
            106.44833374,
            10.99279976
          ],
          [
            106.44871521,
            10.99242496
          ],
          [
            106.44909668,
            10.99205017
          ],
          [
            106.44947815,
            10.99163151
          ],
          [
            106.44985199,
            10.99121284
          ],
          [
            106.45023346,
            10.99079418
          ],
          [
            106.4506073,
            10.99037552
          ],
          [
            106.45126343,
            10.9895668
          ],
          [
            106.45126343,
            10.9895668
          ],
          [
            106.45126343,
            10.9895668
          ],
          [
            106.45173645,
            10.98910618
          ],
          [
            106.45226288,
            10.98869038
          ],
          [
            106.45340729,
            10.98792171
          ],
          [
            106.45458984,
            10.9871521
          ],
          [
            106.45570374,
            10.9864254
          ],
          [
            106.45565796,
            10.98633575
          ],
          [
            106.45565796,
            10.98633575
          ],
          [
            106.45571899,
            10.98639965
          ],
          [
            106.45700073,
            10.98556232
          ],
          [
            106.45827484,
            10.98471451
          ],
          [
            106.45823669,
            10.98466206
          ],
          [
            106.45823669,
            10.98466206
          ],
          [
            106.45826721,
            10.98470879
          ],
          [
            106.45897675,
            10.98425579
          ],
          [
            106.45967865,
            10.9838028
          ],
          [
            106.46038055,
            10.98334503
          ],
          [
            106.46108246,
            10.98288727
          ],
          [
            106.46103668,
            10.98285484
          ],
          [
            106.46101379,
            10.98288345
          ],
          [
            106.46101379,
            10.98288345
          ],
          [
            106.46105194,
            10.98292923
          ],
          [
            106.46173096,
            10.98248196
          ],
          [
            106.46240997,
            10.98203373
          ],
          [
            106.46311188,
            10.98159981
          ],
          [
            106.46380615,
            10.98116493
          ],
          [
            106.46374512,
            10.98104858
          ],
          [
            106.46374512,
            10.98104858
          ],
          [
            106.46374512,
            10.98104858
          ],
          [
            106.46374512,
            10.98104858
          ],
          [
            106.46379852,
            10.98114395
          ],
          [
            106.46451569,
            10.98073292
          ],
          [
            106.46524048,
            10.98031712
          ],
          [
            106.4659729,
            10.97991467
          ],
          [
            106.46670532,
            10.97951126
          ],
          [
            106.46744537,
            10.97910309
          ],
          [
            106.46818542,
            10.97869492
          ],
          [
            106.46892548,
            10.97828674
          ],
          [
            106.46966553,
            10.97787857
          ],
          [
            106.46963501,
            10.97778416
          ],
          [
            106.46963501,
            10.97778416
          ],
          [
            106.46963501,
            10.97778416
          ],
          [
            106.46963501,
            10.97778416
          ],
          [
            106.46966553,
            10.97787857
          ],
          [
            106.47042084,
            10.97744942
          ],
          [
            106.47117615,
            10.97702026
          ],
          [
            106.47195435,
            10.97659683
          ],
          [
            106.47274017,
            10.97617245
          ],
          [
            106.47271729,
            10.97610855
          ],
          [
            106.47271729,
            10.97610855
          ],
          [
            106.47271729,
            10.97610855
          ],
          [
            106.47271729,
            10.97610855
          ],
          [
            106.47273254,
            10.97614956
          ],
          [
            106.47273254,
            10.97614956
          ],
          [
            106.47333527,
            10.97581673
          ],
          [
            106.47393799,
            10.97548294
          ],
          [
            106.47455597,
            10.97516727
          ],
          [
            106.47518158,
            10.97485065
          ],
          [
            106.47574615,
            10.97456169
          ],
          [
            106.47631073,
            10.97427177
          ],
          [
            106.47689056,
            10.97400284
          ],
          [
            106.4774704,
            10.97373295
          ],
          [
            106.4774704,
            10.97373295
          ],
          [
            106.47743988,
            10.97365475
          ],
          [
            106.47743988,
            10.97365475
          ],
          [
            106.47657776,
            10.97406101
          ],
          [
            106.47689819,
            10.97399235
          ],
          [
            106.47734833,
            10.97375488
          ],
          [
            106.47782135,
            10.97355556
          ],
          [
            106.47809601,
            10.97330761
          ],
          [
            106.47809601,
            10.97330761
          ],
          [
            106.4785614,
            10.97319698
          ],
          [
            106.47930908,
            10.97284985
          ],
          [
            106.4799881,
            10.97250748
          ],
          [
            106.48049164,
            10.97209072
          ],
          [
            106.48049164,
            10.97209072
          ],
          [
            106.48049164,
            10.97209072
          ],
          [
            106.48056793,
            10.97216511
          ],
          [
            106.48134613,
            10.97150135
          ],
          [
            106.48191071,
            10.97102737
          ],
          [
            106.48249054,
            10.9705534
          ],
          [
            106.48245239,
            10.97049522
          ],
          [
            106.48245239,
            10.97049522
          ],
          [
            106.48245239,
            10.97049522
          ],
          [
            106.48248291,
            10.97053242
          ],
          [
            106.48420715,
            10.96936321
          ],
          [
            106.48522949,
            10.9686842
          ],
          [
            106.48571014,
            10.96838856
          ],
          [
            106.48602295,
            10.96812534
          ],
          [
            106.48632813,
            10.96824646
          ],
          [
            106.48619843,
            10.96862602
          ],
          [
            106.48579407,
            10.9686203
          ],
          [
            106.48487091,
            10.9690733
          ],
          [
            106.48377991,
            10.96977901
          ],
          [
            106.48271942,
            10.9705162
          ],
          [
            106.48174286,
            10.97130108
          ],
          [
            106.48210144,
            10.97161674
          ]
        ]
      },
      "properties": {
        "feature_type": "route_path",
        "stt": 15,
        "route_id": 107,
        "route_no": "70-1",
        "display_code": "B 70-1",
        "route_name": " Bến xe Củ Chi - Bến xe Tây Ninh",
        "direction": "Lượt về",
        "outbound": false,
        "start_point": "Bến xe Củ Chi",
        "end_point": "Bến xe Tây Ninh",
        "start_stop": "Bến xe Tây Ninh",
        "end_stop": "Bến xe Củ Chi",
        "distance_km": 67.85,
        "listed_length_km": 66,
        "running_time_min": 115,
        "operating_hours": "3:00 - 19:00",
        "stroke": "#FB8C00",
        "stroke_width": 4,
        "stroke_opacity": 0.85
      }
    },
    {
      "type": "Feature",
      "geometry": {
        "type": "Point",
        "coordinates": [
          106.482099,
          10.971617
        ]
      },
      "properties": {
        "feature_type": "bus_stop",
        "stop_id": 732,
        "stop_code": "BX 63",
        "stop_name": "Bến xe Củ Chi",
        "stop_type": "Bến xe",
        "route_no": "70-1",
        "display_code": "B 70-1",
        "direction": "Lượt đi",
        "address": "Bến xe Củ Chi Quốc lộ 22",
        "street": "Quốc lộ 22",
        "zone": "Huyện Củ Chi",
        "ward": null,
        "all_routes": "100, 107, 126, 13, 70-1, 70-2, 74, 79, 87, 94",
        "marker_color": "#FB8C00"
      }
    },
    {
      "type": "Feature",
      "geometry": {
        "type": "Point",
        "coordinates": [
          106.480347,
          10.972533
        ]
      },
      "properties": {
        "feature_type": "bus_stop",
        "stop_id": 734,
        "stop_code": "HCC 018",
        "stop_name": "Bến xe Củ Chi",
        "stop_type": "Nhà chờ",
        "route_no": "70-1",
        "display_code": "B 70-1",
        "direction": "Lượt đi",
        "address": "928 Quốc lộ 22",
        "street": "Quốc lộ 22",
        "zone": "Huyện Củ Chi",
        "ward": null,
        "all_routes": "100, 107, 70-1, 70-2, 79",
        "marker_color": "#FB8C00"
      }
    },
    {
      "type": "Feature",
      "geometry": {
        "type": "Point",
        "coordinates": [
          106.475742,
          10.974756
        ]
      },
      "properties": {
        "feature_type": "bus_stop",
        "stop_id": 733,
        "stop_code": "HCC 019",
        "stop_name": "Bệnh viện Củ Chi",
        "stop_type": "Trụ dừng",
        "route_no": "70-1",
        "display_code": "B 70-1",
        "direction": "Lượt đi",
        "address": "18 Quốc lộ 22",
        "street": "Quốc lộ 22",
        "zone": "Huyện Củ Chi",
        "ward": "Thị trấn Củ Chi",
        "all_routes": "100, 107, 70-1, 70-2, 79",
        "marker_color": "#FB8C00"
      }
    },
    {
      "type": "Feature",
      "geometry": {
        "type": "Point",
        "coordinates": [
          106.473129,
          10.976133
        ]
      },
      "properties": {
        "feature_type": "bus_stop",
        "stop_id": 738,
        "stop_code": "HCC 020",
        "stop_name": "Trạm xăng",
        "stop_type": "Ô sơn",
        "route_no": "70-1",
        "display_code": "B 70-1",
        "direction": "Lượt đi",
        "address": "86 Quốc lộ 22",
        "street": "Quốc lộ 22",
        "zone": "Huyện Củ Chi",
        "ward": null,
        "all_routes": "100, 107, 70-1, 70-2, 79",
        "marker_color": "#FB8C00"
      }
    },
    {
      "type": "Feature",
      "geometry": {
        "type": "Point",
        "coordinates": [
          106.469455,
          10.978179
        ]
      },
      "properties": {
        "feature_type": "bus_stop",
        "stop_id": 735,
        "stop_code": "HCC 021",
        "stop_name": "Công ty phân bón Sinh hóa Củ Chi",
        "stop_type": "Trụ dừng",
        "route_no": "70-1",
        "display_code": "B 70-1",
        "direction": "Lượt đi",
        "address": "128 Quốc lộ 22",
        "street": "Quốc lộ 22",
        "zone": "Huyện Củ Chi",
        "ward": null,
        "all_routes": "100, 107, 70-1, 70-2",
        "marker_color": "#FB8C00"
      }
    },
    {
      "type": "Feature",
      "geometry": {
        "type": "Point",
        "coordinates": [
          106.4643,
          10.981133
        ]
      },
      "properties": {
        "feature_type": "bus_stop",
        "stop_id": 7679,
        "stop_code": "HCC 297",
        "stop_name": "Ấp Bàu Tre",
        "stop_type": "Trụ dừng",
        "route_no": "70-1",
        "display_code": "B 70-1",
        "direction": "Lượt đi",
        "address": "246B Quốc lộ 22",
        "street": "Quốc lộ 22",
        "zone": "Huyện Củ Chi",
        "ward": "Xã Phước Hiệp",
        "all_routes": "100, 107, 70-1, 70-2",
        "marker_color": "#FB8C00"
      }
    },
    {
      "type": "Feature",
      "geometry": {
        "type": "Point",
        "coordinates": [
          106.461232,
          10.98305
        ]
      },
      "properties": {
        "feature_type": "bus_stop",
        "stop_id": 741,
        "stop_code": "HCC 022",
        "stop_name": "Trạm xăng Phước Hiệp 1",
        "stop_type": "Trụ dừng",
        "route_no": "70-1",
        "display_code": "B 70-1",
        "direction": "Lượt đi",
        "address": "282 Quốc lộ 22",
        "street": "Quốc lộ 22",
        "zone": "Huyện Củ Chi",
        "ward": null,
        "all_routes": "100, 107, 70-1, 70-2",
        "marker_color": "#FB8C00"
      }
    },
    {
      "type": "Feature",
      "geometry": {
        "type": "Point",
        "coordinates": [
          106.458421,
          10.984809
        ]
      },
      "properties": {
        "feature_type": "bus_stop",
        "stop_id": 7833,
        "stop_code": "HCC 344",
        "stop_name": "Đường số 606",
        "stop_type": "Nhà chờ",
        "route_no": "70-1",
        "display_code": "B 70-1",
        "direction": "Lượt đi",
        "address": "Cạnh đường số 606 Quốc lộ 22",
        "street": "Quốc lộ 22",
        "zone": "Huyện Củ Chi",
        "ward": "Xã Tân An Hội",
        "all_routes": "100, 107, 70-1, 70-2",
        "marker_color": "#FB8C00"
      }
    },
    {
      "type": "Feature",
      "geometry": {
        "type": "Point",
        "coordinates": [
          106.451361,
          10.989707
        ]
      },
      "properties": {
        "feature_type": "bus_stop",
        "stop_id": 736,
        "stop_code": "HCC 023",
        "stop_name": "Đối diện UBND xa Phước Hiệp",
        "stop_type": "Trụ dừng",
        "route_no": "70-1",
        "display_code": "B 70-1",
        "direction": "Lượt đi",
        "address": "Đối diện UBND xa Phước Hiệp (số 438) Quốc lộ 22",
        "street": "Quốc lộ 22",
        "zone": "Huyện Củ Chi",
        "ward": "Xã Phước Hiệp",
        "all_routes": "100, 107, 70-1, 70-2",
        "marker_color": "#FB8C00"
      }
    },
    {
      "type": "Feature",
      "geometry": {
        "type": "Point",
        "coordinates": [
          106.447987,
          10.993424
        ]
      },
      "properties": {
        "feature_type": "bus_stop",
        "stop_id": 743,
        "stop_code": "HCC 024",
        "stop_name": "Đối diện Trường Tiểu học Phước Hiệp",
        "stop_type": "Nhà chờ",
        "route_no": "70-1",
        "display_code": "B 70-1",
        "direction": "Lượt đi",
        "address": "Đối diện cây xăng 54 (508) Quốc lộ 22",
        "street": "Quốc lộ 22",
        "zone": "Huyện Củ Chi",
        "ward": "Xã Phước Hiệp",
        "all_routes": "100, 107, 70-1, 70-2",
        "marker_color": "#FB8C00"
      }
    },
    {
      "type": "Feature",
      "geometry": {
        "type": "Point",
        "coordinates": [
          106.445058,
          10.996789
        ]
      },
      "properties": {
        "feature_type": "bus_stop",
        "stop_id": 737,
        "stop_code": "HCC 025",
        "stop_name": "Cây xăng Phước Thạnh",
        "stop_type": "Trụ dừng",
        "route_no": "70-1",
        "display_code": "B 70-1",
        "direction": "Lượt đi",
        "address": "576 Quốc lộ 22",
        "street": "Quốc lộ 22",
        "zone": "Huyện Củ Chi",
        "ward": "Xã Phước Hiệp",
        "all_routes": "100, 107, 70-1, 70-2",
        "marker_color": "#FB8C00"
      }
    },
    {
      "type": "Feature",
      "geometry": {
        "type": "Point",
        "coordinates": [
          106.436679,
          11.002719
        ]
      },
      "properties": {
        "feature_type": "bus_stop",
        "stop_id": 7845,
        "stop_code": "HCC 349",
        "stop_name": "Đường 622",
        "stop_type": "Ô sơn",
        "route_no": "70-1",
        "display_code": "B 70-1",
        "direction": "Lượt đi",
        "address": "Đối diện 671 Quốc lộ 22",
        "street": "Quốc lộ 22",
        "zone": "Huyện Củ Chi",
        "ward": "Xã Phước Thạnh",
        "all_routes": "100, 107, 70-1, 70-2",
        "marker_color": "#FB8C00"
      }
    },
    {
      "type": "Feature",
      "geometry": {
        "type": "Point",
        "coordinates": [
          106.431969,
          11.00463
        ]
      },
      "properties": {
        "feature_type": "bus_stop",
        "stop_id": 745,
        "stop_code": "HCC 026",
        "stop_name": "UBND xã Phước Thạnh",
        "stop_type": "Nhà chờ",
        "route_no": "70-1",
        "display_code": "B 70-1",
        "direction": "Lượt đi",
        "address": "UBND xã Phước Thạnh Quốc lộ 22",
        "street": "Quốc lộ 22",
        "zone": "Huyện Củ Chi",
        "ward": "Xã Phước Thạnh",
        "all_routes": "100, 107, 70-1, 70-2",
        "marker_color": "#FB8C00"
      }
    },
    {
      "type": "Feature",
      "geometry": {
        "type": "Point",
        "coordinates": [
          106.428146,
          11.005767
        ]
      },
      "properties": {
        "feature_type": "bus_stop",
        "stop_id": 739,
        "stop_code": "QCCT028",
        "stop_name": "Ngã tư Phước Thạnh",
        "stop_type": "Trụ dừng",
        "route_no": "70-1",
        "display_code": "B 70-1",
        "direction": "Lượt đi",
        "address": "826 Quốc lộ 22",
        "street": "Quốc lộ 22",
        "zone": "Huyện Củ Chi",
        "ward": "Xã Phước Thạnh",
        "all_routes": "100, 107, 70-1, 70-2",
        "marker_color": "#FB8C00"
      }
    },
    {
      "type": "Feature",
      "geometry": {
        "type": "Point",
        "coordinates": [
          106.087836,
          11.309938
        ]
      },
      "properties": {
        "feature_type": "bus_stop",
        "stop_id": 7509,
        "stop_code": "BXLT Tay Ninh",
        "stop_name": "Bến xe Tây Ninh",
        "stop_type": "Bến xe",
        "route_no": "70-1",
        "display_code": "B 70-1",
        "direction": "Lượt đi",
        "address": "Bến xe Tây Ninh Trưng Nữ Vương",
        "street": "Trưng Nữ Vương",
        "zone": "Ngoại thành",
        "ward": null,
        "all_routes": "70-1",
        "marker_color": "#FB8C00"
      }
    },
    {
      "type": "Feature",
      "geometry": {
        "type": "Point",
        "coordinates": [
          106.428069,
          11.005567
        ]
      },
      "properties": {
        "feature_type": "bus_stop",
        "stop_id": 790,
        "stop_code": "HCC 028",
        "stop_name": "Ngã tư Phước Thạnh",
        "stop_type": "Nhà chờ",
        "route_no": "70-1",
        "display_code": "B 70-1",
        "direction": "Lượt về",
        "address": "863 Quốc lộ 22",
        "street": "Quốc lộ 22",
        "zone": "Huyện Củ Chi",
        "ward": "Xã Phước Thạnh",
        "all_routes": "100, 107, 70-1, 70-2",
        "marker_color": "#FB8C00"
      }
    },
    {
      "type": "Feature",
      "geometry": {
        "type": "Point",
        "coordinates": [
          106.431647,
          11.004504
        ]
      },
      "properties": {
        "feature_type": "bus_stop",
        "stop_id": 783,
        "stop_code": "HCC 029",
        "stop_name": "Ủy Ban nhân dân Xã Phước Thạnh",
        "stop_type": "Trụ dừng",
        "route_no": "70-1",
        "display_code": "B 70-1",
        "direction": "Lượt về",
        "address": "755 Quốc lộ 22",
        "street": "Quốc lộ 22",
        "zone": "Huyện Củ Chi",
        "ward": "Xã Phước Thạnh",
        "all_routes": "100, 107, 70-1, 70-2",
        "marker_color": "#FB8C00"
      }
    },
    {
      "type": "Feature",
      "geometry": {
        "type": "Point",
        "coordinates": [
          106.435756,
          11.002966
        ]
      },
      "properties": {
        "feature_type": "bus_stop",
        "stop_id": 7844,
        "stop_code": "HCC 348",
        "stop_name": "Đường 622",
        "stop_type": "Ô sơn",
        "route_no": "70-1",
        "display_code": "B 70-1",
        "direction": "Lượt về",
        "address": "cạnh 685 (cạnh đường 622) Quốc lộ 22",
        "street": "Quốc lộ 22",
        "zone": "Huyện Củ Chi",
        "ward": "Xã Phước Thạnh",
        "all_routes": "100, 107, 70-1, 70-2",
        "marker_color": "#FB8C00"
      }
    },
    {
      "type": "Feature",
      "geometry": {
        "type": "Point",
        "coordinates": [
          106.443239,
          10.998359
        ]
      },
      "properties": {
        "feature_type": "bus_stop",
        "stop_id": 7843,
        "stop_code": "HCC 353",
        "stop_name": "Cây xăng Phước Thạnh 2",
        "stop_type": "Nhà chờ",
        "route_no": "70-1",
        "display_code": "B 70-1",
        "direction": "Lượt về",
        "address": "613 (cạnh hẻm 53) Quốc lộ 22",
        "street": "Quốc lộ 22",
        "zone": "Huyện Củ Chi",
        "ward": "Xã Tân An Hội",
        "all_routes": "100, 107, 70-1, 70-2",
        "marker_color": "#FB8C00"
      }
    },
    {
      "type": "Feature",
      "geometry": {
        "type": "Point",
        "coordinates": [
          106.44487,
          10.996617
        ]
      },
      "properties": {
        "feature_type": "bus_stop",
        "stop_id": 784,
        "stop_code": "HCC 030",
        "stop_name": "ấp cây trôm",
        "stop_type": "Trụ dừng",
        "route_no": "70-1",
        "display_code": "B 70-1",
        "direction": "Lượt về",
        "address": "585 Quốc lộ 22",
        "street": "Quốc lộ 22",
        "zone": "Huyện Củ Chi",
        "ward": "Xã Phước Hiệp",
        "all_routes": "100, 107, 70-1, 70-2",
        "marker_color": "#FB8C00"
      }
    },
    {
      "type": "Feature",
      "geometry": {
        "type": "Point",
        "coordinates": [
          106.448362,
          10.992698
        ]
      },
      "properties": {
        "feature_type": "bus_stop",
        "stop_id": 792,
        "stop_code": "HCC 031",
        "stop_name": "Trường Tiểu học Phước Hiệp",
        "stop_type": "Nhà chờ",
        "route_no": "70-1",
        "display_code": "B 70-1",
        "direction": "Lượt về",
        "address": "499 Quốc lộ 22",
        "street": "Quốc lộ 22",
        "zone": "Huyện Củ Chi",
        "ward": "Xã Phước Hiệp",
        "all_routes": "100, 107, 70-1, 70-2",
        "marker_color": "#FB8C00"
      }
    },
    {
      "type": "Feature",
      "geometry": {
        "type": "Point",
        "coordinates": [
          106.451263,
          10.989567
        ]
      },
      "properties": {
        "feature_type": "bus_stop",
        "stop_id": 794,
        "stop_code": "HCC 032",
        "stop_name": "UBND xã Phước Hiệp",
        "stop_type": "Nhà chờ",
        "route_no": "70-1",
        "display_code": "B 70-1",
        "direction": "Lượt về",
        "address": "UBND xã Phước Hiệp Quốc lộ 22",
        "street": "Quốc lộ 22",
        "zone": "Huyện Củ Chi",
        "ward": null,
        "all_routes": "100, 107, 70-1, 70-2",
        "marker_color": "#FB8C00"
      }
    },
    {
      "type": "Feature",
      "geometry": {
        "type": "Point",
        "coordinates": [
          106.455658,
          10.986336
        ]
      },
      "properties": {
        "feature_type": "bus_stop",
        "stop_id": 7836,
        "stop_code": "HCC 347",
        "stop_name": "Cây xăng Phước Thạnh 3",
        "stop_type": "Ô sơn",
        "route_no": "70-1",
        "display_code": "B 70-1",
        "direction": "Lượt về",
        "address": "351 Quốc lộ 22",
        "street": "Quốc lộ 22",
        "zone": "Huyện Củ Chi",
        "ward": "Xã Phước Hiệp",
        "all_routes": "100, 107, 70-1, 70-2",
        "marker_color": "#FB8C00"
      }
    },
    {
      "type": "Feature",
      "geometry": {
        "type": "Point",
        "coordinates": [
          106.458238,
          10.984662
        ]
      },
      "properties": {
        "feature_type": "bus_stop",
        "stop_id": 7834,
        "stop_code": "HCC 345",
        "stop_name": "Đường số 606",
        "stop_type": "Nhà chờ",
        "route_no": "70-1",
        "display_code": "B 70-1",
        "direction": "Lượt về",
        "address": "Đối diện đường số 606 Quốc lộ 22",
        "street": "Quốc lộ 22",
        "zone": "Huyện Củ Chi",
        "ward": "Xã Tân An Hội",
        "all_routes": "100, 107, 70-1, 70-2",
        "marker_color": "#FB8C00"
      }
    },
    {
      "type": "Feature",
      "geometry": {
        "type": "Point",
        "coordinates": [
          106.461033,
          10.982855
        ]
      },
      "properties": {
        "feature_type": "bus_stop",
        "stop_id": 785,
        "stop_code": "HCC 033",
        "stop_name": "Cây xăng Tài Lộc 3",
        "stop_type": "Nhà chờ",
        "route_no": "70-1",
        "display_code": "B 70-1",
        "direction": "Lượt về",
        "address": "281 Quốc lộ 22",
        "street": "Quốc lộ 22",
        "zone": "Huyện Củ Chi",
        "ward": "Xã Phước Hiệp",
        "all_routes": "100, 107, 70-1, 70-2",
        "marker_color": "#FB8C00"
      }
    },
    {
      "type": "Feature",
      "geometry": {
        "type": "Point",
        "coordinates": [
          106.463742,
          10.981049
        ]
      },
      "properties": {
        "feature_type": "bus_stop",
        "stop_id": 7680,
        "stop_code": "HCC 298",
        "stop_name": "Ấp Bàu Tre",
        "stop_type": "Trụ dừng",
        "route_no": "70-1",
        "display_code": "B 70-1",
        "direction": "Lượt về",
        "address": "227 Quốc lộ 22",
        "street": "Quốc lộ 22",
        "zone": "Huyện Củ Chi",
        "ward": "Xã Phước Hiệp",
        "all_routes": "100, 107, 70-1, 70-2",
        "marker_color": "#FB8C00"
      }
    },
    {
      "type": "Feature",
      "geometry": {
        "type": "Point",
        "coordinates": [
          106.469632,
          10.977784
        ]
      },
      "properties": {
        "feature_type": "bus_stop",
        "stop_id": 796,
        "stop_code": "HCC 034",
        "stop_name": "Công ty phân bón sinh hóa Củ Chi",
        "stop_type": "Nhà chờ",
        "route_no": "70-1",
        "display_code": "B 70-1",
        "direction": "Lượt về",
        "address": "121 Quốc lộ 22",
        "street": "Quốc lộ 22",
        "zone": "Huyện Củ Chi",
        "ward": null,
        "all_routes": "100, 107, 70-1, 70-2",
        "marker_color": "#FB8C00"
      }
    },
    {
      "type": "Feature",
      "geometry": {
        "type": "Point",
        "coordinates": [
          106.472717,
          10.976109
        ]
      },
      "properties": {
        "feature_type": "bus_stop",
        "stop_id": 787,
        "stop_code": "HCC 035",
        "stop_name": "Ngã 3 Nguyễn Thị Rành",
        "stop_type": "Nhà chờ",
        "route_no": "70-1",
        "display_code": "B 70-1",
        "direction": "Lượt về",
        "address": "55 Quốc lộ 22",
        "street": "Quốc lộ 22",
        "zone": "Huyện Củ Chi",
        "ward": "Xã Tân An Hội",
        "all_routes": "100, 107, 70-1, 70-2, 79",
        "marker_color": "#FB8C00"
      }
    },
    {
      "type": "Feature",
      "geometry": {
        "type": "Point",
        "coordinates": [
          106.476579,
          10.974061
        ]
      },
      "properties": {
        "feature_type": "bus_stop",
        "stop_id": 788,
        "stop_code": "HCC 036",
        "stop_name": "Bệnh viện Củ Chi",
        "stop_type": "Trụ dừng",
        "route_no": "70-1",
        "display_code": "B 70-1",
        "direction": "Lượt về",
        "address": "991 (số 5-7 xe máy Quang Phương) Quốc lộ 22",
        "street": "Quốc lộ 22",
        "zone": "Huyện Củ Chi",
        "ward": "Xã Tân An Hội",
        "all_routes": "100, 107, 70-1, 70-2, 79",
        "marker_color": "#FB8C00"
      }
    },
    {
      "type": "Feature",
      "geometry": {
        "type": "Point",
        "coordinates": [
          106.478097,
          10.973308
        ]
      },
      "properties": {
        "feature_type": "bus_stop",
        "stop_id": 9465,
        "stop_code": "HCC 365",
        "stop_name": "Bệnh viện đa khoa khu vực Củ Chi",
        "stop_type": "Trụ dừng",
        "route_no": "70-1",
        "display_code": "B 70-1",
        "direction": "Lượt về",
        "address": "965 Phan Văn Khải",
        "street": "Phan Văn Khải",
        "zone": "Huyện Củ Chi",
        "ward": "Xã Tân An Hội",
        "all_routes": "100, 107, 70-1, 70-2, 79",
        "marker_color": "#FB8C00"
      }
    },
    {
      "type": "Feature",
      "geometry": {
        "type": "Point",
        "coordinates": [
          106.48049,
          10.972091
        ]
      },
      "properties": {
        "feature_type": "bus_stop",
        "stop_id": 963,
        "stop_code": "HCC 037",
        "stop_name": "Bến xe Củ Chi",
        "stop_type": "Trụ dừng",
        "route_no": "70-1",
        "display_code": "B 70-1",
        "direction": "Lượt về",
        "address": "907 (Chợ Củ Chi) Quốc lộ 22",
        "street": "Quốc lộ 22",
        "zone": "Huyện Củ Chi",
        "ward": "Thị trấn Củ Chi",
        "all_routes": "100, 107, 70-1, 70-2, 79",
        "marker_color": "#FB8C00"
      }
    },
    {
      "type": "Feature",
      "geometry": {
        "type": "Point",
        "coordinates": [
          106.482453,
          10.970495
        ]
      },
      "properties": {
        "feature_type": "bus_stop",
        "stop_id": 7617,
        "stop_code": "HCC 279",
        "stop_name": "chợ Củ Chi",
        "stop_type": "Nhà chờ",
        "route_no": "70-1",
        "display_code": "B 70-1",
        "direction": "Lượt về",
        "address": "chợ Củ Chi Quốc lộ 22",
        "street": "Quốc lộ 22",
        "zone": "Huyện Củ Chi",
        "ward": "Thị trấn Củ Chi",
        "all_routes": "100, 107, 126, 13, 70-1, 70-2, 74, 79, 87, 94",
        "marker_color": "#FB8C00"
      }
    }
  ]
}