<?xml version="1.0" encoding="UTF-8"?>
<kml xmlns="http://www.opengis.net/kml/2.2">
  <Document>
    <name>B 33 - Bến xe An Sương - Suối Tiên - Đại học Quốc gia</name>
    <description>Lộ trình tuyến xe buýt B 33 (4:30 - 22:00)</description>
    <Style id="routeLineStyle">
      <LineStyle>
        <color>e6E59B03</color>
        <width>4</width>
      </LineStyle>
    </Style>
    <Style id="busStopStyle">
      <IconStyle>
        <scale>0.8</scale>
        <Icon>
          <href>http://maps.google.com/mapfiles/kml/shapes/bus.png</href>
        </Icon>
      </IconStyle>
    </Style>
    <Folder>
      <name>Lượt đi: Bến xe An Sương → Bến xe buýt Khu A - Đại học Quốc gia TP.HCM (25.59 km)</name>
      <Placemark>
        <name>B 33 - Đường đi Lượt đi</name>
        <description><![CDATA[&lt;b&gt;Tuyến:&lt;/b&gt; B 33 - Bến xe An Sương - Suối Tiên - Đại học Quốc gia&lt;br/&gt;&lt;b&gt;Lượt:&lt;/b&gt; Lượt đi&lt;br/&gt;&lt;b&gt;Cự ly:&lt;/b&gt; 25.59 km&lt;br/&gt;&lt;b&gt;Thời gian hành trình:&lt;/b&gt; 60 phút&lt;br/&gt;&lt;b&gt;Thời gian hoạt động:&lt;/b&gt; 4:30 - 22:00]]></description>
        <styleUrl>#routeLineStyle</styleUrl>
        <LineString>
          <tessellate>1</tessellate>
          <coordinates>106.6133728,10.8437376,0 106.61354065,10.84395981,0 106.6140213,10.84438038,0 106.61486053,10.84325981,0 106.61509705,10.84277916,0 106.6150589,10.8425684,0 106.61533356,10.84227848,0 106.6155777,10.84231567,0 106.61566162,10.84257984,0 106.6157608,10.84284782,0 106.61625671,10.84329033,0 106.61739349,10.84432983,0 106.61773682,10.84465981,0 106.61780548,10.84461784,0 106.61780548,10.84461784,0 106.61780548,10.84461784,0 106.61780548,10.84461784,0 106.61780548,10.84461784,0 106.61773682,10.84469128,0 106.61867523,10.84554482,0 106.61962128,10.84629822,0 106.62044525,10.84692574,0 106.62147522,10.84745216,0 106.62150574,10.84741783,0 106.62150574,10.84741783,0 106.62150574,10.84741783,0 106.62149048,10.84746838,0 106.62316895,10.84826946,0 106.62482452,10.84902287,0 106.62490082,10.84890079,0 106.62490082,10.84890079,0 106.62484741,10.84902763,0 106.62615967,10.84963894,0 106.62747192,10.85025024,0 106.62757111,10.85007095,0 106.62757111,10.85007095,0 106.62757111,10.85007095,0 106.62757111,10.85007095,0 106.62757111,10.85007095,0 106.62749481,10.85024452,0 106.62870026,10.85081768,0 106.62992859,10.85140419,0 106.63111115,10.85201645,0 106.63230896,10.85262585,0 106.63234711,10.85258293,0 106.63234711,10.85258293,0 106.63234711,10.85258293,0 106.63234711,10.85258293,0 106.63234711,10.85258293,0 106.63233185,10.85264206,0 106.6346283,10.85387516,0 106.6346817,10.85380554,0 106.6346817,10.85380554,0 106.6346817,10.85380554,0 106.63462067,10.85388565,0 106.63593292,10.85459995,0 106.63724518,10.8553133,0 106.63852692,10.85600853,0 106.63980865,10.85670376,0 106.63983154,10.85666656,0 106.63983154,10.85666656,0 106.63983154,10.85666656,0 106.63980103,10.85671997,0 106.64185333,10.85785007,0 106.64417267,10.85910034,0 106.6442337,10.85895348,0 106.6442337,10.85895348,0 106.64417267,10.85908508,0 106.64594269,10.86004448,0 106.64775085,10.86104488,0 106.64778137,10.86096954,0 106.64777374,10.86102962,0 106.64784241,10.86104965,0 106.64851379,10.86139965,0 106.64910889,10.86168957,0 106.64945984,10.86180019,0 106.64978027,10.86188984,0 106.65019226,10.86194992,0 106.6506424,10.86196041,0 106.65119934,10.86194038,0 106.65119934,10.86188126,0 106.65119934,10.86198235,0 106.65265656,10.86190891,0 106.65405273,10.86180782,0 106.65406036,10.86186028,0 106.65550995,10.8617897,0 106.65712738,10.86172009,0 106.65712738,10.86165142,0 106.65712738,10.86165142,0 106.65712738,10.86165142,0 106.65712738,10.86165142,0 106.65712738,10.86172009,0 106.65968323,10.8616066,0 106.66223907,10.86149311,0 106.6622467,10.8613348,0 106.6622467,10.8613348,0 106.6622467,10.8613348,0 106.6622467,10.8613348,0 106.6622467,10.8613348,0 106.6622467,10.8613348,0 106.6622467,10.8613348,0 106.6622467,10.8613348,0 106.6622467,10.8613348,0 106.6622467,10.86149788,0 106.66432953,10.86155605,0 106.66640472,10.86158752,0 106.66645813,10.86150265,0 106.66645813,10.86150265,0 106.66645813,10.86150265,0 106.66645813,10.86150265,0 106.66645813,10.86150265,0 106.66645813,10.86150265,0 106.66644287,10.86163998,0 106.66763306,10.861619,0 106.67015076,10.86163998,0 106.67188263,10.86166954,0 106.67188263,10.86157703,0 106.67188263,10.86157703,0 106.67188263,10.86157703,0 106.67188263,10.86157703,0 106.67189789,10.8616724,0 106.673172,10.86169052,0 106.67445374,10.86170864,0 106.67444611,10.861619,0 106.67444611,10.861619,0 106.67444611,10.861619,0 106.67444611,10.861619,0 106.6762619,10.86158276,0 106.6780777,10.86147213,0 106.6780777,10.86147213,0 106.6780777,10.86155033,0 106.68005371,10.86143494,0 106.68200684,10.86127186,0 106.68200684,10.86117077,0 106.68200684,10.86117077,0 106.68200684,10.86117077,0 106.68199921,10.86127663,0 106.68382263,10.86116886,0 106.68564606,10.8610611,0 106.6866684,10.86099243,0 106.68665314,10.86089706,0 106.68665314,10.86089706,0 106.68667603,10.86098671,0 106.68792725,10.860919,0 106.68917084,10.86085033,0 106.68917847,10.8607502,0 106.68917847,10.8607502,0 106.68917847,10.8607502,0 106.68917847,10.86081028,0 106.69232941,10.86060238,0 106.69232941,10.86038589,0 106.69232941,10.86038589,0 106.69233704,10.86059189,0 106.69449615,10.86046028,0 106.69451141,10.86036491,0 106.69451141,10.86036491,0 106.69451141,10.86036491,0 106.69450378,10.86046505,0 106.69556427,10.86038685,0 106.69665527,10.86029148,0 106.69867706,10.8600359,0 106.70069885,10.85978031,0 106.70069885,10.85967541,0 106.70069885,10.85967541,0 106.70069885,10.85967541,0 106.70071411,10.85977554,0 106.7033844,10.85944366,0 106.70604706,10.85911179,0 106.70604706,10.85901737,0 106.70604706,10.85901737,0 106.70604706,10.85901737,0 106.70606232,10.85909081,0 106.70748138,10.85891151,0 106.70890045,10.85873222,0 106.70891571,10.85861588,0 106.70891571,10.85861588,0 106.70891571,10.85861588,0 106.70891571,10.85861588,0 106.70908356,10.85873032,0 106.70955658,10.85861969,0 106.70992279,10.85857964,0 106.7104187,10.8585701,0 106.71083069,10.85861969,0 106.71150208,10.85875988,0 106.7122345,10.85908031,0 106.71299744,10.85949612,0 106.71346283,10.85972309,0 106.71350098,10.85965919,0 106.71350098,10.85965919,0 106.71350098,10.85965919,0 106.71344757,10.85976505,0 106.71459961,10.86034966,0 106.71668243,10.86146164,0 106.71798706,10.86211491,0 106.71958923,10.86291981,0 106.72042847,10.8633604,0 106.72045135,10.86331463,0 106.72045135,10.86331463,0 106.72042847,10.8633604,0 106.72113037,10.86373997,0 106.72338104,10.86483002,0 106.72367859,10.86493969,0 106.72384644,10.86493015,0 106.72399139,10.86491966,0 106.72412872,10.86499977,0 106.72418213,10.86509991,0 106.72418976,10.86515045,0 106.72427368,10.8652401,0 106.72438049,10.86532974,0 106.72463989,10.86544991,0 106.72666168,10.86645985,0 106.72680664,10.86657047,0 106.72708893,10.86682034,0 106.72718048,10.86686993,0 106.72737885,10.86697006,0 106.72742462,10.86688995,0 106.72737122,10.86695099,0 106.7287674,10.86767006,0 106.73016357,10.86838913,0 106.73020172,10.86830997,0 106.73020172,10.86830997,0 106.73020172,10.86830997,0 106.73016357,10.86841011,0 106.73193359,10.86931038,0 106.73319244,10.86993027,0 106.73468781,10.87067986,0 106.73535919,10.87098026,0 106.73538208,10.8708601,0 106.73538208,10.8708601,0 106.73538208,10.8708601,0 106.73535919,10.87098026,0 106.73597717,10.87121964,0 106.73674774,10.87143993,0 106.73748779,10.87160969,0 106.73834991,10.87172985,0 106.73965454,10.87186623,0 106.7396698,10.87176609,0 106.7396698,10.87176609,0 106.7396698,10.87176609,0 106.7396698,10.87176609,0 106.7396698,10.87176609,0 106.73968506,10.87185001,0 106.73966217,10.87189198,0 106.74080658,10.87203407,0 106.74169922,10.87228489,0 106.74259186,10.87253475,0 106.74331665,10.87279224,0 106.74403381,10.87304974,0 106.74407959,10.8729353,0 106.74407959,10.8729353,0 106.74407959,10.8729353,0 106.74407959,10.8729353,0 106.74407959,10.8729353,0 106.74407959,10.8729353,0 106.74407959,10.87301922,0 106.7456131,10.87350941,0 106.7470932,10.87396812,0 106.74713135,10.87390518,0 106.74713135,10.87390518,0 106.74713135,10.87390518,0 106.74713135,10.87390518,0 106.74707794,10.87403011,0 106.74913025,10.87469006,0 106.75071716,10.87518978,0 106.75231171,10.87570667,0 106.75312042,10.87593842,0 106.75370026,10.87602043,0 106.75434113,10.87600994,0 106.75489807,10.87592983,0 106.75566101,10.87580013,0 106.75562286,10.87570572,0 106.75562286,10.87570572,0 106.75562286,10.87570572,0 106.75562286,10.87570572,0 106.75563812,10.8757906,0 106.75655365,10.87561703,0 106.75746918,10.87544346,0 106.75746918,10.87535286,0 106.75746918,10.87535286,0 106.75746918,10.87535286,0 106.75746918,10.87535286,0 106.75749969,10.87541676,0 106.75918579,10.87510014,0 106.76094055,10.87456894,0 106.76091003,10.87447357,0 106.76091003,10.87447357,0 106.76091003,10.87447357,0 106.76091003,10.87447357,0 106.76091003,10.87447357,0 106.76094818,10.87455273,0 106.76246643,10.87408352,0 106.76247406,10.87397289,0 106.76247406,10.87397289,0 106.76247406,10.87397289,0 106.76247406,10.87397289,0 106.76247406,10.87397289,0 106.76248169,10.87404919,0 106.76261902,10.87403679,0 106.76309204,10.87384033,0 106.76498413,10.87319565,0 106.76686859,10.87255001,0 106.76715088,10.87254524,0 106.76966095,10.87170982,0 106.76964569,10.87165546,0 106.76964569,10.87159729,0 106.76964569,10.87159729,0 106.76964569,10.87159729,0 106.76967621,10.87167645,0 106.7713623,10.87112331,0 106.77305603,10.87057495,0 106.77304077,10.87050724,0 106.77304077,10.87050724,0 106.77304077,10.87050724,0 106.77307129,10.87059975,0 106.77397919,10.87029648,0 106.77488708,10.86999226,0 106.77580261,10.86968899,0 106.77671051,10.86938477,0 106.77672577,10.86930561,0 106.77672577,10.86930561,0 106.77672577,10.86930561,0 106.77674103,10.86936378,0 106.77770233,10.86905003,0 106.77867126,10.86873627,0 106.77865601,10.86869144,0 106.77865601,10.86869144,0 106.77865601,10.86869144,0 106.77869415,10.86874199,0 106.78086853,10.86801529,0 106.78206635,10.8676405,0 106.78312683,10.86740398,0 106.7841568,10.86727238,0 106.7857132,10.86722755,0 106.78727721999999,10.86718273,0 106.78727721999999,10.8671217,0 106.78727721999999,10.8671217,0 106.78727721999999,10.86717987,0 106.78822327,10.86713028,0 106.78961182,10.8670702,0 106.79029846,10.86695957,0 106.7902832,10.86691189,0 106.7902832,10.86691189,0 106.7902832,10.86691189,0 106.7902832,10.86691189,0 106.79031372,10.86696148,0 106.79129028,10.86662388,0 106.7923584,10.8661499,0 106.79316711,10.8655386,0 106.7938385,10.86490631,0 106.79440308,10.8641243,0 106.79496002,10.86334229,0 106.79545593,10.86248589,0 106.79594421,10.86162949,0 106.79586792,10.86110306,0 106.79556274,10.86076546,0 106.79508972,10.86070251,0 106.79463959,10.86120796,0 106.79457855,10.86154556,0 106.79479218,10.86190414,0 106.79502869,10.86221504,0 106.7956543,10.86256027,0 106.79628754,10.8629055,0 106.79689026,10.86326599,0 106.79749298,10.86362648,0 106.79753876,10.86359501,0 106.79753876,10.86359501,0 106.79753876,10.86359501,0 106.79753876,10.86359501,0 106.79753876,10.86359501,0 106.79753876,10.86359501,0 106.79750061,10.86364746,0 106.79826355,10.86408997,0 106.79910278,10.86454296,0 106.8000412,10.86508846,0 106.80097198,10.86563396,0 106.8014679,10.86573887,0 106.80207825,10.86611271,0 106.80207825,10.86611271,0 106.80207825,10.86611271,0 106.80264282,10.86644745,0 106.80319977,10.86678219,0 106.80375671,10.86717224,0 106.8042984,10.86758804,0 106.80509949,10.86826801,0 106.80590057,10.86905766,0 106.80636597,10.86957741,0 106.80683136,10.87009621,0 106.80726624,10.87068558,0 106.80770111,10.8712759,0 106.80853271,10.87244034,0 106.80895233,10.87300873,0 106.80937195,10.87357807,0 106.80945587,10.87351513,0 106.80945587,10.87351513,0 106.80940247,10.87357807,0 106.80973053,10.8740263,0 106.8098526,10.8742733,0 106.80979919,10.87452126,0 106.80961609,10.87468433,0 106.80942535,10.87474728,0 106.80922699,10.87476826,0 106.80857849,10.87387848,0 106.80818939,10.87331963,0 106.80793762,10.87365723,0 106.80781555,10.87378883,0 106.80796814,10.87392044,0 106.80810547,10.87405777,0 106.80827332,10.87426281,0 106.80843353,10.87446308,0 106.80789185,10.87482643,0 106.80765533,10.87447929,0</coordinates>
        </LineString>
      </Placemark>
      <Folder>
        <name>Trạm dừng (48 trạm)</name>
        <Placemark>
          <name>[BX41] Bến xe An Sương</name>
          <description><![CDATA[&lt;b&gt;Trạm:&lt;/b&gt; Bến xe An Sương&lt;br/&gt;&lt;b&gt;Mã trạm:&lt;/b&gt; BX41&lt;br/&gt;&lt;b&gt;Địa chỉ:&lt;/b&gt; Bến xe An Sương Quốc lộ 22&lt;br/&gt;&lt;b&gt;Khu vực:&lt;/b&gt; None, Quận 12&lt;br/&gt;&lt;b&gt;Các tuyến qua trạm:&lt;/b&gt; 04, 104, 122, 151, 27, 33, 41, 61-3, 62-5, 65, 71, 74, 85]]></description>
          <styleUrl>#busStopStyle</styleUrl>
          <Point>
            <coordinates>106.61337280273438,10.843737602233887,0</coordinates>
          </Point>
        </Placemark>
        <Placemark>
          <name>[Q12 095] Cầu vượt An Sương</name>
          <description><![CDATA[&lt;b&gt;Trạm:&lt;/b&gt; Cầu vượt An Sương&lt;br/&gt;&lt;b&gt;Mã trạm:&lt;/b&gt; Q12 095&lt;br/&gt;&lt;b&gt;Địa chỉ:&lt;/b&gt; 2571-2575 (17A-4/8A) Quốc lộ 1A&lt;br/&gt;&lt;b&gt;Khu vực:&lt;/b&gt; None, Quận 12&lt;br/&gt;&lt;b&gt;Các tuyến qua trạm:&lt;/b&gt; 33, 60-1, 61-3]]></description>
          <styleUrl>#busStopStyle</styleUrl>
          <Point>
            <coordinates>106.617803,10.844618,0</coordinates>
          </Point>
        </Placemark>
        <Placemark>
          <name>[Q12 097] Trạm đăng kiểm</name>
          <description><![CDATA[&lt;b&gt;Trạm:&lt;/b&gt; Trạm đăng kiểm&lt;br/&gt;&lt;b&gt;Mã trạm:&lt;/b&gt; Q12 097&lt;br/&gt;&lt;b&gt;Địa chỉ:&lt;/b&gt; Đối diện trạm đăng kiểm Quốc lộ 1A&lt;br/&gt;&lt;b&gt;Khu vực:&lt;/b&gt; None, Quận 12&lt;br/&gt;&lt;b&gt;Các tuyến qua trạm:&lt;/b&gt; 33, 60-1, 61-3]]></description>
          <styleUrl>#busStopStyle</styleUrl>
          <Point>
            <coordinates>106.621506,10.847418,0</coordinates>
          </Point>
        </Placemark>
        <Placemark>
          <name>[Q12 098] Chung cư Thái An</name>
          <description><![CDATA[&lt;b&gt;Trạm:&lt;/b&gt; Chung cư Thái An&lt;br/&gt;&lt;b&gt;Mã trạm:&lt;/b&gt; Q12 098&lt;br/&gt;&lt;b&gt;Địa chỉ:&lt;/b&gt; B336 Quốc lộ 1A&lt;br/&gt;&lt;b&gt;Khu vực:&lt;/b&gt; None, Quận 12&lt;br/&gt;&lt;b&gt;Các tuyến qua trạm:&lt;/b&gt; 33, 61-3]]></description>
          <styleUrl>#busStopStyle</styleUrl>
          <Point>
            <coordinates>106.6249,10.848901,0</coordinates>
          </Point>
        </Placemark>
        <Placemark>
          <name>[Q12 099] Đài phát thanh Quán Tre</name>
          <description><![CDATA[&lt;b&gt;Trạm:&lt;/b&gt; Đài phát thanh Quán Tre&lt;br/&gt;&lt;b&gt;Mã trạm:&lt;/b&gt; Q12 099&lt;br/&gt;&lt;b&gt;Địa chỉ:&lt;/b&gt; Đài phát thanh quán tre Quốc lộ 1A&lt;br/&gt;&lt;b&gt;Khu vực:&lt;/b&gt; None, Quận 12&lt;br/&gt;&lt;b&gt;Các tuyến qua trạm:&lt;/b&gt; 33, 60-1, 61-3]]></description>
          <styleUrl>#busStopStyle</styleUrl>
          <Point>
            <coordinates>106.627572,10.850071,0</coordinates>
          </Point>
        </Placemark>
        <Placemark>
          <name>[Q12 100] Trường Nguyễn Du</name>
          <description><![CDATA[&lt;b&gt;Trạm:&lt;/b&gt; Trường Nguyễn Du&lt;br/&gt;&lt;b&gt;Mã trạm:&lt;/b&gt; Q12 100&lt;br/&gt;&lt;b&gt;Địa chỉ:&lt;/b&gt; Trường Nguyễn Du Quốc lộ 1A&lt;br/&gt;&lt;b&gt;Khu vực:&lt;/b&gt; None, Quận 12&lt;br/&gt;&lt;b&gt;Các tuyến qua trạm:&lt;/b&gt; 33, 60-1, 61-3, 62]]></description>
          <styleUrl>#busStopStyle</styleUrl>
          <Point>
            <coordinates>106.632347,10.852583,0</coordinates>
          </Point>
        </Placemark>
        <Placemark>
          <name>[Q12 101] Bảo vệ Nam Long Hải</name>
          <description><![CDATA[&lt;b&gt;Trạm:&lt;/b&gt; Bảo vệ Nam Long Hải&lt;br/&gt;&lt;b&gt;Mã trạm:&lt;/b&gt; Q12 101&lt;br/&gt;&lt;b&gt;Địa chỉ:&lt;/b&gt; 103/4B Quốc lộ 1A&lt;br/&gt;&lt;b&gt;Khu vực:&lt;/b&gt; None, Quận 12&lt;br/&gt;&lt;b&gt;Các tuyến qua trạm:&lt;/b&gt; 33, 61-3, 62]]></description>
          <styleUrl>#busStopStyle</styleUrl>
          <Point>
            <coordinates>106.634679,10.853806,0</coordinates>
          </Point>
        </Placemark>
        <Placemark>
          <name>[Q12 102] Ngã tư Đình</name>
          <description><![CDATA[&lt;b&gt;Trạm:&lt;/b&gt; Ngã tư Đình&lt;br/&gt;&lt;b&gt;Mã trạm:&lt;/b&gt; Q12 102&lt;br/&gt;&lt;b&gt;Địa chỉ:&lt;/b&gt; 1781 Quốc lộ 1A&lt;br/&gt;&lt;b&gt;Khu vực:&lt;/b&gt; None, Quận 12&lt;br/&gt;&lt;b&gt;Các tuyến qua trạm:&lt;/b&gt; 33, 60-1, 61-3, 62]]></description>
          <styleUrl>#busStopStyle</styleUrl>
          <Point>
            <coordinates>106.639832,10.856667,0</coordinates>
          </Point>
        </Placemark>
        <Placemark>
          <name>[Q12 103] Cây xăng Năng lượng</name>
          <description><![CDATA[&lt;b&gt;Trạm:&lt;/b&gt; Cây xăng Năng lượng&lt;br/&gt;&lt;b&gt;Mã trạm:&lt;/b&gt; Q12 103&lt;br/&gt;&lt;b&gt;Địa chỉ:&lt;/b&gt; Kế cây xăng Năng lượng Quốc lộ 1A&lt;br/&gt;&lt;b&gt;Khu vực:&lt;/b&gt; None, Quận 12&lt;br/&gt;&lt;b&gt;Các tuyến qua trạm:&lt;/b&gt; 33, 60-1, 61-3, 62]]></description>
          <styleUrl>#busStopStyle</styleUrl>
          <Point>
            <coordinates>106.644233,10.858953,0</coordinates>
          </Point>
        </Placemark>
        <Placemark>
          <name>[Q12 104] Cao su Vina</name>
          <description><![CDATA[&lt;b&gt;Trạm:&lt;/b&gt; Cao su Vina&lt;br/&gt;&lt;b&gt;Mã trạm:&lt;/b&gt; Q12 104&lt;br/&gt;&lt;b&gt;Địa chỉ:&lt;/b&gt; 1721 Quốc lộ 1A&lt;br/&gt;&lt;b&gt;Khu vực:&lt;/b&gt; None, Quận 12&lt;br/&gt;&lt;b&gt;Các tuyến qua trạm:&lt;/b&gt; 33, 60-1, 61-3, 62]]></description>
          <styleUrl>#busStopStyle</styleUrl>
          <Point>
            <coordinates>106.647781,10.86097,0</coordinates>
          </Point>
        </Placemark>
        <Placemark>
          <name>[Q12 105] Ngã tư Tân Thới Hiệp</name>
          <description><![CDATA[&lt;b&gt;Trạm:&lt;/b&gt; Ngã tư Tân Thới Hiệp&lt;br/&gt;&lt;b&gt;Mã trạm:&lt;/b&gt; Q12 105&lt;br/&gt;&lt;b&gt;Địa chỉ:&lt;/b&gt; 79/1 Quốc lộ 1A&lt;br/&gt;&lt;b&gt;Khu vực:&lt;/b&gt; None, Quận 12&lt;br/&gt;&lt;b&gt;Các tuyến qua trạm:&lt;/b&gt; 103, 33, 60-1, 61-3]]></description>
          <styleUrl>#busStopStyle</styleUrl>
          <Point>
            <coordinates>106.651199,10.861881,0</coordinates>
          </Point>
        </Placemark>
        <Placemark>
          <name>[Q12 106] UBND Quận 12</name>
          <description><![CDATA[&lt;b&gt;Trạm:&lt;/b&gt; UBND Quận 12&lt;br/&gt;&lt;b&gt;Mã trạm:&lt;/b&gt; Q12 106&lt;br/&gt;&lt;b&gt;Địa chỉ:&lt;/b&gt; 1251 Quốc lộ 1A&lt;br/&gt;&lt;b&gt;Khu vực:&lt;/b&gt; None, Quận 12&lt;br/&gt;&lt;b&gt;Các tuyến qua trạm:&lt;/b&gt; 103, 33, 60-1, 61-3]]></description>
          <styleUrl>#busStopStyle</styleUrl>
          <Point>
            <coordinates>106.654053,10.861808,0</coordinates>
          </Point>
        </Placemark>
        <Placemark>
          <name>[Q12 107] Bãi xe Tri Ân</name>
          <description><![CDATA[&lt;b&gt;Trạm:&lt;/b&gt; Bãi xe Tri Ân&lt;br/&gt;&lt;b&gt;Mã trạm:&lt;/b&gt; Q12 107&lt;br/&gt;&lt;b&gt;Địa chỉ:&lt;/b&gt; 1797 Quốc lộ 1A&lt;br/&gt;&lt;b&gt;Khu vực:&lt;/b&gt; None, Quận 12&lt;br/&gt;&lt;b&gt;Các tuyến qua trạm:&lt;/b&gt; 103, 146, 33, 60-1, 61-3]]></description>
          <styleUrl>#busStopStyle</styleUrl>
          <Point>
            <coordinates>106.657127,10.861651,0</coordinates>
          </Point>
        </Placemark>
        <Placemark>
          <name>[Q12 108] Cầu Bến Cát</name>
          <description><![CDATA[&lt;b&gt;Trạm:&lt;/b&gt; Cầu Bến Cát&lt;br/&gt;&lt;b&gt;Mã trạm:&lt;/b&gt; Q12 108&lt;br/&gt;&lt;b&gt;Địa chỉ:&lt;/b&gt; 973 Quốc lộ 1A&lt;br/&gt;&lt;b&gt;Khu vực:&lt;/b&gt; None, Quận 12&lt;br/&gt;&lt;b&gt;Các tuyến qua trạm:&lt;/b&gt; 103, 146, 33, 60-1, 61-3]]></description>
          <styleUrl>#busStopStyle</styleUrl>
          <Point>
            <coordinates>106.662247,10.861335,0</coordinates>
          </Point>
        </Placemark>
        <Placemark>
          <name>[Q12 109] Gò Sao</name>
          <description><![CDATA[&lt;b&gt;Trạm:&lt;/b&gt; Gò Sao&lt;br/&gt;&lt;b&gt;Mã trạm:&lt;/b&gt; Q12 109&lt;br/&gt;&lt;b&gt;Địa chỉ:&lt;/b&gt; 109 Quốc lộ 1A&lt;br/&gt;&lt;b&gt;Khu vực:&lt;/b&gt; None, Quận 12&lt;br/&gt;&lt;b&gt;Các tuyến qua trạm:&lt;/b&gt; 103, 146, 33, 60-1, 61-3]]></description>
          <styleUrl>#busStopStyle</styleUrl>
          <Point>
            <coordinates>106.666458,10.861503,0</coordinates>
          </Point>
        </Placemark>
        <Placemark>
          <name>[Q12 110] Cây xăng Thạnh Xuân</name>
          <description><![CDATA[&lt;b&gt;Trạm:&lt;/b&gt; Cây xăng Thạnh Xuân&lt;br/&gt;&lt;b&gt;Mã trạm:&lt;/b&gt; Q12 110&lt;br/&gt;&lt;b&gt;Địa chỉ:&lt;/b&gt; Cây xăng Thạnh Xuân Quốc lộ 1A&lt;br/&gt;&lt;b&gt;Khu vực:&lt;/b&gt; None, Quận 12&lt;br/&gt;&lt;b&gt;Các tuyến qua trạm:&lt;/b&gt; 103, 161, 32, 33, 59, 60-1, 61-3]]></description>
          <styleUrl>#busStopStyle</styleUrl>
          <Point>
            <coordinates>106.671882,10.861577,0</coordinates>
          </Point>
        </Placemark>
        <Placemark>
          <name>[Q12 111] Cầu Cả Bốn</name>
          <description><![CDATA[&lt;b&gt;Trạm:&lt;/b&gt; Cầu Cả Bốn&lt;br/&gt;&lt;b&gt;Mã trạm:&lt;/b&gt; Q12 111&lt;br/&gt;&lt;b&gt;Địa chỉ:&lt;/b&gt; 109 Quốc lộ 1A&lt;br/&gt;&lt;b&gt;Khu vực:&lt;/b&gt; None, Quận 12&lt;br/&gt;&lt;b&gt;Các tuyến qua trạm:&lt;/b&gt; 103, 161, 32, 33, 59, 61-3]]></description>
          <styleUrl>#busStopStyle</styleUrl>
          <Point>
            <coordinates>106.674446,10.861619,0</coordinates>
          </Point>
        </Placemark>
        <Placemark>
          <name>[Q12 112] Bến xe Ngã tư Ga</name>
          <description><![CDATA[&lt;b&gt;Trạm:&lt;/b&gt; Bến xe Ngã tư Ga&lt;br/&gt;&lt;b&gt;Mã trạm:&lt;/b&gt; Q12 112&lt;br/&gt;&lt;b&gt;Địa chỉ:&lt;/b&gt; Đối diện Bx Ngã tư Ga Quốc lộ 1A&lt;br/&gt;&lt;b&gt;Khu vực:&lt;/b&gt; None, Quận 12&lt;br/&gt;&lt;b&gt;Các tuyến qua trạm:&lt;/b&gt; 103, 161, 32, 33, 59, 60-1, 61-3]]></description>
          <styleUrl>#busStopStyle</styleUrl>
          <Point>
            <coordinates>106.678078,10.861472,0</coordinates>
          </Point>
        </Placemark>
        <Placemark>
          <name>[Q12 113] Cầu Ga nhỏ</name>
          <description><![CDATA[&lt;b&gt;Trạm:&lt;/b&gt; Cầu Ga nhỏ&lt;br/&gt;&lt;b&gt;Mã trạm:&lt;/b&gt; Q12 113&lt;br/&gt;&lt;b&gt;Địa chỉ:&lt;/b&gt; 30 Quốc lộ 1A&lt;br/&gt;&lt;b&gt;Khu vực:&lt;/b&gt; None, Quận 12&lt;br/&gt;&lt;b&gt;Các tuyến qua trạm:&lt;/b&gt; 33, 60-1, 61-3]]></description>
          <styleUrl>#busStopStyle</styleUrl>
          <Point>
            <coordinates>106.68201,10.861171,0</coordinates>
          </Point>
        </Placemark>
        <Placemark>
          <name>[Q12 114] An Phú Đông</name>
          <description><![CDATA[&lt;b&gt;Trạm:&lt;/b&gt; An Phú Đông&lt;br/&gt;&lt;b&gt;Mã trạm:&lt;/b&gt; Q12 114&lt;br/&gt;&lt;b&gt;Địa chỉ:&lt;/b&gt; 365 - 501 Quốc lộ 1A&lt;br/&gt;&lt;b&gt;Khu vực:&lt;/b&gt; None, Quận 12&lt;br/&gt;&lt;b&gt;Các tuyến qua trạm:&lt;/b&gt; 33, 60-1, 61-3]]></description>
          <styleUrl>#busStopStyle</styleUrl>
          <Point>
            <coordinates>106.686655,10.860897,0</coordinates>
          </Point>
        </Placemark>
        <Placemark>
          <name>[Q12 115] Công ty Vĩnh Hưng</name>
          <description><![CDATA[&lt;b&gt;Trạm:&lt;/b&gt; Công ty Vĩnh Hưng&lt;br/&gt;&lt;b&gt;Mã trạm:&lt;/b&gt; Q12 115&lt;br/&gt;&lt;b&gt;Địa chỉ:&lt;/b&gt; 273/1B Quốc lộ 1A&lt;br/&gt;&lt;b&gt;Khu vực:&lt;/b&gt; None, Quận 12&lt;br/&gt;&lt;b&gt;Các tuyến qua trạm:&lt;/b&gt; 33, 61-3]]></description>
          <styleUrl>#busStopStyle</styleUrl>
          <Point>
            <coordinates>106.689178,10.86075,0</coordinates>
          </Point>
        </Placemark>
        <Placemark>
          <name>[Q12 116] Đài liệt sĩ An Phú Đông</name>
          <description><![CDATA[&lt;b&gt;Trạm:&lt;/b&gt; Đài liệt sĩ An Phú Đông&lt;br/&gt;&lt;b&gt;Mã trạm:&lt;/b&gt; Q12 116&lt;br/&gt;&lt;b&gt;Địa chỉ:&lt;/b&gt; C32/16 Quốc lộ 1A&lt;br/&gt;&lt;b&gt;Khu vực:&lt;/b&gt; None, Quận 12&lt;br/&gt;&lt;b&gt;Các tuyến qua trạm:&lt;/b&gt; 33, 60-1, 61-3]]></description>
          <styleUrl>#busStopStyle</styleUrl>
          <Point>
            <coordinates>106.692331,10.860386,0</coordinates>
          </Point>
        </Placemark>
        <Placemark>
          <name>[Q12 117] ĐH Nguyễn Tất Thành</name>
          <description><![CDATA[&lt;b&gt;Trạm:&lt;/b&gt; ĐH Nguyễn Tất Thành&lt;br/&gt;&lt;b&gt;Mã trạm:&lt;/b&gt; Q12 117&lt;br/&gt;&lt;b&gt;Địa chỉ:&lt;/b&gt; 331 Quốc lộ 1A&lt;br/&gt;&lt;b&gt;Khu vực:&lt;/b&gt; None, Quận 12&lt;br/&gt;&lt;b&gt;Các tuyến qua trạm:&lt;/b&gt; 33, 61-3]]></description>
          <styleUrl>#busStopStyle</styleUrl>
          <Point>
            <coordinates>106.694514,10.860365,0</coordinates>
          </Point>
        </Placemark>
        <Placemark>
          <name>[Q12 118] Công ty đá Ngọc Ngân</name>
          <description><![CDATA[&lt;b&gt;Trạm:&lt;/b&gt; Công ty đá Ngọc Ngân&lt;br/&gt;&lt;b&gt;Mã trạm:&lt;/b&gt; Q12 118&lt;br/&gt;&lt;b&gt;Địa chỉ:&lt;/b&gt; 1126/3A  Quốc lộ 1A&lt;br/&gt;&lt;b&gt;Khu vực:&lt;/b&gt; None, Quận 12&lt;br/&gt;&lt;b&gt;Các tuyến qua trạm:&lt;/b&gt; 33, 60-1, 61-3]]></description>
          <styleUrl>#busStopStyle</styleUrl>
          <Point>
            <coordinates>106.700699,10.859675,0</coordinates>
          </Point>
        </Placemark>
        <Placemark>
          <name>[Q12 119] Tu viện Khánh An</name>
          <description><![CDATA[&lt;b&gt;Trạm:&lt;/b&gt; Tu viện Khánh An&lt;br/&gt;&lt;b&gt;Mã trạm:&lt;/b&gt; Q12 119&lt;br/&gt;&lt;b&gt;Địa chỉ:&lt;/b&gt; 107 Quốc lộ 1A&lt;br/&gt;&lt;b&gt;Khu vực:&lt;/b&gt; None, Quận 12&lt;br/&gt;&lt;b&gt;Các tuyến qua trạm:&lt;/b&gt; 33, 60-1, 61-3]]></description>
          <styleUrl>#busStopStyle</styleUrl>
          <Point>
            <coordinates>106.706048,10.859017,0</coordinates>
          </Point>
        </Placemark>
        <Placemark>
          <name>[Q12 120] Bãi đậu xe kho hàng</name>
          <description><![CDATA[&lt;b&gt;Trạm:&lt;/b&gt; Bãi đậu xe kho hàng&lt;br/&gt;&lt;b&gt;Mã trạm:&lt;/b&gt; Q12 120&lt;br/&gt;&lt;b&gt;Địa chỉ:&lt;/b&gt; 1500/3C Quốc lộ 1A&lt;br/&gt;&lt;b&gt;Khu vực:&lt;/b&gt; None, Quận 12&lt;br/&gt;&lt;b&gt;Các tuyến qua trạm:&lt;/b&gt; 33, 61-3]]></description>
          <styleUrl>#busStopStyle</styleUrl>
          <Point>
            <coordinates>106.708912,10.858616,0</coordinates>
          </Point>
        </Placemark>
        <Placemark>
          <name>[Q12 121] Aone</name>
          <description><![CDATA[&lt;b&gt;Trạm:&lt;/b&gt; Aone&lt;br/&gt;&lt;b&gt;Mã trạm:&lt;/b&gt; Q12 121&lt;br/&gt;&lt;b&gt;Địa chỉ:&lt;/b&gt; Aone Quốc lộ 1A&lt;br/&gt;&lt;b&gt;Khu vực:&lt;/b&gt; None, Quận 12&lt;br/&gt;&lt;b&gt;Các tuyến qua trạm:&lt;/b&gt; 33, 60-1, 61-3]]></description>
          <styleUrl>#busStopStyle</styleUrl>
          <Point>
            <coordinates>106.713504,10.859659,0</coordinates>
          </Point>
        </Placemark>
        <Placemark>
          <name>[QTD 158] Ngã 4 Bình Phước</name>
          <description><![CDATA[&lt;b&gt;Trạm:&lt;/b&gt; Ngã 4 Bình Phước&lt;br/&gt;&lt;b&gt;Mã trạm:&lt;/b&gt; QTD 158&lt;br/&gt;&lt;b&gt;Địa chỉ:&lt;/b&gt; 30 (33/8) Quốc lộ 1&lt;br/&gt;&lt;b&gt;Khu vực:&lt;/b&gt; Phường Hiệp Bình Phước, TP. Thủ Đức - KV3&lt;br/&gt;&lt;b&gt;Các tuyến qua trạm:&lt;/b&gt; 33, 60-1, 61-3]]></description>
          <styleUrl>#busStopStyle</styleUrl>
          <Point>
            <coordinates>106.720456,10.863258,0</coordinates>
          </Point>
        </Placemark>
        <Placemark>
          <name>[QTD 159] Ngã ba mũi tàu đường Gò Dưa </name>
          <description><![CDATA[&lt;b&gt;Trạm:&lt;/b&gt; Ngã ba mũi tàu đường Gò Dưa &lt;br/&gt;&lt;b&gt;Mã trạm:&lt;/b&gt; QTD 159&lt;br/&gt;&lt;b&gt;Địa chỉ:&lt;/b&gt; 120 Quốc lộ 1&lt;br/&gt;&lt;b&gt;Khu vực:&lt;/b&gt; Phường Tam Bình, TP. Thủ Đức - KV3&lt;br/&gt;&lt;b&gt;Các tuyến qua trạm:&lt;/b&gt; 05, 19, 29, 33, 60-1, 91]]></description>
          <styleUrl>#busStopStyle</styleUrl>
          <Point>
            <coordinates>106.727425,10.86689,0</coordinates>
          </Point>
        </Placemark>
        <Placemark>
          <name>[QTD 160] Chợ Đầu Mối</name>
          <description><![CDATA[&lt;b&gt;Trạm:&lt;/b&gt; Chợ Đầu Mối&lt;br/&gt;&lt;b&gt;Mã trạm:&lt;/b&gt; QTD 160&lt;br/&gt;&lt;b&gt;Địa chỉ:&lt;/b&gt; 160 Quốc lộ 1&lt;br/&gt;&lt;b&gt;Khu vực:&lt;/b&gt; Phường Tam Bình, TP. Thủ Đức - KV3&lt;br/&gt;&lt;b&gt;Các tuyến qua trạm:&lt;/b&gt; 05, 19, 29, 33, 60-1, 91]]></description>
          <styleUrl>#busStopStyle</styleUrl>
          <Point>
            <coordinates>106.730198,10.86831,0</coordinates>
          </Point>
        </Placemark>
        <Placemark>
          <name>[QTD 161] Chợ Tam Bình</name>
          <description><![CDATA[&lt;b&gt;Trạm:&lt;/b&gt; Chợ Tam Bình&lt;br/&gt;&lt;b&gt;Mã trạm:&lt;/b&gt; QTD 161&lt;br/&gt;&lt;b&gt;Địa chỉ:&lt;/b&gt; Chợ Tam Bình Quốc lộ 1&lt;br/&gt;&lt;b&gt;Khu vực:&lt;/b&gt; None, TP. Thủ Đức - KV3&lt;br/&gt;&lt;b&gt;Các tuyến qua trạm:&lt;/b&gt; 05, 19, 33, 60-1]]></description>
          <styleUrl>#busStopStyle</styleUrl>
          <Point>
            <coordinates>106.73538,10.87086,0</coordinates>
          </Point>
        </Placemark>
        <Placemark>
          <name>[QTD 162] Hồ Bơi</name>
          <description><![CDATA[&lt;b&gt;Trạm:&lt;/b&gt; Hồ Bơi&lt;br/&gt;&lt;b&gt;Mã trạm:&lt;/b&gt; QTD 162&lt;br/&gt;&lt;b&gt;Địa chỉ:&lt;/b&gt; 376 Quốc lộ 1&lt;br/&gt;&lt;b&gt;Khu vực:&lt;/b&gt; Phường Tam Bình, TP. Thủ Đức - KV3&lt;br/&gt;&lt;b&gt;Các tuyến qua trạm:&lt;/b&gt; 05, 19, 33, 60-1]]></description>
          <styleUrl>#busStopStyle</styleUrl>
          <Point>
            <coordinates>106.739666,10.871766,0</coordinates>
          </Point>
        </Placemark>
        <Placemark>
          <name>[QTD 163] Chợ Tam Hải</name>
          <description><![CDATA[&lt;b&gt;Trạm:&lt;/b&gt; Chợ Tam Hải&lt;br/&gt;&lt;b&gt;Mã trạm:&lt;/b&gt; QTD 163&lt;br/&gt;&lt;b&gt;Địa chỉ:&lt;/b&gt; 450 Quốc lộ 1&lt;br/&gt;&lt;b&gt;Khu vực:&lt;/b&gt; Phường Tam Bình, TP. Thủ Đức - KV3&lt;br/&gt;&lt;b&gt;Các tuyến qua trạm:&lt;/b&gt; 05, 19, 33, 60-1]]></description>
          <styleUrl>#busStopStyle</styleUrl>
          <Point>
            <coordinates>106.744081,10.872935,0</coordinates>
          </Point>
        </Placemark>
        <Placemark>
          <name>[QTD 164] Cầu vượt Sóng Thần</name>
          <description><![CDATA[&lt;b&gt;Trạm:&lt;/b&gt; Cầu vượt Sóng Thần&lt;br/&gt;&lt;b&gt;Mã trạm:&lt;/b&gt; QTD 164&lt;br/&gt;&lt;b&gt;Địa chỉ:&lt;/b&gt; Đối diện 275-Mitsubishi  Quốc lộ 1&lt;br/&gt;&lt;b&gt;Khu vực:&lt;/b&gt; None, TP. Thủ Đức - KV3&lt;br/&gt;&lt;b&gt;Các tuyến qua trạm:&lt;/b&gt; 05, 19, 33, 60-1]]></description>
          <styleUrl>#busStopStyle</styleUrl>
          <Point>
            <coordinates>106.747128,10.873905,0</coordinates>
          </Point>
        </Placemark>
        <Placemark>
          <name>[QTD 165] Bến xe Lam Hồng</name>
          <description><![CDATA[&lt;b&gt;Trạm:&lt;/b&gt; Bến xe Lam Hồng&lt;br/&gt;&lt;b&gt;Mã trạm:&lt;/b&gt; QTD 165&lt;br/&gt;&lt;b&gt;Địa chỉ:&lt;/b&gt; 6/8 Quốc lộ 1&lt;br/&gt;&lt;b&gt;Khu vực:&lt;/b&gt; None, TP. Thủ Đức - KV3&lt;br/&gt;&lt;b&gt;Các tuyến qua trạm:&lt;/b&gt; 05, 19, 33, 60-1, 61-9]]></description>
          <styleUrl>#busStopStyle</styleUrl>
          <Point>
            <coordinates>106.75562,10.875706,0</coordinates>
          </Point>
        </Placemark>
        <Placemark>
          <name>[QTD 166] Giày da Thái Bình</name>
          <description><![CDATA[&lt;b&gt;Trạm:&lt;/b&gt; Giày da Thái Bình&lt;br/&gt;&lt;b&gt;Mã trạm:&lt;/b&gt; QTD 166&lt;br/&gt;&lt;b&gt;Địa chỉ:&lt;/b&gt; Đối diện 10/19 (20/8) Quốc lộ 1&lt;br/&gt;&lt;b&gt;Khu vực:&lt;/b&gt; None, TP. Thủ Đức - KV3&lt;br/&gt;&lt;b&gt;Các tuyến qua trạm:&lt;/b&gt; 05, 19, 33, 60-1, 61-9]]></description>
          <styleUrl>#busStopStyle</styleUrl>
          <Point>
            <coordinates>106.757466,10.875353,0</coordinates>
          </Point>
        </Placemark>
        <Placemark>
          <name>[QTD 167] Linh Xuân</name>
          <description><![CDATA[&lt;b&gt;Trạm:&lt;/b&gt; Linh Xuân&lt;br/&gt;&lt;b&gt;Mã trạm:&lt;/b&gt; QTD 167&lt;br/&gt;&lt;b&gt;Địa chỉ:&lt;/b&gt; 54/8 Quốc lộ 1&lt;br/&gt;&lt;b&gt;Khu vực:&lt;/b&gt; None, TP. Thủ Đức - KV3&lt;br/&gt;&lt;b&gt;Các tuyến qua trạm:&lt;/b&gt; 05, 19, 33, 60-1, 61-9]]></description>
          <styleUrl>#busStopStyle</styleUrl>
          <Point>
            <coordinates>106.76091,10.874474,0</coordinates>
          </Point>
        </Placemark>
        <Placemark>
          <name>[QTD 168] Cầu vượt Linh Xuân</name>
          <description><![CDATA[&lt;b&gt;Trạm:&lt;/b&gt; Cầu vượt Linh Xuân&lt;br/&gt;&lt;b&gt;Mã trạm:&lt;/b&gt; QTD 168&lt;br/&gt;&lt;b&gt;Địa chỉ:&lt;/b&gt; Kho 856 Quốc lộ 1&lt;br/&gt;&lt;b&gt;Khu vực:&lt;/b&gt; Phường Linh Trung, TP. Thủ Đức - KV3&lt;br/&gt;&lt;b&gt;Các tuyến qua trạm:&lt;/b&gt; 05, 19, 33, 60-1, 61-9]]></description>
          <styleUrl>#busStopStyle</styleUrl>
          <Point>
            <coordinates>106.762476,10.873973,0</coordinates>
          </Point>
        </Placemark>
        <Placemark>
          <name>[QTD 169] KCX Linh Trung 1</name>
          <description><![CDATA[&lt;b&gt;Trạm:&lt;/b&gt; KCX Linh Trung 1&lt;br/&gt;&lt;b&gt;Mã trạm:&lt;/b&gt; QTD 169&lt;br/&gt;&lt;b&gt;Địa chỉ:&lt;/b&gt; Ngân hàng Vietcombank Quốc lộ 1&lt;br/&gt;&lt;b&gt;Khu vực:&lt;/b&gt; Phường Linh Trung, TP. Thủ Đức - KV3&lt;br/&gt;&lt;b&gt;Các tuyến qua trạm:&lt;/b&gt; 167D, 167V, 19, 33, 50, 53, 60-1, 61-9, 93]]></description>
          <styleUrl>#busStopStyle</styleUrl>
          <Point>
            <coordinates>106.769643,10.871597,0</coordinates>
          </Point>
        </Placemark>
        <Placemark>
          <name>[QTD 170] Nghĩa trang TP</name>
          <description><![CDATA[&lt;b&gt;Trạm:&lt;/b&gt; Nghĩa trang TP&lt;br/&gt;&lt;b&gt;Mã trạm:&lt;/b&gt; QTD 170&lt;br/&gt;&lt;b&gt;Địa chỉ:&lt;/b&gt; Cổng nghĩa trang thành phố Quốc lộ 1&lt;br/&gt;&lt;b&gt;Khu vực:&lt;/b&gt; Phường Linh Trung, TP. Thủ Đức - KV3&lt;br/&gt;&lt;b&gt;Các tuyến qua trạm:&lt;/b&gt; 167V, 19, 33, 50, 53, 60-1, 61-9, 93]]></description>
          <styleUrl>#busStopStyle</styleUrl>
          <Point>
            <coordinates>106.773039,10.870507,0</coordinates>
          </Point>
        </Placemark>
        <Placemark>
          <name>[QTD 171] ĐH Kinh tế Luật</name>
          <description><![CDATA[&lt;b&gt;Trạm:&lt;/b&gt; ĐH Kinh tế Luật&lt;br/&gt;&lt;b&gt;Mã trạm:&lt;/b&gt; QTD 171&lt;br/&gt;&lt;b&gt;Địa chỉ:&lt;/b&gt; Đối diện 665-CoopXtra Quốc lộ 1&lt;br/&gt;&lt;b&gt;Khu vực:&lt;/b&gt; Phường Linh Trung, TP. Thủ Đức - KV3&lt;br/&gt;&lt;b&gt;Các tuyến qua trạm:&lt;/b&gt; 167V, 19, 33, 50, 53, 60-1, 61-9, 93]]></description>
          <styleUrl>#busStopStyle</styleUrl>
          <Point>
            <coordinates>106.776724,10.869306,0</coordinates>
          </Point>
        </Placemark>
        <Placemark>
          <name>[QTD 172] Công ty điện tử Samsung</name>
          <description><![CDATA[&lt;b&gt;Trạm:&lt;/b&gt; Công ty điện tử Samsung&lt;br/&gt;&lt;b&gt;Mã trạm:&lt;/b&gt; QTD 172&lt;br/&gt;&lt;b&gt;Địa chỉ:&lt;/b&gt; Công ty điện tử Samsung Quốc lộ 1&lt;br/&gt;&lt;b&gt;Khu vực:&lt;/b&gt; Phường Linh Trung, TP. Thủ Đức - KV3&lt;br/&gt;&lt;b&gt;Các tuyến qua trạm:&lt;/b&gt; 167V, 19, 33, 50, 53, 60-1, 61-9, 93]]></description>
          <styleUrl>#busStopStyle</styleUrl>
          <Point>
            <coordinates>106.778656,10.868691,0</coordinates>
          </Point>
        </Placemark>
        <Placemark>
          <name>[QTD 173] ĐH Nông Lâm</name>
          <description><![CDATA[&lt;b&gt;Trạm:&lt;/b&gt; ĐH Nông Lâm&lt;br/&gt;&lt;b&gt;Mã trạm:&lt;/b&gt; QTD 173&lt;br/&gt;&lt;b&gt;Địa chỉ:&lt;/b&gt; Cột điện SI 2 Quốc lộ 1&lt;br/&gt;&lt;b&gt;Khu vực:&lt;/b&gt; Phường Linh Trung, TP. Thủ Đức - KV3&lt;br/&gt;&lt;b&gt;Các tuyến qua trạm:&lt;/b&gt; 167V, 19, 33, 50, 53, 60-1, 60-2, 61-9, 93]]></description>
          <styleUrl>#busStopStyle</styleUrl>
          <Point>
            <coordinates>106.787277,10.867122,0</coordinates>
          </Point>
        </Placemark>
        <Placemark>
          <name>[QTD 174] ĐH Nông Lâm</name>
          <description><![CDATA[&lt;b&gt;Trạm:&lt;/b&gt; ĐH Nông Lâm&lt;br/&gt;&lt;b&gt;Mã trạm:&lt;/b&gt; QTD 174&lt;br/&gt;&lt;b&gt;Địa chỉ:&lt;/b&gt; 1026/2 (1030) Quốc lộ 1&lt;br/&gt;&lt;b&gt;Khu vực:&lt;/b&gt; Phường Linh Trung, TP. Thủ Đức - KV3&lt;br/&gt;&lt;b&gt;Các tuyến qua trạm:&lt;/b&gt; 06, 164D, 164V, 165, 170, 19, 33, 50, 52, 53, 60-1, 60-2, 61-9, 93]]></description>
          <styleUrl>#busStopStyle</styleUrl>
          <Point>
            <coordinates>106.790283,10.866912,0</coordinates>
          </Point>
        </Placemark>
        <Placemark>
          <name>[Q9 221] Cầu Vượt Trạm 2</name>
          <description><![CDATA[&lt;b&gt;Trạm:&lt;/b&gt; Cầu Vượt Trạm 2&lt;br/&gt;&lt;b&gt;Mã trạm:&lt;/b&gt; Q9 221&lt;br/&gt;&lt;b&gt;Địa chỉ:&lt;/b&gt; Tiệm vàng Kim Lợi Quốc lộ 1&lt;br/&gt;&lt;b&gt;Khu vực:&lt;/b&gt; None, TP. Thủ Đức - KV2&lt;br/&gt;&lt;b&gt;Các tuyến qua trạm:&lt;/b&gt; 08, 10, 150, 164D, 170, 19, 33, 53, 60-1, 60-2, 60-3, 61-9, 67, 76, 93]]></description>
          <styleUrl>#busStopStyle</styleUrl>
          <Point>
            <coordinates>106.797538,10.863595,0</coordinates>
          </Point>
        </Placemark>
        <Placemark>
          <name>[Q9 223] Suối Tiên</name>
          <description><![CDATA[&lt;b&gt;Trạm:&lt;/b&gt; Suối Tiên&lt;br/&gt;&lt;b&gt;Mã trạm:&lt;/b&gt; Q9 223&lt;br/&gt;&lt;b&gt;Địa chỉ:&lt;/b&gt; Suối Tiên Quốc lộ 1&lt;br/&gt;&lt;b&gt;Khu vực:&lt;/b&gt; Phường Tân Phú, TP. Thủ Đức - KV2&lt;br/&gt;&lt;b&gt;Các tuyến qua trạm:&lt;/b&gt; 08, 10, 150, 19, 33, 53, 60-1, 60-2, 60-3, 60-7, 61-9, 67, 76, 93, 99]]></description>
          <styleUrl>#busStopStyle</styleUrl>
          <Point>
            <coordinates>106.802081,10.866113,0</coordinates>
          </Point>
        </Placemark>
        <Placemark>
          <name>[Q9 225] Nghĩa trang liệt sĩ TP.HCM</name>
          <description><![CDATA[&lt;b&gt;Trạm:&lt;/b&gt; Nghĩa trang liệt sĩ TP.HCM&lt;br/&gt;&lt;b&gt;Mã trạm:&lt;/b&gt; Q9 225&lt;br/&gt;&lt;b&gt;Địa chỉ:&lt;/b&gt; Nghĩa trang liệt sĩ Thành phố HCM Quốc lộ 1&lt;br/&gt;&lt;b&gt;Khu vực:&lt;/b&gt; Phường Tân Phú, TP. Thủ Đức - KV2&lt;br/&gt;&lt;b&gt;Các tuyến qua trạm:&lt;/b&gt; 08, 10, 150, 164V, 170, 19, 33, 53, 56, 60-1, 60-2, 60-3, 60-7, 61-77, 61-9, 67, 93, 99]]></description>
          <styleUrl>#busStopStyle</styleUrl>
          <Point>
            <coordinates>106.809458,10.873515,0</coordinates>
          </Point>
        </Placemark>
        <Placemark>
          <name>[BX92] Bến xe buýt Khu A - Đại học Quốc gia TP.HCM</name>
          <description><![CDATA[&lt;b&gt;Trạm:&lt;/b&gt; Bến xe buýt Khu A - Đại học Quốc gia TP.HCM&lt;br/&gt;&lt;b&gt;Mã trạm:&lt;/b&gt; BX92&lt;br/&gt;&lt;b&gt;Địa chỉ:&lt;/b&gt; Trạm nạp CNG ĐH Quốc gia Nguyễn Hiền&lt;br/&gt;&lt;b&gt;Khu vực:&lt;/b&gt; None, TP. Thủ Đức - KV3&lt;br/&gt;&lt;b&gt;Các tuyến qua trạm:&lt;/b&gt; 08, 10, 170, 19, 33, 50, 52]]></description>
          <styleUrl>#busStopStyle</styleUrl>
          <Point>
            <coordinates>106.807659,10.874479,0</coordinates>
          </Point>
        </Placemark>
      </Folder>
    </Folder>
    <Folder>
      <name>Lượt về: Bến xe buýt Khu A - Đại học Quốc gia TP.HCM → Bến xe An Sương (25.04 km)</name>
      <Placemark>
        <name>B 33 - Đường đi Lượt về</name>
        <description><![CDATA[&lt;b&gt;Tuyến:&lt;/b&gt; B 33 - Bến xe An Sương - Suối Tiên - Đại học Quốc gia&lt;br/&gt;&lt;b&gt;Lượt:&lt;/b&gt; Lượt về&lt;br/&gt;&lt;b&gt;Cự ly:&lt;/b&gt; 25.04 km&lt;br/&gt;&lt;b&gt;Thời gian hành trình:&lt;/b&gt; 60 phút&lt;br/&gt;&lt;b&gt;Thời gian hoạt động:&lt;/b&gt; 4:30 - 22:00]]></description>
        <styleUrl>#routeLineStyle</styleUrl>
        <LineString>
          <tessellate>1</tessellate>
          <coordinates>106.80765533,10.87447929,0 106.80765533,10.87447929,0 106.80765533,10.87447929,0 106.80765533,10.87447929,0 106.80765533,10.87447929,0 106.80789948,10.87483692,0 106.80844879,10.87446308,0 106.80804443,10.87398338,0 106.80780792,10.87377262,0 106.8081131,10.87339401,0 106.80775452,10.87288761,0 106.80738068,10.87238789,0 106.80702209,10.87189484,0 106.80665588,10.87140179,0 106.80665588,10.87140179,0 106.80665588,10.87140179,0 106.80665588,10.87140179,0 106.80665588,10.87140179,0 106.80665588,10.87140179,0 106.80622864,10.87080669,0 106.8057785,10.87022209,0 106.80524445,10.86966419,0 106.80472565,10.8691721,0 106.80472565,10.8691721,0 106.80432129,10.86877346,0 106.80405426,10.86840439,0 106.80393982,10.867836,0 106.80269623,10.86691952,0 106.8019104,10.86648464,0 106.80111694,10.86604977,0 106.80111694,10.86604977,0 106.80111694,10.86604977,0 106.80111694,10.86604977,0 106.80111694,10.86604977,0 106.80115509,10.86597061,0 106.80004883,10.86532593,0 106.7989502,10.86468029,0 106.79875946,10.86464977,0 106.79828644,10.86450958,0 106.79799652,10.86443996,0 106.7976532,10.86439991,0 106.79727173,10.86441994,0 106.79627228,10.8645401,0 106.79530334,10.86468029,0 106.7949295,10.86474991,0 106.79467773,10.86483002,0 106.79414368,10.8651104,0 106.79388428,10.8652916,0 106.79393768,10.86533546,0 106.79393768,10.86533546,0 106.79393768,10.86533546,0 106.79393768,10.86533546,0 106.79393768,10.86533546,0 106.79393768,10.86533546,0 106.79393768,10.86533546,0 106.79393768,10.86533546,0 106.79393768,10.86533546,0 106.79389954,10.86530209,0 106.79307556,10.86581802,0 106.79216003,10.86644459,0 106.79163361,10.86670303,0 106.79106903,10.86689758,0 106.79109955,10.86696053,0 106.79109955,10.86696053,0 106.79109955,10.86696053,0 106.79109955,10.86696053,0 106.79109955,10.86696053,0 106.79109955,10.86696053,0 106.79109955,10.86696053,0 106.79109955,10.86696053,0 106.79107666,10.8669138,0 106.79008484,10.86714554,0 106.78874207,10.86728287,0 106.78726196,10.8673296,0 106.78726196,10.86740398,0 106.78726196,10.86740398,0 106.78726196,10.86740398,0 106.78726196,10.86740398,0 106.78726196,10.86740398,0 106.78726196,10.86740398,0 106.78726196,10.86740398,0 106.78726959,10.86731911,0 106.78652954,10.86734295,0 106.78578186,10.86736679,0 106.78503418,10.86739349,0 106.7842865,10.8674202,0 106.78352356,10.86748028,0 106.78308105,10.8675499,0 106.78216553,10.86777306,0 106.78220367,10.86786747,0 106.78220367,10.86786747,0 106.78220367,10.86786747,0 106.78220367,10.86786747,0 106.78220367,10.86786747,0 106.78220367,10.86786747,0 106.78218842,10.86777306,0 106.78131866,10.86804962,0 106.78044891,10.86832619,0 106.77957916,10.86860371,0 106.77870941,10.86888027,0 106.77787018,10.86915016,0 106.77722168,10.86934757,0 106.77725983,10.86942673,0 106.77725983,10.86942673,0 106.77725983,10.86942673,0 106.77722931,10.8693428,0 106.77604675,10.86973,0 106.7748642,10.87011719,0 106.77493286,10.87025356,0 106.77493286,10.87025356,0 106.77493286,10.87025356,0 106.77493286,10.87025356,0 106.77489471,10.87011719,0 106.77282715,10.87081718,0 106.7716217,10.87120724,0 106.77166748,10.8713131,0 106.77166748,10.8713131,0 106.77165985,10.87125969,0 106.7707901,10.87153244,0 106.76994324,10.87181568,0 106.76908875,10.87209892,0 106.76823425,10.87238216,0 106.76824951,10.87241936,0 106.76824951,10.87241936,0 106.76821899,10.87230873,0 106.76711273,10.87266922,0 106.7660141,10.87303066,0 106.76506042,10.87337971,0 106.76233673,10.87427998,0 106.76203918,10.87438011,0 106.76209259,10.87447357,0 106.76209259,10.87447357,0 106.76209259,10.87447357,0 106.76209259,10.87447357,0 106.76206207,10.87438965,0 106.76121521,10.87464714,0 106.76037598,10.87490559,0 106.75952911,10.87513733,0 106.75868988,10.87536907,0 106.75868988,10.87545395,0 106.75868988,10.87545395,0 106.75868988,10.87545395,0 106.75868988,10.87545395,0 106.75865936,10.87536907,0 106.75727081,10.8756485,0 106.75730133,10.87573814,0 106.75730133,10.87573814,0 106.75727844,10.8756485,0 106.75562286,10.87598038,0 106.75563049,10.87604904,0 106.75563049,10.87604904,0 106.75563049,10.87604904,0 106.75563049,10.87604904,0 106.75561523,10.87592793,0 106.75421906,10.87615967,0 106.75382996,10.87617016,0 106.75346375,10.87615013,0 106.75312805,10.87609959,0 106.75231934,10.87590027,0 106.75132751,10.8755703,0 106.74894714,10.87480068,0 106.74656677,10.87403107,0 106.74652863,10.87411499,0 106.74652863,10.87411499,0 106.74652863,10.87411499,0 106.74652863,10.87411499,0 106.74652863,10.87411499,0 106.74655151,10.87403107,0 106.74543762,10.87366772,0 106.7443161,10.87330437,0 106.74429321,10.87337303,0 106.74429321,10.87337303,0 106.74429321,10.87337303,0 106.74432373,10.87330437,0 106.74311066,10.87288284,0 106.74188995,10.87254047,0 106.74085999,10.87227726,0 106.73992157,10.87209225,0 106.73991394,10.87217712,0 106.73991394,10.87217712,0 106.73991394,10.87217712,0 106.73993683,10.87209797,0 106.73836517,10.87190247,0 106.73750305,10.87177658,0 106.73639679,10.87151814,0 106.73532104,10.8711338,0 106.7345047,10.87074375,0 106.73447418,10.87082767,0 106.73447418,10.87082767,0 106.73447418,10.87082767,0 106.73447418,10.87082767,0 106.73451996,10.87075996,0 106.733078,10.87003994,0 106.73206329,10.86951065,0 106.72918701,10.86807823,0 106.72915649,10.86812019,0 106.72915649,10.86812019,0 106.72915649,10.86812019,0 106.72653198,10.86666965,0 106.72357941,10.86522007,0 106.71989441,10.863451,0 106.71989441,10.863451,0 106.71989441,10.863451,0 106.71694183,10.86185074,0 106.71309662,10.85997009,0 106.71309662,10.85997009,0 106.71309662,10.85997009,0 106.7131424,10.85988045,0 106.71234131,10.85947037,0 106.71154022,10.85908985,0 106.71115875,10.85896969,0 106.71031189,10.85883713,0 106.70943451,10.85883713,0 106.7077179,10.85905361,0 106.70772552,10.85914803,0 106.70772552,10.85914803,0 106.70772552,10.85914803,0 106.70772552,10.85914803,0 106.70770264,10.85905361,0 106.70631409,10.85923004,0 106.70493317,10.85940647,0 106.70494843,10.85949612,0 106.70494843,10.85949612,0 106.70494843,10.85949612,0 106.70494843,10.85949612,0 106.70491791,10.85941219,0 106.7029953,10.85965443,0 106.70107269,10.85989666,0 106.70108795,10.86000729,0 106.70108795,10.86000729,0 106.70108795,10.86000729,0 106.70108795,10.86000729,0 106.70105743,10.85989094,0 106.69965363,10.86005974,0 106.69824219,10.86022854,0 106.69683838,10.86039639,0 106.69543457,10.86056519,0 106.69544983,10.86065006,0 106.69544983,10.86065006,0 106.69544983,10.86065006,0 106.69544983,10.86065006,0 106.6954422,10.86056042,0 106.69384003,10.86068439,0 106.69223785,10.86080837,0 106.69223785,10.86087608,0 106.69223785,10.86087608,0 106.69223785,10.86079693,0 106.69082642,10.86088181,0 106.68941498,10.86096573,0 106.68941498,10.86104012,0 106.68941498,10.86104012,0 106.68941498,10.86104012,0 106.68941498,10.86104012,0 106.68942261,10.86098194,0 106.68836212,10.86104774,0 106.68730164,10.86111355,0 106.68623352,10.86117935,0 106.68517303,10.86124516,0 106.68517303,10.86132431,0 106.68517303,10.86132431,0 106.68517303,10.86132431,0 106.68517303,10.86132431,0 106.68517303,10.86132431,0 106.68515015,10.86124039,0 106.68373108,10.86133003,0 106.68230438,10.86141872,0 106.68231964,10.86150265,0 106.68231964,10.86150265,0 106.68231964,10.86150265,0 106.68231964,10.86150265,0 106.68231964,10.86150265,0 106.68231201,10.86140347,0 106.6802063,10.86156654,0 106.67933655,10.8616457,0 106.67935181,10.86172485,0 106.67935181,10.86172485,0 106.67936707,10.86163998,0 106.67700195,10.8618145,0 106.67456055,10.86190891,0 106.67456055,10.86196709,0 106.67456055,10.86196709,0 106.67456055,10.86196709,0 106.67456055,10.86196709,0 106.67456055,10.86186695,0 106.67390442,10.86185837,0 106.67324829,10.86184883,0 106.67259216,10.86183929,0 106.67193604,10.86182976,0 106.67193604,10.86190414,0 106.67193604,10.86190414,0 106.67193604,10.86190414,0 106.67193604,10.86190414,0 106.67193604,10.86190414,0 106.67193604,10.86190414,0 106.67193604,10.86190414,0 106.67194366,10.86180878,0 106.66970062,10.86178017,0 106.66745758,10.8617506,0 106.66745758,10.86187744,0 106.66745758,10.86187744,0 106.66745758,10.86187744,0 106.66745758,10.86187744,0 106.66745758,10.86187744,0 106.66745758,10.86187744,0 106.66745758,10.86187744,0 106.66746521,10.86177731,0 106.66594696,10.86176395,0 106.66442871,10.8617506,0 106.66291046,10.86172199,0 106.66139221,10.86169338,0 106.66139221,10.86181927,0 106.66139221,10.86181927,0 106.66139221,10.86181927,0 106.66139221,10.86181927,0 106.66139221,10.86181927,0 106.66139221,10.86181927,0 106.66139221,10.86181927,0 106.66139221,10.86181927,0 106.66139221,10.86169338,0 106.66033936,10.86173534,0 106.65927887,10.86177731,0 106.65822601,10.86181927,0 106.65716553,10.86186123,0 106.65718079,10.86198807,0 106.65718079,10.86198807,0 106.65718079,10.86198807,0 106.65718079,10.86198807,0 106.65718079,10.86198807,0 106.65718079,10.86198807,0 106.65718079,10.86198807,0 106.65718842,10.86187744,0 106.65625,10.8619194,0 106.65530396,10.86196232,0 106.65436554,10.86200428,0 106.65341949,10.86204624,0 106.65342712,10.86211395,0 106.65342712,10.86211395,0 106.65342712,10.86211395,0 106.65342712,10.86211395,0 106.65342712,10.86211395,0 106.65342712,10.86204624,0 106.65267944,10.86205959,0 106.65244293,10.86209965,0 106.65189362,10.86211967,0 106.65074921,10.86218834,0 106.65075684,10.86227322,0 106.65075684,10.86227322,0 106.65075684,10.86227322,0 106.65075684,10.86227322,0 106.65075684,10.86217976,0 106.65035248,10.86217976,0 106.64987183,10.86213017,0 106.64955902,10.86207008,0 106.64903259,10.86190033,0 106.64859009,10.86170006,0 106.64853668,10.86176682,0 106.64853668,10.86176682,0 106.64853668,10.86176682,0 106.64853668,10.86176682,0 106.64859772,10.8616724,0 106.64789581,10.86130333,0 106.64719391,10.86093426,0 106.64648438,10.8605423,0 106.64576721,10.86014938,0 106.64568329,10.86030197,0 106.64568329,10.86030197,0 106.64568329,10.86030197,0 106.64568329,10.86030197,0 106.64568329,10.86030197,0 106.64568329,10.86030197,0 106.64576721,10.86015511,0 106.64382935,10.85907459,0 106.64100647,10.8575201,0 106.64091492,10.85766792,0 106.64091492,10.85766792,0 106.64091492,10.85766792,0 106.64091492,10.85766792,0 106.64091492,10.85766792,0 106.64091492,10.85766792,0 106.64091492,10.85766792,0 106.64099121,10.85755253,0 106.63964081,10.85681152,0 106.63829803,10.85607147,0 106.63816833,10.85625553,0 106.63816833,10.85625553,0 106.63816833,10.85625553,0 106.63816833,10.85625553,0 106.63816833,10.85625553,0 106.63831329,10.8560667,0 106.63687134,10.8552866,0 106.63542938,10.85450649,0 106.63398743,10.85371399,0 106.63254547,10.85292149,0 106.63246918,10.85304832,0 106.63246918,10.85304832,0 106.63246918,10.85304832,0 106.63246918,10.85304832,0 106.63253784,10.85294724,0 106.63098145,10.8521204,0 106.63093567,10.85224247,0 106.63093567,10.85224247,0 106.63093567,10.85224247,0 106.63093567,10.85224247,0 106.63101196,10.85211468,0 106.62950134,10.85138035,0 106.62734985,10.85037041,0 106.62438202,10.84899044,0 106.6243515,10.8490696,0 106.6243515,10.8490696,0 106.6243515,10.8490696,0 106.62437439,10.84899044,0 106.62271881,10.84822178,0 106.62108612,10.84745216,0 106.6210556,10.84749985,0 106.6210556,10.84749985,0 106.6210556,10.84749985,0 106.62107849,10.84745216,0 106.61991119,10.84677792,0 106.61933899,10.8463459,0 106.61880493,10.84588718,0 106.61875916,10.84593487,0 106.61875916,10.84593487,0 106.61875916,10.84593487,0 106.61875916,10.84593487,0 106.61880493,10.84589863,0 106.61756897,10.84479713,0 106.61722565,10.84459114,0 106.61611176,10.84359074,0 106.61608124,10.84362316,0 106.61608124,10.84362316,0 106.61608124,10.84362316,0 106.61608124,10.84362316,0 106.61608124,10.84362316,0 106.61612701,10.8435955,0 106.61579895,10.84337997,0 106.61538696,10.84325886,0 106.61505127,10.84341621,0 106.61415863,10.84463406,0 106.61347198,10.84577656,0 106.61351776,10.84580326,0 106.61351776,10.84580326,0 106.61351776,10.84580326,0 106.61351776,10.84580326,0 106.61343384,10.8457613,0 106.61292267,10.84655094,0 106.61248016,10.8472681,0 106.61235809,10.84719372,0 106.61273193,10.84657288,0 106.61313629,10.84595203,0 106.61356354,10.84520817,0 106.61352539,10.84518719,0 106.61352539,10.84518719,0 106.61352539,10.84518719,0 106.61352539,10.84518719,0 106.61352539,10.84518719,0 106.61352539,10.84518719,0 106.61358643,10.84522343,0 106.61406708,10.84443855,0 106.61330414,10.84384346,0 106.6133728,10.8437376,0</coordinates>
        </LineString>
      </Placemark>
      <Folder>
        <name>Trạm dừng (52 trạm)</name>
        <Placemark>
          <name>[BX92] Bến xe buýt Khu A - Đại học Quốc gia TP.HCM</name>
          <description><![CDATA[&lt;b&gt;Trạm:&lt;/b&gt; Bến xe buýt Khu A - Đại học Quốc gia TP.HCM&lt;br/&gt;&lt;b&gt;Mã trạm:&lt;/b&gt; BX92&lt;br/&gt;&lt;b&gt;Địa chỉ:&lt;/b&gt; Trạm nạp CNG ĐH Quốc gia Nguyễn Hiền&lt;br/&gt;&lt;b&gt;Khu vực:&lt;/b&gt; None, TP. Thủ Đức - KV3&lt;br/&gt;&lt;b&gt;Các tuyến qua trạm:&lt;/b&gt; 08, 10, 170, 19, 33, 50, 52]]></description>
          <styleUrl>#busStopStyle</styleUrl>
          <Point>
            <coordinates>106.807659,10.874479,0</coordinates>
          </Point>
        </Placemark>
        <Placemark>
          <name>[QTD 175] Đại học An Ninh Nhân Dân</name>
          <description><![CDATA[&lt;b&gt;Trạm:&lt;/b&gt; Đại học An Ninh Nhân Dân&lt;br/&gt;&lt;b&gt;Mã trạm:&lt;/b&gt; QTD 175&lt;br/&gt;&lt;b&gt;Địa chỉ:&lt;/b&gt; Nhà máy Tiến Thành Quốc lộ 1&lt;br/&gt;&lt;b&gt;Khu vực:&lt;/b&gt; None, TP. Thủ Đức - KV3&lt;br/&gt;&lt;b&gt;Các tuyến qua trạm:&lt;/b&gt; 08, 10, 150, 164V, 166, 170, 19, 33, 53, 60-1, 60-2, 60-3, 60-7, 61-9, 67, 76, 93, 99]]></description>
          <styleUrl>#busStopStyle</styleUrl>
          <Point>
            <coordinates>106.806657,10.871402,0</coordinates>
          </Point>
        </Placemark>
        <Placemark>
          <name>[QTD 176] Trường ĐH công nghệ thông tin</name>
          <description><![CDATA[&lt;b&gt;Trạm:&lt;/b&gt; Trường ĐH công nghệ thông tin&lt;br/&gt;&lt;b&gt;Mã trạm:&lt;/b&gt; QTD 176&lt;br/&gt;&lt;b&gt;Địa chỉ:&lt;/b&gt; Trường ĐH Công Nghệ thông tin Quốc lộ 1&lt;br/&gt;&lt;b&gt;Khu vực:&lt;/b&gt; None, TP. Thủ Đức - KV3&lt;br/&gt;&lt;b&gt;Các tuyến qua trạm:&lt;/b&gt; 08, 10, 150, 164V, 166, 170, 19, 33, 53, 60-2, 60-3, 60-7, 61-9, 67, 76, 93, 99]]></description>
          <styleUrl>#busStopStyle</styleUrl>
          <Point>
            <coordinates>106.804727,10.869172,0</coordinates>
          </Point>
        </Placemark>
        <Placemark>
          <name>[QTD 177] Khu DL Suối Tiên</name>
          <description><![CDATA[&lt;b&gt;Trạm:&lt;/b&gt; Khu DL Suối Tiên&lt;br/&gt;&lt;b&gt;Mã trạm:&lt;/b&gt; QTD 177&lt;br/&gt;&lt;b&gt;Địa chỉ:&lt;/b&gt; 9/29 Quốc lộ 1&lt;br/&gt;&lt;b&gt;Khu vực:&lt;/b&gt; Phường Linh Trung, TP. Thủ Đức - KV3&lt;br/&gt;&lt;b&gt;Các tuyến qua trạm:&lt;/b&gt; 08, 10, 150, 19, 33, 53, 60-1, 60-2, 60-3, 60-7, 61-9, 67, 76, 93, 99]]></description>
          <styleUrl>#busStopStyle</styleUrl>
          <Point>
            <coordinates>106.801116,10.86605,0</coordinates>
          </Point>
        </Placemark>
        <Placemark>
          <name>[QTD 179] Thảo Nguyên</name>
          <description><![CDATA[&lt;b&gt;Trạm:&lt;/b&gt; Thảo Nguyên&lt;br/&gt;&lt;b&gt;Mã trạm:&lt;/b&gt; QTD 179&lt;br/&gt;&lt;b&gt;Địa chỉ:&lt;/b&gt; 35B Quốc lộ 1&lt;br/&gt;&lt;b&gt;Khu vực:&lt;/b&gt; Phường Linh Trung, TP. Thủ Đức - KV3&lt;br/&gt;&lt;b&gt;Các tuyến qua trạm:&lt;/b&gt; 164V, 19, 33, 50, 52, 53, 60-1, 60-2, 61-9, 93]]></description>
          <styleUrl>#busStopStyle</styleUrl>
          <Point>
            <coordinates>106.793938,10.865335,0</coordinates>
          </Point>
        </Placemark>
        <Placemark>
          <name>[QTD 180] Đại học Nông Lâm</name>
          <description><![CDATA[&lt;b&gt;Trạm:&lt;/b&gt; Đại học Nông Lâm&lt;br/&gt;&lt;b&gt;Mã trạm:&lt;/b&gt; QTD 180&lt;br/&gt;&lt;b&gt;Địa chỉ:&lt;/b&gt; 85 (Đối diện 1026-1028) Quốc lộ 1&lt;br/&gt;&lt;b&gt;Khu vực:&lt;/b&gt; Phường Linh Trung, TP. Thủ Đức - KV3&lt;br/&gt;&lt;b&gt;Các tuyến qua trạm:&lt;/b&gt; 06, 164D, 164V, 170, 19, 33, 50, 52, 53, 60-1, 60-2, 61-9, 93]]></description>
          <styleUrl>#busStopStyle</styleUrl>
          <Point>
            <coordinates>106.791101,10.866961,0</coordinates>
          </Point>
        </Placemark>
        <Placemark>
          <name>[QTD 181] ĐH Nông Lâm</name>
          <description><![CDATA[&lt;b&gt;Trạm:&lt;/b&gt; ĐH Nông Lâm&lt;br/&gt;&lt;b&gt;Mã trạm:&lt;/b&gt; QTD 181&lt;br/&gt;&lt;b&gt;Địa chỉ:&lt;/b&gt; Kế 21 Quốc lộ 1&lt;br/&gt;&lt;b&gt;Khu vực:&lt;/b&gt; None, TP. Thủ Đức - KV3&lt;br/&gt;&lt;b&gt;Các tuyến qua trạm:&lt;/b&gt; 167D, 19, 33, 50, 53, 60-1, 61-9, 93]]></description>
          <styleUrl>#busStopStyle</styleUrl>
          <Point>
            <coordinates>106.787265,10.867404,0</coordinates>
          </Point>
        </Placemark>
        <Placemark>
          <name>[QTD 182] Công ty điện tử Samsung</name>
          <description><![CDATA[&lt;b&gt;Trạm:&lt;/b&gt; Công ty điện tử Samsung&lt;br/&gt;&lt;b&gt;Mã trạm:&lt;/b&gt; QTD 182&lt;br/&gt;&lt;b&gt;Địa chỉ:&lt;/b&gt; 34/38 (Kế 59/6) Quốc lộ 1&lt;br/&gt;&lt;b&gt;Khu vực:&lt;/b&gt; None, TP. Thủ Đức - KV3&lt;br/&gt;&lt;b&gt;Các tuyến qua trạm:&lt;/b&gt; 167D, 19, 33, 50, 53, 60-1, 61-9, 93]]></description>
          <styleUrl>#busStopStyle</styleUrl>
          <Point>
            <coordinates>106.782201,10.867867,0</coordinates>
          </Point>
        </Placemark>
        <Placemark>
          <name>[QTD 183] Đại học Kinh tế -Luật</name>
          <description><![CDATA[&lt;b&gt;Trạm:&lt;/b&gt; Đại học Kinh tế -Luật&lt;br/&gt;&lt;b&gt;Mã trạm:&lt;/b&gt; QTD 183&lt;br/&gt;&lt;b&gt;Địa chỉ:&lt;/b&gt; Đại học Kinh tế -Luật Quốc lộ 1&lt;br/&gt;&lt;b&gt;Khu vực:&lt;/b&gt; Phường Linh Xuân, TP. Thủ Đức - KV3&lt;br/&gt;&lt;b&gt;Các tuyến qua trạm:&lt;/b&gt; 167V, 19, 33, 50, 60-1, 61-9, 93]]></description>
          <styleUrl>#busStopStyle</styleUrl>
          <Point>
            <coordinates>106.77726,10.869427,0</coordinates>
          </Point>
        </Placemark>
        <Placemark>
          <name>[QTD 184] Trung tâm kho vận Linh Xuân</name>
          <description><![CDATA[&lt;b&gt;Trạm:&lt;/b&gt; Trung tâm kho vận Linh Xuân&lt;br/&gt;&lt;b&gt;Mã trạm:&lt;/b&gt; QTD 184&lt;br/&gt;&lt;b&gt;Địa chỉ:&lt;/b&gt; Trung tâm kho vận Linh Xuân Quốc lộ 1&lt;br/&gt;&lt;b&gt;Khu vực:&lt;/b&gt; Phường Linh Xuân, TP. Thủ Đức - KV3&lt;br/&gt;&lt;b&gt;Các tuyến qua trạm:&lt;/b&gt; 167V, 19, 33, 50, 53, 60-1, 61-9, 93]]></description>
          <styleUrl>#busStopStyle</styleUrl>
          <Point>
            <coordinates>106.774932,10.870254,0</coordinates>
          </Point>
        </Placemark>
        <Placemark>
          <name>[QTD 185] Nghĩa trang Thành phố</name>
          <description><![CDATA[&lt;b&gt;Trạm:&lt;/b&gt; Nghĩa trang Thành phố&lt;br/&gt;&lt;b&gt;Mã trạm:&lt;/b&gt; QTD 185&lt;br/&gt;&lt;b&gt;Địa chỉ:&lt;/b&gt; Cột điện NG/1 Quốc lộ 1&lt;br/&gt;&lt;b&gt;Khu vực:&lt;/b&gt; Phường Linh Xuân, TP. Thủ Đức - KV3&lt;br/&gt;&lt;b&gt;Các tuyến qua trạm:&lt;/b&gt; 167V, 19, 33, 50, 53, 61-9, 93]]></description>
          <styleUrl>#busStopStyle</styleUrl>
          <Point>
            <coordinates>106.771671,10.871313,0</coordinates>
          </Point>
        </Placemark>
        <Placemark>
          <name>[QTD 186] Công ty Nissan</name>
          <description><![CDATA[&lt;b&gt;Trạm:&lt;/b&gt; Công ty Nissan&lt;br/&gt;&lt;b&gt;Mã trạm:&lt;/b&gt; QTD 186&lt;br/&gt;&lt;b&gt;Địa chỉ:&lt;/b&gt; Đối diện công ty Nissan (559) Quốc lộ 1&lt;br/&gt;&lt;b&gt;Khu vực:&lt;/b&gt; None, TP. Thủ Đức - KV3&lt;br/&gt;&lt;b&gt;Các tuyến qua trạm:&lt;/b&gt; 167V, 19, 33, 50, 53, 60-1, 61-9, 93]]></description>
          <styleUrl>#busStopStyle</styleUrl>
          <Point>
            <coordinates>106.768248,10.872419,0</coordinates>
          </Point>
        </Placemark>
        <Placemark>
          <name>[QTD 187] Cầu vượt Linh Xuân</name>
          <description><![CDATA[&lt;b&gt;Trạm:&lt;/b&gt; Cầu vượt Linh Xuân&lt;br/&gt;&lt;b&gt;Mã trạm:&lt;/b&gt; QTD 187&lt;br/&gt;&lt;b&gt;Địa chỉ:&lt;/b&gt; 467B Quốc lộ 1&lt;br/&gt;&lt;b&gt;Khu vực:&lt;/b&gt; Phường Linh Xuân, TP. Thủ Đức - KV3&lt;br/&gt;&lt;b&gt;Các tuyến qua trạm:&lt;/b&gt; 05, 19, 33, 60-1, 61-9]]></description>
          <styleUrl>#busStopStyle</styleUrl>
          <Point>
            <coordinates>106.762095,10.874474,0</coordinates>
          </Point>
        </Placemark>
        <Placemark>
          <name>[QTD 188] Giày Thái Bình-Bình Đường</name>
          <description><![CDATA[&lt;b&gt;Trạm:&lt;/b&gt; Giày Thái Bình-Bình Đường&lt;br/&gt;&lt;b&gt;Mã trạm:&lt;/b&gt; QTD 188&lt;br/&gt;&lt;b&gt;Địa chỉ:&lt;/b&gt; 467B Quốc lộ 1&lt;br/&gt;&lt;b&gt;Khu vực:&lt;/b&gt; None, TP. Thủ Đức - KV3&lt;br/&gt;&lt;b&gt;Các tuyến qua trạm:&lt;/b&gt; 05, 19, 33, 60-1, 61-9]]></description>
          <styleUrl>#busStopStyle</styleUrl>
          <Point>
            <coordinates>106.758689,10.875454,0</coordinates>
          </Point>
        </Placemark>
        <Placemark>
          <name>[QTD 189] Giày Thái Bình</name>
          <description><![CDATA[&lt;b&gt;Trạm:&lt;/b&gt; Giày Thái Bình&lt;br/&gt;&lt;b&gt;Mã trạm:&lt;/b&gt; QTD 189&lt;br/&gt;&lt;b&gt;Địa chỉ:&lt;/b&gt; Đối diện 22/8 Quốc lộ 1&lt;br/&gt;&lt;b&gt;Khu vực:&lt;/b&gt; Phường Trường Thọ, TP. Thủ Đức - KV3&lt;br/&gt;&lt;b&gt;Các tuyến qua trạm:&lt;/b&gt; 05, 19, 33, 61-9]]></description>
          <styleUrl>#busStopStyle</styleUrl>
          <Point>
            <coordinates>106.757305,10.875738,0</coordinates>
          </Point>
        </Placemark>
        <Placemark>
          <name>[QTD 190] Bến xe Lam Hồng</name>
          <description><![CDATA[&lt;b&gt;Trạm:&lt;/b&gt; Bến xe Lam Hồng&lt;br/&gt;&lt;b&gt;Mã trạm:&lt;/b&gt; QTD 190&lt;br/&gt;&lt;b&gt;Địa chỉ:&lt;/b&gt; 12A/28 Quốc lộ 1&lt;br/&gt;&lt;b&gt;Khu vực:&lt;/b&gt; None, TP. Thủ Đức - KV3&lt;br/&gt;&lt;b&gt;Các tuyến qua trạm:&lt;/b&gt; 05, 19, 33, 60-1, 61-9]]></description>
          <styleUrl>#busStopStyle</styleUrl>
          <Point>
            <coordinates>106.755631,10.876049,0</coordinates>
          </Point>
        </Placemark>
        <Placemark>
          <name>[QTD 191] Cầu vượt Sóng Thần</name>
          <description><![CDATA[&lt;b&gt;Trạm:&lt;/b&gt; Cầu vượt Sóng Thần&lt;br/&gt;&lt;b&gt;Mã trạm:&lt;/b&gt; QTD 191&lt;br/&gt;&lt;b&gt;Địa chỉ:&lt;/b&gt; 275 Quốc lộ 1&lt;br/&gt;&lt;b&gt;Khu vực:&lt;/b&gt; None, TP. Thủ Đức - KV3&lt;br/&gt;&lt;b&gt;Các tuyến qua trạm:&lt;/b&gt; 05, 19, 33, 60-1]]></description>
          <styleUrl>#busStopStyle</styleUrl>
          <Point>
            <coordinates>106.746528,10.874115,0</coordinates>
          </Point>
        </Placemark>
        <Placemark>
          <name>[QTD 192] Chợ Tam Hải</name>
          <description><![CDATA[&lt;b&gt;Trạm:&lt;/b&gt; Chợ Tam Hải&lt;br/&gt;&lt;b&gt;Mã trạm:&lt;/b&gt; QTD 192&lt;br/&gt;&lt;b&gt;Địa chỉ:&lt;/b&gt; 251B Quốc lộ 1&lt;br/&gt;&lt;b&gt;Khu vực:&lt;/b&gt; Phường Bình Chiểu, TP. Thủ Đức - KV3&lt;br/&gt;&lt;b&gt;Các tuyến qua trạm:&lt;/b&gt; 05, 19, 33, 60-1]]></description>
          <styleUrl>#busStopStyle</styleUrl>
          <Point>
            <coordinates>106.744291,10.873373,0</coordinates>
          </Point>
        </Placemark>
        <Placemark>
          <name>[QTD 193] Hồ Bơi</name>
          <description><![CDATA[&lt;b&gt;Trạm:&lt;/b&gt; Hồ Bơi&lt;br/&gt;&lt;b&gt;Mã trạm:&lt;/b&gt; QTD 193&lt;br/&gt;&lt;b&gt;Địa chỉ:&lt;/b&gt; 179 Quốc lộ 1&lt;br/&gt;&lt;b&gt;Khu vực:&lt;/b&gt; Phường Bình Chiểu, TP. Thủ Đức - KV3&lt;br/&gt;&lt;b&gt;Các tuyến qua trạm:&lt;/b&gt; 05, 19, 33, 60-1]]></description>
          <styleUrl>#busStopStyle</styleUrl>
          <Point>
            <coordinates>106.739913,10.872177,0</coordinates>
          </Point>
        </Placemark>
        <Placemark>
          <name>[QTD 194] Chợ Tam Bình</name>
          <description><![CDATA[&lt;b&gt;Trạm:&lt;/b&gt; Chợ Tam Bình&lt;br/&gt;&lt;b&gt;Mã trạm:&lt;/b&gt; QTD 194&lt;br/&gt;&lt;b&gt;Địa chỉ:&lt;/b&gt; Đối diện Bưu điện Tam Bình Quốc lộ 1&lt;br/&gt;&lt;b&gt;Khu vực:&lt;/b&gt; Phường Bình Chiểu, TP. Thủ Đức - KV3&lt;br/&gt;&lt;b&gt;Các tuyến qua trạm:&lt;/b&gt; 05, 19, 33, 60-1]]></description>
          <styleUrl>#busStopStyle</styleUrl>
          <Point>
            <coordinates>106.734474,10.870828,0</coordinates>
          </Point>
        </Placemark>
        <Placemark>
          <name>[QTD 195] Chợ đầu mối nông sản Thủ Đức</name>
          <description><![CDATA[&lt;b&gt;Trạm:&lt;/b&gt; Chợ đầu mối nông sản Thủ Đức&lt;br/&gt;&lt;b&gt;Mã trạm:&lt;/b&gt; QTD 195&lt;br/&gt;&lt;b&gt;Địa chỉ:&lt;/b&gt; Chợ đầu mối nông sản Thủ Đức Quốc lộ 1&lt;br/&gt;&lt;b&gt;Khu vực:&lt;/b&gt; Phường Tam Bình, TP. Thủ Đức - KV3&lt;br/&gt;&lt;b&gt;Các tuyến qua trạm:&lt;/b&gt; 05, 19, 29, 33, 60-1, 91]]></description>
          <styleUrl>#busStopStyle</styleUrl>
          <Point>
            <coordinates>106.729158,10.86812,0</coordinates>
          </Point>
        </Placemark>
        <Placemark>
          <name>[QTD 196] Cầu Bình Phước</name>
          <description><![CDATA[&lt;b&gt;Trạm:&lt;/b&gt; Cầu Bình Phước&lt;br/&gt;&lt;b&gt;Mã trạm:&lt;/b&gt; QTD 196&lt;br/&gt;&lt;b&gt;Địa chỉ:&lt;/b&gt; 39A Quốc lộ 1&lt;br/&gt;&lt;b&gt;Khu vực:&lt;/b&gt; None, TP. Thủ Đức - KV3&lt;br/&gt;&lt;b&gt;Các tuyến qua trạm:&lt;/b&gt; 33, 60-1, 61-3]]></description>
          <styleUrl>#busStopStyle</styleUrl>
          <Point>
            <coordinates>106.719894,10.863451,0</coordinates>
          </Point>
        </Placemark>
        <Placemark>
          <name>[Q12 061] Aone</name>
          <description><![CDATA[&lt;b&gt;Trạm:&lt;/b&gt; Aone&lt;br/&gt;&lt;b&gt;Mã trạm:&lt;/b&gt; Q12 061&lt;br/&gt;&lt;b&gt;Địa chỉ:&lt;/b&gt; Đối diện Aone Quốc lộ 1A&lt;br/&gt;&lt;b&gt;Khu vực:&lt;/b&gt; None, Quận 12&lt;br/&gt;&lt;b&gt;Các tuyến qua trạm:&lt;/b&gt; 33, 60-1, 61-3]]></description>
          <styleUrl>#busStopStyle</styleUrl>
          <Point>
            <coordinates>106.713096,10.85997,0</coordinates>
          </Point>
        </Placemark>
        <Placemark>
          <name>[Q12 062] Công ty EUROPA</name>
          <description><![CDATA[&lt;b&gt;Trạm:&lt;/b&gt; Công ty EUROPA&lt;br/&gt;&lt;b&gt;Mã trạm:&lt;/b&gt; Q12 062&lt;br/&gt;&lt;b&gt;Địa chỉ:&lt;/b&gt; Công ty EUROPA Quốc lộ 1A&lt;br/&gt;&lt;b&gt;Khu vực:&lt;/b&gt; None, Quận 12&lt;br/&gt;&lt;b&gt;Các tuyến qua trạm:&lt;/b&gt; 33, 60-1, 61-3]]></description>
          <styleUrl>#busStopStyle</styleUrl>
          <Point>
            <coordinates>106.707727,10.859148,0</coordinates>
          </Point>
        </Placemark>
        <Placemark>
          <name>[Q12 063] Tu viện Khánh An</name>
          <description><![CDATA[&lt;b&gt;Trạm:&lt;/b&gt; Tu viện Khánh An&lt;br/&gt;&lt;b&gt;Mã trạm:&lt;/b&gt; Q12 063&lt;br/&gt;&lt;b&gt;Địa chỉ:&lt;/b&gt; 1048/3B Quốc lộ 1A&lt;br/&gt;&lt;b&gt;Khu vực:&lt;/b&gt; None, Quận 12&lt;br/&gt;&lt;b&gt;Các tuyến qua trạm:&lt;/b&gt; 33, 61-3]]></description>
          <styleUrl>#busStopStyle</styleUrl>
          <Point>
            <coordinates>106.704948,10.859496,0</coordinates>
          </Point>
        </Placemark>
        <Placemark>
          <name>[Q12 064] Công ty Mai Linh</name>
          <description><![CDATA[&lt;b&gt;Trạm:&lt;/b&gt; Công ty Mai Linh&lt;br/&gt;&lt;b&gt;Mã trạm:&lt;/b&gt; Q12 064&lt;br/&gt;&lt;b&gt;Địa chỉ:&lt;/b&gt; 1691/3N Quốc lộ 1A&lt;br/&gt;&lt;b&gt;Khu vực:&lt;/b&gt; None, Quận 12&lt;br/&gt;&lt;b&gt;Các tuyến qua trạm:&lt;/b&gt; 33, 60-1, 61-3]]></description>
          <styleUrl>#busStopStyle</styleUrl>
          <Point>
            <coordinates>106.701086,10.860007,0</coordinates>
          </Point>
        </Placemark>
        <Placemark>
          <name>[Q12 065] Đình An Phú Đông</name>
          <description><![CDATA[&lt;b&gt;Trạm:&lt;/b&gt; Đình An Phú Đông&lt;br/&gt;&lt;b&gt;Mã trạm:&lt;/b&gt; Q12 065&lt;br/&gt;&lt;b&gt;Địa chỉ:&lt;/b&gt; Đối diện Đình An Phú Đông Quốc lộ 1A&lt;br/&gt;&lt;b&gt;Khu vực:&lt;/b&gt; None, Quận 12&lt;br/&gt;&lt;b&gt;Các tuyến qua trạm:&lt;/b&gt; 33, 60-1, 61-3]]></description>
          <styleUrl>#busStopStyle</styleUrl>
          <Point>
            <coordinates>106.695453,10.86065,0</coordinates>
          </Point>
        </Placemark>
        <Placemark>
          <name>[Q12 066] Đài Liệt sĩ An Phú Đông</name>
          <description><![CDATA[&lt;b&gt;Trạm:&lt;/b&gt; Đài Liệt sĩ An Phú Đông&lt;br/&gt;&lt;b&gt;Mã trạm:&lt;/b&gt; Q12 066&lt;br/&gt;&lt;b&gt;Địa chỉ:&lt;/b&gt; Đài Liệt sĩ An Phú Đông Quốc lộ 1A&lt;br/&gt;&lt;b&gt;Khu vực:&lt;/b&gt; None, Quận 12&lt;br/&gt;&lt;b&gt;Các tuyến qua trạm:&lt;/b&gt; 33, 61-3]]></description>
          <styleUrl>#busStopStyle</styleUrl>
          <Point>
            <coordinates>106.69224,10.860876,0</coordinates>
          </Point>
        </Placemark>
        <Placemark>
          <name>[Q12 067] Công ty Hồng Mã</name>
          <description><![CDATA[&lt;b&gt;Trạm:&lt;/b&gt; Công ty Hồng Mã&lt;br/&gt;&lt;b&gt;Mã trạm:&lt;/b&gt; Q12 067&lt;br/&gt;&lt;b&gt;Địa chỉ:&lt;/b&gt; Công ty Hồng Mã Quốc lộ 1A&lt;br/&gt;&lt;b&gt;Khu vực:&lt;/b&gt; None, Quận 12&lt;br/&gt;&lt;b&gt;Các tuyến qua trạm:&lt;/b&gt; 33, 60-1, 61-3]]></description>
          <styleUrl>#busStopStyle</styleUrl>
          <Point>
            <coordinates>106.689413,10.86104,0</coordinates>
          </Point>
        </Placemark>
        <Placemark>
          <name>[Q12 068] Phường An Phú Đông</name>
          <description><![CDATA[&lt;b&gt;Trạm:&lt;/b&gt; Phường An Phú Đông&lt;br/&gt;&lt;b&gt;Mã trạm:&lt;/b&gt; Q12 068&lt;br/&gt;&lt;b&gt;Địa chỉ:&lt;/b&gt; 616 - 618 Quốc lộ 1A&lt;br/&gt;&lt;b&gt;Khu vực:&lt;/b&gt; None, Quận 12&lt;br/&gt;&lt;b&gt;Các tuyến qua trạm:&lt;/b&gt; 33, 60-1, 61-3]]></description>
          <styleUrl>#busStopStyle</styleUrl>
          <Point>
            <coordinates>106.685175,10.861324,0</coordinates>
          </Point>
        </Placemark>
        <Placemark>
          <name>[Q12 069] Cầu Ga Nhỏ</name>
          <description><![CDATA[&lt;b&gt;Trạm:&lt;/b&gt; Cầu Ga Nhỏ&lt;br/&gt;&lt;b&gt;Mã trạm:&lt;/b&gt; Q12 069&lt;br/&gt;&lt;b&gt;Địa chỉ:&lt;/b&gt; 161 Quốc lộ 1A&lt;br/&gt;&lt;b&gt;Khu vực:&lt;/b&gt; None, Quận 12&lt;br/&gt;&lt;b&gt;Các tuyến qua trạm:&lt;/b&gt; 33, 61-3]]></description>
          <styleUrl>#busStopStyle</styleUrl>
          <Point>
            <coordinates>106.682321,10.861503,0</coordinates>
          </Point>
        </Placemark>
        <Placemark>
          <name>[Q12 070] Bến xe Ngã tư Ga</name>
          <description><![CDATA[&lt;b&gt;Trạm:&lt;/b&gt; Bến xe Ngã tư Ga&lt;br/&gt;&lt;b&gt;Mã trạm:&lt;/b&gt; Q12 070&lt;br/&gt;&lt;b&gt;Địa chỉ:&lt;/b&gt; Bến xe Ngã tư ga Quốc lộ 1A&lt;br/&gt;&lt;b&gt;Khu vực:&lt;/b&gt; None, Quận 12&lt;br/&gt;&lt;b&gt;Các tuyến qua trạm:&lt;/b&gt; 33, 58, 60-1, 61-3]]></description>
          <styleUrl>#busStopStyle</styleUrl>
          <Point>
            <coordinates>106.679354,10.861725,0</coordinates>
          </Point>
        </Placemark>
        <Placemark>
          <name>[Q12 071] Khu QLGTĐT số 3</name>
          <description><![CDATA[&lt;b&gt;Trạm:&lt;/b&gt; Khu QLGTĐT số 3&lt;br/&gt;&lt;b&gt;Mã trạm:&lt;/b&gt; Q12 071&lt;br/&gt;&lt;b&gt;Địa chỉ:&lt;/b&gt; 96/2 Quốc lộ 1A&lt;br/&gt;&lt;b&gt;Khu vực:&lt;/b&gt; None, Quận 12&lt;br/&gt;&lt;b&gt;Các tuyến qua trạm:&lt;/b&gt; 103, 161, 32, 33, 59, 60-1, 61-3]]></description>
          <styleUrl>#busStopStyle</styleUrl>
          <Point>
            <coordinates>106.674564,10.861967,0</coordinates>
          </Point>
        </Placemark>
        <Placemark>
          <name>[Q12 072] Tô Ngọc Vân</name>
          <description><![CDATA[&lt;b&gt;Trạm:&lt;/b&gt; Tô Ngọc Vân&lt;br/&gt;&lt;b&gt;Mã trạm:&lt;/b&gt; Q12 072&lt;br/&gt;&lt;b&gt;Địa chỉ:&lt;/b&gt; 972 Quốc lộ 1A&lt;br/&gt;&lt;b&gt;Khu vực:&lt;/b&gt; None, Quận 12&lt;br/&gt;&lt;b&gt;Các tuyến qua trạm:&lt;/b&gt; 103, 161, 32, 33, 59, 61-3]]></description>
          <styleUrl>#busStopStyle</styleUrl>
          <Point>
            <coordinates>106.671935,10.861904,0</coordinates>
          </Point>
        </Placemark>
        <Placemark>
          <name>[Q12 073] Trường Mầm non Ngôi Nhà Trẻ Thơ</name>
          <description><![CDATA[&lt;b&gt;Trạm:&lt;/b&gt; Trường Mầm non Ngôi Nhà Trẻ Thơ&lt;br/&gt;&lt;b&gt;Mã trạm:&lt;/b&gt; Q12 073&lt;br/&gt;&lt;b&gt;Địa chỉ:&lt;/b&gt; 990 Quốc lộ 1A&lt;br/&gt;&lt;b&gt;Khu vực:&lt;/b&gt; None, Quận 12&lt;br/&gt;&lt;b&gt;Các tuyến qua trạm:&lt;/b&gt; 103, 146, 33, 60-1, 61-3]]></description>
          <styleUrl>#busStopStyle</styleUrl>
          <Point>
            <coordinates>106.667461,10.861877,0</coordinates>
          </Point>
        </Placemark>
        <Placemark>
          <name>[Q12 074] Cơ khí Minh Huy</name>
          <description><![CDATA[&lt;b&gt;Trạm:&lt;/b&gt; Cơ khí Minh Huy&lt;br/&gt;&lt;b&gt;Mã trạm:&lt;/b&gt; Q12 074&lt;br/&gt;&lt;b&gt;Địa chỉ:&lt;/b&gt; 1218/11 Quốc lộ 1A&lt;br/&gt;&lt;b&gt;Khu vực:&lt;/b&gt; None, Quận 12&lt;br/&gt;&lt;b&gt;Các tuyến qua trạm:&lt;/b&gt; 103, 146, 33, 60-1, 61-3]]></description>
          <styleUrl>#busStopStyle</styleUrl>
          <Point>
            <coordinates>106.661389,10.861819,0</coordinates>
          </Point>
        </Placemark>
        <Placemark>
          <name>[Q12 075] Đá hoa cương Chí Thành</name>
          <description><![CDATA[&lt;b&gt;Trạm:&lt;/b&gt; Đá hoa cương Chí Thành&lt;br/&gt;&lt;b&gt;Mã trạm:&lt;/b&gt; Q12 075&lt;br/&gt;&lt;b&gt;Địa chỉ:&lt;/b&gt; 1360 Quốc lộ 1A&lt;br/&gt;&lt;b&gt;Khu vực:&lt;/b&gt; None, Quận 12&lt;br/&gt;&lt;b&gt;Các tuyến qua trạm:&lt;/b&gt; 103, 146, 33, 60-1, 61-3]]></description>
          <styleUrl>#busStopStyle</styleUrl>
          <Point>
            <coordinates>106.657183,10.861988,0</coordinates>
          </Point>
        </Placemark>
        <Placemark>
          <name>[Q12 076] Quận ủy Quận 12</name>
          <description><![CDATA[&lt;b&gt;Trạm:&lt;/b&gt; Quận ủy Quận 12&lt;br/&gt;&lt;b&gt;Mã trạm:&lt;/b&gt; Q12 076&lt;br/&gt;&lt;b&gt;Địa chỉ:&lt;/b&gt; 1456 (Quận Ủy quận 12) Quốc lộ 1A&lt;br/&gt;&lt;b&gt;Khu vực:&lt;/b&gt; None, Quận 12&lt;br/&gt;&lt;b&gt;Các tuyến qua trạm:&lt;/b&gt; 103, 33, 60-1, 61-3]]></description>
          <styleUrl>#busStopStyle</styleUrl>
          <Point>
            <coordinates>106.653428,10.862114,0</coordinates>
          </Point>
        </Placemark>
        <Placemark>
          <name>[Q12 077] Ngã tư Tân Thới Hiệp</name>
          <description><![CDATA[&lt;b&gt;Trạm:&lt;/b&gt; Ngã tư Tân Thới Hiệp&lt;br/&gt;&lt;b&gt;Mã trạm:&lt;/b&gt; Q12 077&lt;br/&gt;&lt;b&gt;Địa chỉ:&lt;/b&gt; 1680 Quốc lộ 1A&lt;br/&gt;&lt;b&gt;Khu vực:&lt;/b&gt; None, Quận 12&lt;br/&gt;&lt;b&gt;Các tuyến qua trạm:&lt;/b&gt; 103, 33, 61-3]]></description>
          <styleUrl>#busStopStyle</styleUrl>
          <Point>
            <coordinates>106.650757,10.862273,0</coordinates>
          </Point>
        </Placemark>
        <Placemark>
          <name>[Q12 078] Cao su Vina</name>
          <description><![CDATA[&lt;b&gt;Trạm:&lt;/b&gt; Cao su Vina&lt;br/&gt;&lt;b&gt;Mã trạm:&lt;/b&gt; Q12 078&lt;br/&gt;&lt;b&gt;Địa chỉ:&lt;/b&gt; 67/3A Quốc lộ 1A&lt;br/&gt;&lt;b&gt;Khu vực:&lt;/b&gt; None, Quận 12&lt;br/&gt;&lt;b&gt;Các tuyến qua trạm:&lt;/b&gt; 33, 60-1, 61-3, 62]]></description>
          <styleUrl>#busStopStyle</styleUrl>
          <Point>
            <coordinates>106.648536,10.861767,0</coordinates>
          </Point>
        </Placemark>
        <Placemark>
          <name>[Q12 079] Cây xăng Trung Tín</name>
          <description><![CDATA[&lt;b&gt;Trạm:&lt;/b&gt; Cây xăng Trung Tín&lt;br/&gt;&lt;b&gt;Mã trạm:&lt;/b&gt; Q12 079&lt;br/&gt;&lt;b&gt;Địa chỉ:&lt;/b&gt; 1828 Quốc lộ 1A&lt;br/&gt;&lt;b&gt;Khu vực:&lt;/b&gt; None, Quận 12&lt;br/&gt;&lt;b&gt;Các tuyến qua trạm:&lt;/b&gt; 33, 60-1, 61-3, 62]]></description>
          <styleUrl>#busStopStyle</styleUrl>
          <Point>
            <coordinates>106.645682,10.860302,0</coordinates>
          </Point>
        </Placemark>
        <Placemark>
          <name>[Q12 080] Trạm điện Hóc Môn</name>
          <description><![CDATA[&lt;b&gt;Trạm:&lt;/b&gt; Trạm điện Hóc Môn&lt;br/&gt;&lt;b&gt;Mã trạm:&lt;/b&gt; Q12 080&lt;br/&gt;&lt;b&gt;Địa chỉ:&lt;/b&gt; 1956 Quốc lộ 1A&lt;br/&gt;&lt;b&gt;Khu vực:&lt;/b&gt; None, Quận 12&lt;br/&gt;&lt;b&gt;Các tuyến qua trạm:&lt;/b&gt; 33, 60-1, 61-3, 62]]></description>
          <styleUrl>#busStopStyle</styleUrl>
          <Point>
            <coordinates>106.640918,10.857668,0</coordinates>
          </Point>
        </Placemark>
        <Placemark>
          <name>[Q12 081] Ngã tư Đình</name>
          <description><![CDATA[&lt;b&gt;Trạm:&lt;/b&gt; Ngã tư Đình&lt;br/&gt;&lt;b&gt;Mã trạm:&lt;/b&gt; Q12 081&lt;br/&gt;&lt;b&gt;Địa chỉ:&lt;/b&gt; 44D Quốc lộ 1A&lt;br/&gt;&lt;b&gt;Khu vực:&lt;/b&gt; None, Quận 12&lt;br/&gt;&lt;b&gt;Các tuyến qua trạm:&lt;/b&gt; 33, 60-1, 61-3, 62]]></description>
          <styleUrl>#busStopStyle</styleUrl>
          <Point>
            <coordinates>106.638172,10.856256,0</coordinates>
          </Point>
        </Placemark>
        <Placemark>
          <name>[Q12 083] Trường Nguyễn Du</name>
          <description><![CDATA[&lt;b&gt;Trạm:&lt;/b&gt; Trường Nguyễn Du&lt;br/&gt;&lt;b&gt;Mã trạm:&lt;/b&gt; Q12 083&lt;br/&gt;&lt;b&gt;Địa chỉ:&lt;/b&gt; Đối diện Trường Nguyễn Du Quốc lộ 1A&lt;br/&gt;&lt;b&gt;Khu vực:&lt;/b&gt; None, Quận 12&lt;br/&gt;&lt;b&gt;Các tuyến qua trạm:&lt;/b&gt; 33, 60-1, 61-3, 62]]></description>
          <styleUrl>#busStopStyle</styleUrl>
          <Point>
            <coordinates>106.632469,10.853048,0</coordinates>
          </Point>
        </Placemark>
        <Placemark>
          <name>[Q12 084] Công viên Phần mềm Quang Trung</name>
          <description><![CDATA[&lt;b&gt;Trạm:&lt;/b&gt; Công viên Phần mềm Quang Trung&lt;br/&gt;&lt;b&gt;Mã trạm:&lt;/b&gt; Q12 084&lt;br/&gt;&lt;b&gt;Địa chỉ:&lt;/b&gt; Công viên phần mềm Quang Trung Quốc lộ 1A&lt;br/&gt;&lt;b&gt;Khu vực:&lt;/b&gt; None, Quận 12&lt;br/&gt;&lt;b&gt;Các tuyến qua trạm:&lt;/b&gt; 33, 61-3, 62]]></description>
          <styleUrl>#busStopStyle</styleUrl>
          <Point>
            <coordinates>106.630935,10.852242,0</coordinates>
          </Point>
        </Placemark>
        <Placemark>
          <name>[Q12 085] Chung cư Thái An</name>
          <description><![CDATA[&lt;b&gt;Trạm:&lt;/b&gt; Chung cư Thái An&lt;br/&gt;&lt;b&gt;Mã trạm:&lt;/b&gt; Q12 085&lt;br/&gt;&lt;b&gt;Địa chỉ:&lt;/b&gt; Chung cư Thái An Quốc lộ 1A&lt;br/&gt;&lt;b&gt;Khu vực:&lt;/b&gt; None, Quận 12&lt;br/&gt;&lt;b&gt;Các tuyến qua trạm:&lt;/b&gt; 33, 60-1, 61-3]]></description>
          <styleUrl>#busStopStyle</styleUrl>
          <Point>
            <coordinates>106.624348,10.84907,0</coordinates>
          </Point>
        </Placemark>
        <Placemark>
          <name>[Q12 086] Trạm đăng kiểm</name>
          <description><![CDATA[&lt;b&gt;Trạm:&lt;/b&gt; Trạm đăng kiểm&lt;br/&gt;&lt;b&gt;Mã trạm:&lt;/b&gt; Q12 086&lt;br/&gt;&lt;b&gt;Địa chỉ:&lt;/b&gt; Trạm đăng kiểm Quốc lộ 1A&lt;br/&gt;&lt;b&gt;Khu vực:&lt;/b&gt; None, Quận 12&lt;br/&gt;&lt;b&gt;Các tuyến qua trạm:&lt;/b&gt; 33, 60-1, 61-3]]></description>
          <styleUrl>#busStopStyle</styleUrl>
          <Point>
            <coordinates>106.621059,10.8475,0</coordinates>
          </Point>
        </Placemark>
        <Placemark>
          <name>[Q12 087] Bãi xe Tây Nam</name>
          <description><![CDATA[&lt;b&gt;Trạm:&lt;/b&gt; Bãi xe Tây Nam&lt;br/&gt;&lt;b&gt;Mã trạm:&lt;/b&gt; Q12 087&lt;br/&gt;&lt;b&gt;Địa chỉ:&lt;/b&gt; Đối diện Bãi xe Tây Nam Quốc lộ 1A&lt;br/&gt;&lt;b&gt;Khu vực:&lt;/b&gt; None, Quận 12&lt;br/&gt;&lt;b&gt;Các tuyến qua trạm:&lt;/b&gt; 33, 61-3]]></description>
          <styleUrl>#busStopStyle</styleUrl>
          <Point>
            <coordinates>106.618758,10.845935,0</coordinates>
          </Point>
        </Placemark>
        <Placemark>
          <name>[Q12 088] Cầu vượt An Sương</name>
          <description><![CDATA[&lt;b&gt;Trạm:&lt;/b&gt; Cầu vượt An Sương&lt;br/&gt;&lt;b&gt;Mã trạm:&lt;/b&gt; Q12 088&lt;br/&gt;&lt;b&gt;Địa chỉ:&lt;/b&gt; Xưởng Z735 Quốc lộ 1A&lt;br/&gt;&lt;b&gt;Khu vực:&lt;/b&gt; None, Quận 12&lt;br/&gt;&lt;b&gt;Các tuyến qua trạm:&lt;/b&gt; 33, 60-1, 61-3]]></description>
          <styleUrl>#busStopStyle</styleUrl>
          <Point>
            <coordinates>106.616081,10.843623,0</coordinates>
          </Point>
        </Placemark>
        <Placemark>
          <name>[Q12 122] Bến xe An Sương</name>
          <description><![CDATA[&lt;b&gt;Trạm:&lt;/b&gt; Bến xe An Sương&lt;br/&gt;&lt;b&gt;Mã trạm:&lt;/b&gt; Q12 122&lt;br/&gt;&lt;b&gt;Địa chỉ:&lt;/b&gt; F42 Quốc lộ 22&lt;br/&gt;&lt;b&gt;Khu vực:&lt;/b&gt; None, Quận 12&lt;br/&gt;&lt;b&gt;Các tuyến qua trạm:&lt;/b&gt; 04, 104, 122, 145, 33, 61-3]]></description>
          <styleUrl>#busStopStyle</styleUrl>
          <Point>
            <coordinates>106.613517,10.845803,0</coordinates>
          </Point>
        </Placemark>
        <Placemark>
          <name>[HHM 058] Bến xe An Sương</name>
          <description><![CDATA[&lt;b&gt;Trạm:&lt;/b&gt; Bến xe An Sương&lt;br/&gt;&lt;b&gt;Mã trạm:&lt;/b&gt; HHM 058&lt;br/&gt;&lt;b&gt;Địa chỉ:&lt;/b&gt; 1B Quốc lộ 22&lt;br/&gt;&lt;b&gt;Khu vực:&lt;/b&gt; Xã Bà Điểm, Huyện Hóc Môn&lt;br/&gt;&lt;b&gt;Các tuyến qua trạm:&lt;/b&gt; 04, 104, 122, 13, 145, 151, 33, 41, 61-3, 62-5, 65, 71, 74, 85, 94]]></description>
          <styleUrl>#busStopStyle</styleUrl>
          <Point>
            <coordinates>106.613522,10.845187,0</coordinates>
          </Point>
        </Placemark>
        <Placemark>
          <name>[BX41] Bến xe An Sương</name>
          <description><![CDATA[&lt;b&gt;Trạm:&lt;/b&gt; Bến xe An Sương&lt;br/&gt;&lt;b&gt;Mã trạm:&lt;/b&gt; BX41&lt;br/&gt;&lt;b&gt;Địa chỉ:&lt;/b&gt; Bến xe An Sương Quốc lộ 22&lt;br/&gt;&lt;b&gt;Khu vực:&lt;/b&gt; None, Quận 12&lt;br/&gt;&lt;b&gt;Các tuyến qua trạm:&lt;/b&gt; 04, 104, 122, 151, 27, 33, 41, 61-3, 62-5, 65, 71, 74, 85]]></description>
          <styleUrl>#busStopStyle</styleUrl>
          <Point>
            <coordinates>106.61337280273438,10.843737602233887,0</coordinates>
          </Point>
        </Placemark>
      </Folder>
    </Folder>
  </Document>
</kml>