<?xml version="1.0" encoding="UTF-8"?>
<kml xmlns="http://www.opengis.net/kml/2.2">
  <Document>
    <name>B 27 - Bến xe buýt Sài Gòn - Âu Cơ - Bến xe An Sương</name>
    <description>Lộ trình tuyến xe buýt B 27 (5:00 - 20:00)</description>
    <Style id="routeLineStyle">
      <LineStyle>
        <color>e6AB4939</color>
        <width>4</width>
      </LineStyle>
    </Style>
    <Style id="busStopStyle">
      <IconStyle>
        <scale>0.8</scale>
        <Icon>
          <href>http://maps.google.com/mapfiles/kml/shapes/bus.png</href>
        </Icon>
      </IconStyle>
    </Style>
    <Folder>
      <name>Lượt đi: Bến xe buýt Sài Gòn → Bến xe An Sương (16.28 km)</name>
      <Placemark>
        <name>B 27 - Đường đi Lượt đi</name>
        <description><![CDATA[&lt;b&gt;Tuyến:&lt;/b&gt; B 27 - Bến xe buýt Sài Gòn - Âu Cơ - Bến xe An Sương&lt;br/&gt;&lt;b&gt;Lượt:&lt;/b&gt; Lượt đi&lt;br/&gt;&lt;b&gt;Cự ly:&lt;/b&gt; 16.28 km&lt;br/&gt;&lt;b&gt;Thời gian hành trình:&lt;/b&gt; 65 phút&lt;br/&gt;&lt;b&gt;Thời gian hoạt động:&lt;/b&gt; 5:00 - 20:00]]></description>
        <styleUrl>#routeLineStyle</styleUrl>
        <LineString>
          <tessellate>1</tessellate>
          <coordinates>106.68936157,10.76767635,0 106.68936157,10.76767635,0 106.68959808,10.76717472,0 106.69006348,10.76735687,0 106.69052124,10.76753902,0 106.69021606,10.76800251,0 106.68992615,10.76847172,0 106.68945313,10.76829243,0 106.68894196,10.76808643,0 106.688591,10.76769161,0 106.688591,10.76769161,0 106.688591,10.76769161,0 106.68840027,10.76723862,0 106.6882019,10.7667799,0 106.68778992,10.76694298,0 106.68778992,10.76694298,0 106.68694305,10.76731205,0 106.68608856,10.76768112,0 106.68525696,10.76805782,0 106.68442535,10.76843452,0 106.6840744,10.76805019,0 106.68372345,10.76766491,0 106.68365479,10.76772308,0 106.68365479,10.76772308,0 106.68370819,10.76766491,0 106.68308258,10.76699066,0 106.6824646,10.76631641,0 106.68238068,10.76639462,0 106.68238068,10.76639462,0 106.6824646,10.7663269,0 106.68214417,10.76600266,0 106.6818161,10.76567841,0 106.68159485,10.76570511,0 106.681427,10.76556778,0 106.68087769,10.76573658,0 106.680336,10.76590538,0 106.68036652,10.7659626,0 106.68036652,10.7659626,0 106.68034363,10.76589966,0 106.67920685,10.76624775,0 106.67807007,10.76659584,0 106.67810059,10.76667976,0 106.67810059,10.76667976,0 106.6780777,10.76659584,0 106.67686462,10.76697445,0 106.67563629,10.7673645,0 106.67566681,10.76742268,0 106.67566681,10.76742268,0 106.67564392,10.7673645,0 106.67514801,10.76751995,0 106.6746521,10.7676754,0 106.67449951,10.76790714,0 106.67424774,10.76790237,0 106.67404938,10.7677393,0 106.67355347,10.76776791,0 106.67304993,10.76779652,0 106.67304993,10.76786518,0 106.67304993,10.76786518,0 106.67304993,10.76778603,0 106.67222595,10.76782608,0 106.67139435,10.76786518,0 106.67056274,10.76790524,0 106.66973877,10.76794434,0 106.66973877,10.76802921,0 106.66973877,10.76802921,0 106.66973877,10.76794434,0 106.66898346,10.76798153,0 106.66822815,10.76802349,0 106.66783905,10.76815033,0 106.66668701,10.76752281,0 106.66551971,10.76690102,0 106.66459656,10.76637936,0 106.66366577,10.7658577,0 106.66272736,10.76536465,0 106.66178894,10.76487255,0 106.66174316,10.76497173,0 106.66174316,10.76497173,0 106.6618042,10.76487255,0 106.66096497,10.76441765,0 106.66012573,10.76396275,0 106.6592865,10.7635088,0 106.65844727,10.76305389,0 106.65840912,10.76311493,0 106.65840912,10.76311493,0 106.65844727,10.76307011,0 106.65795135,10.76280594,0 106.65746307,10.76254272,0 106.65686035,10.76265907,0 106.6565094,10.76313782,0 106.65616608,10.76361752,0 106.65621948,10.76365471,0 106.65621948,10.76365471,0 106.65615082,10.76362801,0 106.65581512,10.76410294,0 106.65547943,10.76457691,0 106.65513611,10.76505375,0 106.65480042,10.76553059,0 106.65484619,10.76556206,0 106.65484619,10.76556206,0 106.65480042,10.76553059,0 106.65416718,10.76641369,0 106.65354156,10.76729584,0 106.65361786,10.76734447,0 106.65361786,10.76734447,0 106.65361786,10.76734447,0 106.65361786,10.76734447,0 106.65361786,10.76734447,0 106.65351868,10.76731205,0 106.65318298,10.7678709,0 106.65284729,10.76842976,0 106.6529007,10.768466,0 106.6529007,10.768466,0 106.6529007,10.768466,0 106.6529007,10.768466,0 106.65283203,10.76844025,0 106.65245056,10.76906204,0 106.65197754,10.76915169,0 106.65154266,10.76960945,0 106.65159607,10.76964664,0 106.65159607,10.76964664,0 106.65154266,10.76960945,0 106.65110779,10.77019787,0 106.65067291,10.77078533,0 106.65029144,10.7713623,0 106.64990997,10.77193928,0 106.65000153,10.77199173,0 106.65000153,10.77199173,0 106.6499176,10.77193928,0 106.6495285,10.7725687,0 106.64914703,10.77319813,0 106.64875793,10.77378654,0 106.64837646,10.77437401,0 106.64842224,10.77439976,0 106.64842224,10.77439976,0 106.64836884,10.77436352,0 106.6477356,10.77523232,0 106.64709473,10.77607632,0 106.64716339,10.77611256,0 106.64716339,10.77611256,0 106.64709473,10.7760601,0 106.64624786,10.77721977,0 106.64546967,10.77833652,0 106.64552307,10.778368,0 106.64552307,10.778368,0 106.64546967,10.77832603,0 106.64502716,10.77899647,0 106.64458466,10.7796669,0 106.64411926,10.78031635,0 106.6436615,10.78096676,0 106.64370728,10.78098679,0 106.64370728,10.78098679,0 106.6436615,10.78096104,0 106.64335632,10.7814455,0 106.6431427,10.78195667,0 106.64290619,10.78246784,0 106.64271545,10.78297424,0 106.64278412,10.78299046,0 106.64278412,10.78299046,0 106.64272308,10.78296852,0 106.64253998,10.78356934,0 106.6423645,10.78417015,0 106.64215088,10.78474426,0 106.64193726,10.78531933,0 106.64199066,10.78533459,0 106.64199066,10.78533459,0 106.64192963,10.78530884,0 106.64172363,10.7858696,0 106.64151001,10.78643131,0 106.64113617,10.78728485,0 106.64118195,10.78728962,0 106.64118195,10.78728962,0 106.64113617,10.78727913,0 106.64089966,10.78803539,0 106.64066315,10.78879166,0 106.64041138,10.78953457,0 106.64015961,10.79027748,0 106.64022064,10.79029369,0 106.64022064,10.79029369,0 106.64022064,10.79029369,0 106.64015198,10.79027271,0 106.63983917,10.7911911,0 106.639534,10.79210854,0 106.63922119,10.79302692,0 106.63890839,10.79394531,0 106.63898468,10.79397202,0 106.63898468,10.79397202,0 106.63898468,10.79397202,0 106.63890839,10.79395103,0 106.63859558,10.79496193,0 106.63828278,10.79598427,0 106.63835144,10.79599953,0 106.63835144,10.79599953,0 106.63827515,10.79598427,0 106.63790131,10.79734898,0 106.63751984,10.79870415,0 106.63757324,10.79870892,0 106.63757324,10.79870892,0 106.63751984,10.79869843,0 106.63726044,10.79968071,0 106.63699341,10.80066395,0 106.63704681,10.80067444,0 106.63704681,10.80067444,0 106.63704681,10.80067444,0 106.63697815,10.80065823,0 106.63671112,10.80163383,0 106.63668823,10.80190754,0 106.63634491,10.80246639,0 106.6361084,10.80295563,0 106.63581848,10.80384159,0 106.63555908,10.8047266,0 106.63562775,10.80473232,0 106.63562775,10.80473232,0 106.63562775,10.80473232,0 106.63555145,10.80471611,0 106.6353302,10.80545139,0 106.63510895,10.80618572,0 106.63518524,10.80620193,0 106.63518524,10.80620193,0 106.63511658,10.80618095,0 106.6349411,10.80672932,0 106.63486481,10.80726147,0 106.63486481,10.80756664,0 106.63455963,10.80828857,0 106.63463593,10.80831432,0 106.63463593,10.80831432,0 106.63463593,10.80831432,0 106.63453674,10.80828857,0 106.63423157,10.80925274,0 106.63395691,10.81023788,0 106.63365173,10.81122112,0 106.63334656,10.81220436,0 106.63334656,10.81220436,0 106.63334656,10.81220436,0 106.63334656,10.81220436,0 106.63284302,10.81374741,0 106.63240051,10.81526852,0 106.63193512,10.81680012,0 106.6314621,10.81833172,0 106.6314621,10.81833172,0 106.6314621,10.81833172,0 106.6314621,10.81833172,0 106.63121033,10.81916523,0 106.63095856,10.81999969,0 106.63070679,10.82083321,0 106.63045502,10.82166672,0 106.6301651,10.82242012,0 106.63025665,10.82245159,0 106.63025665,10.82245159,0 106.63025665,10.82245159,0 106.63014984,10.82243061,0 106.62980652,10.82309532,0 106.6292572,10.82365322,0 106.62804413,10.82470703,0 106.62689209,10.82580853,0 106.62574005,10.82691002,0 106.6258316,10.82695675,0 106.6258316,10.82695675,0 106.62575531,10.82691002,0 106.62539673,10.82731533,0 106.62508392,10.82772064,0 106.62480164,10.82815266,0 106.62451935,10.82858467,0 106.62459564,10.82862663,0 106.62459564,10.82862663,0 106.62448883,10.8285799,0 106.62399292,10.82936001,0 106.62349701,10.83013916,0 106.6230011,10.83090878,0 106.62250519,10.83167839,0 106.62201691,10.83244228,0 106.621521,10.83320618,0 106.62102509,10.83397007,0 106.62052917,10.83473396,0 106.6206131,10.83478069,0 106.6206131,10.83478069,0 106.62052155,10.83473873,0 106.61995697,10.83561897,0 106.61940002,10.83649921,0 106.61885071,10.83733177,0 106.61830139,10.8381691,0 106.61840057,10.83822155,0 106.61840057,10.83822155,0 106.61840057,10.83822155,0 106.61828613,10.8381424,0 106.6179657,10.83863163,0 106.61765289,10.83911991,0 106.61734009,10.83960915,0 106.61701965,10.84009743,0 106.61670685,10.84059238,0 106.61639404,10.84108829,0 106.61608887,10.84158611,0 106.61577606,10.84208393,0 106.61547089,10.84256554,0 106.61516571,10.8430481,0 106.61483765,10.84353256,0 106.61450958,10.84401703,0 106.61421204,10.84451294,0 106.61390686,10.8450079,0 106.61360931,10.84550285,0 106.61330414,10.84599876,0 106.61335754,10.846035,0 106.61335754,10.846035,0 106.61335754,10.846035,0 106.61328888,10.84598732,0 106.61288452,10.84662819,0 106.61248016,10.8472681,0 106.61236572,10.84719467,0 106.6128006,10.84649181,0 106.61323547,10.84578991,0 106.61367035,10.84508801,0 106.61410522,10.8443861,0 106.61368561,10.8441124,0 106.6133728,10.8437376,0</coordinates>
        </LineString>
      </Placemark>
      <Folder>
        <name>Trạm dừng (42 trạm)</name>
        <Placemark>
          <name>[BX 01] Bến xe buýt Sài Gòn</name>
          <description><![CDATA[&lt;b&gt;Trạm:&lt;/b&gt; Bến xe buýt Sài Gòn&lt;br/&gt;&lt;b&gt;Mã trạm:&lt;/b&gt; BX 01&lt;br/&gt;&lt;b&gt;Địa chỉ:&lt;/b&gt; BẾN XE BUÝT SÀI GÒN Lê Lai&lt;br/&gt;&lt;b&gt;Khu vực:&lt;/b&gt; Phường Phạm Ngũ Lão, Quận 1&lt;br/&gt;&lt;b&gt;Các tuyến qua trạm:&lt;/b&gt; 03, 04, 102, 109, 13, 140, 171, 172, 18, 19, 20, 27, 28, 34, 36, 39, 52, 65, 69, 72, 75, 86, 88, 93, D4, DL01, DL02, DL03, DL04, DL05, DL06]]></description>
          <styleUrl>#busStopStyle</styleUrl>
          <Point>
            <coordinates>106.689362,10.767676,0</coordinates>
          </Point>
        </Placemark>
        <Placemark>
          <name>[Q1 147] Nhà thờ Huyện Sỹ</name>
          <description><![CDATA[&lt;b&gt;Trạm:&lt;/b&gt; Nhà thờ Huyện Sỹ&lt;br/&gt;&lt;b&gt;Mã trạm:&lt;/b&gt; Q1 147&lt;br/&gt;&lt;b&gt;Địa chỉ:&lt;/b&gt; 206Bis Nguyễn Trãi&lt;br/&gt;&lt;b&gt;Khu vực:&lt;/b&gt; None, Quận 1&lt;br/&gt;&lt;b&gt;Các tuyến qua trạm:&lt;/b&gt; 27, 46, 53, 72-2B]]></description>
          <styleUrl>#busStopStyle</styleUrl>
          <Point>
            <coordinates>106.688591,10.767692,0</coordinates>
          </Point>
        </Placemark>
        <Placemark>
          <name>[Q1 006] Chợ Thái Bình</name>
          <description><![CDATA[&lt;b&gt;Trạm:&lt;/b&gt; Chợ Thái Bình&lt;br/&gt;&lt;b&gt;Mã trạm:&lt;/b&gt; Q1 006&lt;br/&gt;&lt;b&gt;Địa chỉ:&lt;/b&gt; 244 Cống Quỳnh&lt;br/&gt;&lt;b&gt;Khu vực:&lt;/b&gt; None, Quận 1&lt;br/&gt;&lt;b&gt;Các tuyến qua trạm:&lt;/b&gt; 27, 53]]></description>
          <styleUrl>#busStopStyle</styleUrl>
          <Point>
            <coordinates>106.687793,10.766943,0</coordinates>
          </Point>
        </Placemark>
        <Placemark>
          <name>[Q3 072] Trung ương Hội Chữ thập đỏ TP</name>
          <description><![CDATA[&lt;b&gt;Trạm:&lt;/b&gt; Trung ương Hội Chữ thập đỏ TP&lt;br/&gt;&lt;b&gt;Mã trạm:&lt;/b&gt; Q3 072&lt;br/&gt;&lt;b&gt;Địa chỉ:&lt;/b&gt; 464 - 466 Nguyễn Thị Minh Khai&lt;br/&gt;&lt;b&gt;Khu vực:&lt;/b&gt; None, Quận 3&lt;br/&gt;&lt;b&gt;Các tuyến qua trạm:&lt;/b&gt; 05, 06, 14, 27, 38, 53]]></description>
          <styleUrl>#busStopStyle</styleUrl>
          <Point>
            <coordinates>106.683657,10.767723,0</coordinates>
          </Point>
        </Placemark>
        <Placemark>
          <name>[Q3 073] Nhà sách Minh Khai</name>
          <description><![CDATA[&lt;b&gt;Trạm:&lt;/b&gt; Nhà sách Minh Khai&lt;br/&gt;&lt;b&gt;Mã trạm:&lt;/b&gt; Q3 073&lt;br/&gt;&lt;b&gt;Địa chỉ:&lt;/b&gt; 488 Nguyễn Thị Minh Khai&lt;br/&gt;&lt;b&gt;Khu vực:&lt;/b&gt; None, Quận 3&lt;br/&gt;&lt;b&gt;Các tuyến qua trạm:&lt;/b&gt; 05, 06, 14, 27, 38, 53]]></description>
          <styleUrl>#busStopStyle</styleUrl>
          <Point>
            <coordinates>106.68238,10.766395,0</coordinates>
          </Point>
        </Placemark>
        <Placemark>
          <name>[Q3 037] Công viên số 1 Lý Thái Tổ</name>
          <description><![CDATA[&lt;b&gt;Trạm:&lt;/b&gt; Công viên số 1 Lý Thái Tổ&lt;br/&gt;&lt;b&gt;Mã trạm:&lt;/b&gt; Q3 037&lt;br/&gt;&lt;b&gt;Địa chỉ:&lt;/b&gt; 120 Lý Thái Tổ&lt;br/&gt;&lt;b&gt;Khu vực:&lt;/b&gt; None, Quận 3&lt;br/&gt;&lt;b&gt;Các tuyến qua trạm:&lt;/b&gt; 14, 27]]></description>
          <styleUrl>#busStopStyle</styleUrl>
          <Point>
            <coordinates>106.680363,10.765963,0</coordinates>
          </Point>
        </Placemark>
        <Placemark>
          <name>[Q3 038] Nguyễn Đình Chiểu</name>
          <description><![CDATA[&lt;b&gt;Trạm:&lt;/b&gt; Nguyễn Đình Chiểu&lt;br/&gt;&lt;b&gt;Mã trạm:&lt;/b&gt; Q3 038&lt;br/&gt;&lt;b&gt;Địa chỉ:&lt;/b&gt; 170 Lý Thái Tổ&lt;br/&gt;&lt;b&gt;Khu vực:&lt;/b&gt; None, Quận 3&lt;br/&gt;&lt;b&gt;Các tuyến qua trạm:&lt;/b&gt; 14, 150, 27, 69]]></description>
          <styleUrl>#busStopStyle</styleUrl>
          <Point>
            <coordinates>106.678099,10.76668,0</coordinates>
          </Point>
        </Placemark>
        <Placemark>
          <name>[Q3 039] Chợ hoa Hồ Thị Kỷ</name>
          <description><![CDATA[&lt;b&gt;Trạm:&lt;/b&gt; Chợ hoa Hồ Thị Kỷ&lt;br/&gt;&lt;b&gt;Mã trạm:&lt;/b&gt; Q3 039&lt;br/&gt;&lt;b&gt;Địa chỉ:&lt;/b&gt; 306 Lý Thái Tổ&lt;br/&gt;&lt;b&gt;Khu vực:&lt;/b&gt; None, Quận 3&lt;br/&gt;&lt;b&gt;Các tuyến qua trạm:&lt;/b&gt; 14, 150, 27, 69]]></description>
          <styleUrl>#busStopStyle</styleUrl>
          <Point>
            <coordinates>106.675664,10.767423,0</coordinates>
          </Point>
        </Placemark>
        <Placemark>
          <name>[Q10 029] Vòng xoay Lý Thái Tổ</name>
          <description><![CDATA[&lt;b&gt;Trạm:&lt;/b&gt; Vòng xoay Lý Thái Tổ&lt;br/&gt;&lt;b&gt;Mã trạm:&lt;/b&gt; Q10 029&lt;br/&gt;&lt;b&gt;Địa chỉ:&lt;/b&gt; 430 Lý Thái Tổ&lt;br/&gt;&lt;b&gt;Khu vực:&lt;/b&gt; None, Quận 10&lt;br/&gt;&lt;b&gt;Các tuyến qua trạm:&lt;/b&gt; 14, 27, 69]]></description>
          <styleUrl>#busStopStyle</styleUrl>
          <Point>
            <coordinates>106.673051,10.767865,0</coordinates>
          </Point>
        </Placemark>
        <Placemark>
          <name>[Q10 030] Bện viện Nhi Đồng 1</name>
          <description><![CDATA[&lt;b&gt;Trạm:&lt;/b&gt; Bện viện Nhi Đồng 1&lt;br/&gt;&lt;b&gt;Mã trạm:&lt;/b&gt; Q10 030&lt;br/&gt;&lt;b&gt;Địa chỉ:&lt;/b&gt; 532 Lý Thái Tổ&lt;br/&gt;&lt;b&gt;Khu vực:&lt;/b&gt; None, Quận 10&lt;br/&gt;&lt;b&gt;Các tuyến qua trạm:&lt;/b&gt; 14, 27, 38, 69]]></description>
          <styleUrl>#busStopStyle</styleUrl>
          <Point>
            <coordinates>106.669739,10.768029,0</coordinates>
          </Point>
        </Placemark>
        <Placemark>
          <name>[Q10 008] Ngã ba Nguyễn Kim</name>
          <description><![CDATA[&lt;b&gt;Trạm:&lt;/b&gt; Ngã ba Nguyễn Kim&lt;br/&gt;&lt;b&gt;Mã trạm:&lt;/b&gt; Q10 008&lt;br/&gt;&lt;b&gt;Địa chỉ:&lt;/b&gt; 626-628 Đường 3/2&lt;br/&gt;&lt;b&gt;Khu vực:&lt;/b&gt; None, Quận 10&lt;br/&gt;&lt;b&gt;Các tuyến qua trạm:&lt;/b&gt; 14, 27]]></description>
          <styleUrl>#busStopStyle</styleUrl>
          <Point>
            <coordinates>106.661743,10.764972,0</coordinates>
          </Point>
        </Placemark>
        <Placemark>
          <name>[Q11 001] Nhà sách Phương Nam</name>
          <description><![CDATA[&lt;b&gt;Trạm:&lt;/b&gt; Nhà sách Phương Nam&lt;br/&gt;&lt;b&gt;Mã trạm:&lt;/b&gt; Q11 001&lt;br/&gt;&lt;b&gt;Địa chỉ:&lt;/b&gt; 940 (6B) Đường 3/2&lt;br/&gt;&lt;b&gt;Khu vực:&lt;/b&gt; None, Quận 11&lt;br/&gt;&lt;b&gt;Các tuyến qua trạm:&lt;/b&gt; 103, 14, 27]]></description>
          <styleUrl>#busStopStyle</styleUrl>
          <Point>
            <coordinates>106.658409,10.763115,0</coordinates>
          </Point>
        </Placemark>
        <Placemark>
          <name>[Q11 029] Parkson</name>
          <description><![CDATA[&lt;b&gt;Trạm:&lt;/b&gt; Parkson&lt;br/&gt;&lt;b&gt;Mã trạm:&lt;/b&gt; Q11 029&lt;br/&gt;&lt;b&gt;Địa chỉ:&lt;/b&gt; Đối diện 195 (155) Lê Đại Hành&lt;br/&gt;&lt;b&gt;Khu vực:&lt;/b&gt; None, Quận 11&lt;br/&gt;&lt;b&gt;Các tuyến qua trạm:&lt;/b&gt; 27]]></description>
          <styleUrl>#busStopStyle</styleUrl>
          <Point>
            <coordinates>106.656218,10.763655,0</coordinates>
          </Point>
        </Placemark>
        <Placemark>
          <name>[Q11 030] Tôn Thất Hiệp</name>
          <description><![CDATA[&lt;b&gt;Trạm:&lt;/b&gt; Tôn Thất Hiệp&lt;br/&gt;&lt;b&gt;Mã trạm:&lt;/b&gt; Q11 030&lt;br/&gt;&lt;b&gt;Địa chỉ:&lt;/b&gt; Đối diện 281 (265) Lê Đại Hành&lt;br/&gt;&lt;b&gt;Khu vực:&lt;/b&gt; None, Quận 11&lt;br/&gt;&lt;b&gt;Các tuyến qua trạm:&lt;/b&gt; 27]]></description>
          <styleUrl>#busStopStyle</styleUrl>
          <Point>
            <coordinates>106.65485,10.765562,0</coordinates>
          </Point>
        </Placemark>
        <Placemark>
          <name>[Q11 031] Trường Đua Phú Thọ</name>
          <description><![CDATA[&lt;b&gt;Trạm:&lt;/b&gt; Trường Đua Phú Thọ&lt;br/&gt;&lt;b&gt;Mã trạm:&lt;/b&gt; Q11 031&lt;br/&gt;&lt;b&gt;Địa chỉ:&lt;/b&gt; Đối diện 349 Lê Đại Hành&lt;br/&gt;&lt;b&gt;Khu vực:&lt;/b&gt; None, Quận 11&lt;br/&gt;&lt;b&gt;Các tuyến qua trạm:&lt;/b&gt; 27]]></description>
          <styleUrl>#busStopStyle</styleUrl>
          <Point>
            <coordinates>106.653616,10.767344,0</coordinates>
          </Point>
        </Placemark>
        <Placemark>
          <name>[Q11 032] Siêu thị Coopmart</name>
          <description><![CDATA[&lt;b&gt;Trạm:&lt;/b&gt; Siêu thị Coopmart&lt;br/&gt;&lt;b&gt;Mã trạm:&lt;/b&gt; Q11 032&lt;br/&gt;&lt;b&gt;Địa chỉ:&lt;/b&gt; 2 Lê Đại Hành&lt;br/&gt;&lt;b&gt;Khu vực:&lt;/b&gt; None, Quận 11&lt;br/&gt;&lt;b&gt;Các tuyến qua trạm:&lt;/b&gt; 27]]></description>
          <styleUrl>#busStopStyle</styleUrl>
          <Point>
            <coordinates>106.652902,10.768466,0</coordinates>
          </Point>
        </Placemark>
        <Placemark>
          <name>[QTB 040] Vòng xoay Lê Đại Hành</name>
          <description><![CDATA[&lt;b&gt;Trạm:&lt;/b&gt; Vòng xoay Lê Đại Hành&lt;br/&gt;&lt;b&gt;Mã trạm:&lt;/b&gt; QTB 040&lt;br/&gt;&lt;b&gt;Địa chỉ:&lt;/b&gt; 52 Âu Cơ&lt;br/&gt;&lt;b&gt;Khu vực:&lt;/b&gt; None, Quận Tân Bình&lt;br/&gt;&lt;b&gt;Các tuyến qua trạm:&lt;/b&gt; 27, 38]]></description>
          <styleUrl>#busStopStyle</styleUrl>
          <Point>
            <coordinates>106.651599,10.769647,0</coordinates>
          </Point>
        </Placemark>
        <Placemark>
          <name>[QTB 041] Chợ Tân Phước</name>
          <description><![CDATA[&lt;b&gt;Trạm:&lt;/b&gt; Chợ Tân Phước&lt;br/&gt;&lt;b&gt;Mã trạm:&lt;/b&gt; QTB 041&lt;br/&gt;&lt;b&gt;Địa chỉ:&lt;/b&gt; 130 Âu Cơ&lt;br/&gt;&lt;b&gt;Khu vực:&lt;/b&gt; None, Quận Tân Bình&lt;br/&gt;&lt;b&gt;Các tuyến qua trạm:&lt;/b&gt; 27, 38]]></description>
          <styleUrl>#busStopStyle</styleUrl>
          <Point>
            <coordinates>106.65,10.771992,0</coordinates>
          </Point>
        </Placemark>
        <Placemark>
          <name>[QTB 042] Ngã tư Lạc Long Quân</name>
          <description><![CDATA[&lt;b&gt;Trạm:&lt;/b&gt; Ngã tư Lạc Long Quân&lt;br/&gt;&lt;b&gt;Mã trạm:&lt;/b&gt; QTB 042&lt;br/&gt;&lt;b&gt;Địa chỉ:&lt;/b&gt; 274 (260) Âu Cơ&lt;br/&gt;&lt;b&gt;Khu vực:&lt;/b&gt; None, Quận Tân Bình&lt;br/&gt;&lt;b&gt;Các tuyến qua trạm:&lt;/b&gt; 27, 38]]></description>
          <styleUrl>#busStopStyle</styleUrl>
          <Point>
            <coordinates>106.648423,10.7744,0</coordinates>
          </Point>
        </Placemark>
        <Placemark>
          <name>[QTB 043] Ủy ban nhân dân Phường 10</name>
          <description><![CDATA[&lt;b&gt;Trạm:&lt;/b&gt; Ủy ban nhân dân Phường 10&lt;br/&gt;&lt;b&gt;Mã trạm:&lt;/b&gt; QTB 043&lt;br/&gt;&lt;b&gt;Địa chỉ:&lt;/b&gt; 290 (Ủy ban nhân dân phường 10) Âu Cơ&lt;br/&gt;&lt;b&gt;Khu vực:&lt;/b&gt; None, Quận Tân Bình&lt;br/&gt;&lt;b&gt;Các tuyến qua trạm:&lt;/b&gt; 27]]></description>
          <styleUrl>#busStopStyle</styleUrl>
          <Point>
            <coordinates>106.647162,10.776113,0</coordinates>
          </Point>
        </Placemark>
        <Placemark>
          <name>[QTB 044] Chợ Trần Văn Quang</name>
          <description><![CDATA[&lt;b&gt;Trạm:&lt;/b&gt; Chợ Trần Văn Quang&lt;br/&gt;&lt;b&gt;Mã trạm:&lt;/b&gt; QTB 044&lt;br/&gt;&lt;b&gt;Địa chỉ:&lt;/b&gt; 402 Âu Cơ&lt;br/&gt;&lt;b&gt;Khu vực:&lt;/b&gt; None, Quận Tân Bình&lt;br/&gt;&lt;b&gt;Các tuyến qua trạm:&lt;/b&gt; 27]]></description>
          <styleUrl>#busStopStyle</styleUrl>
          <Point>
            <coordinates>106.645526,10.778368,0</coordinates>
          </Point>
        </Placemark>
        <Placemark>
          <name>[QTB 045] Công ty Bông Bạch Tuyết</name>
          <description><![CDATA[&lt;b&gt;Trạm:&lt;/b&gt; Công ty Bông Bạch Tuyết&lt;br/&gt;&lt;b&gt;Mã trạm:&lt;/b&gt; QTB 045&lt;br/&gt;&lt;b&gt;Địa chỉ:&lt;/b&gt; 548 (Công ty Bạch Tuyết) Âu Cơ&lt;br/&gt;&lt;b&gt;Khu vực:&lt;/b&gt; None, Quận Tân Bình&lt;br/&gt;&lt;b&gt;Các tuyến qua trạm:&lt;/b&gt; 27]]></description>
          <styleUrl>#busStopStyle</styleUrl>
          <Point>
            <coordinates>106.643708,10.780987,0</coordinates>
          </Point>
        </Placemark>
        <Placemark>
          <name>[QTB 046] Bệnh Viện Tân Phú</name>
          <description><![CDATA[&lt;b&gt;Trạm:&lt;/b&gt; Bệnh Viện Tân Phú&lt;br/&gt;&lt;b&gt;Mã trạm:&lt;/b&gt; QTB 046&lt;br/&gt;&lt;b&gt;Địa chỉ:&lt;/b&gt; 584-590 Âu Cơ&lt;br/&gt;&lt;b&gt;Khu vực:&lt;/b&gt; None, Quận Tân Bình&lt;br/&gt;&lt;b&gt;Các tuyến qua trạm:&lt;/b&gt; 23, 27]]></description>
          <styleUrl>#busStopStyle</styleUrl>
          <Point>
            <coordinates>106.642785,10.78299,0</coordinates>
          </Point>
        </Placemark>
        <Placemark>
          <name>[QTB 047] Ngã tư Thoại Ngọc Hầu</name>
          <description><![CDATA[&lt;b&gt;Trạm:&lt;/b&gt; Ngã tư Thoại Ngọc Hầu&lt;br/&gt;&lt;b&gt;Mã trạm:&lt;/b&gt; QTB 047&lt;br/&gt;&lt;b&gt;Địa chỉ:&lt;/b&gt; 678 Âu Cơ&lt;br/&gt;&lt;b&gt;Khu vực:&lt;/b&gt; None, Quận Tân Bình&lt;br/&gt;&lt;b&gt;Các tuyến qua trạm:&lt;/b&gt; 23, 27]]></description>
          <styleUrl>#busStopStyle</styleUrl>
          <Point>
            <coordinates>106.641991,10.785335,0</coordinates>
          </Point>
        </Placemark>
        <Placemark>
          <name>[QTB 048] Bàu Cát 8</name>
          <description><![CDATA[&lt;b&gt;Trạm:&lt;/b&gt; Bàu Cát 8&lt;br/&gt;&lt;b&gt;Mã trạm:&lt;/b&gt; QTB 048&lt;br/&gt;&lt;b&gt;Địa chỉ:&lt;/b&gt; 722 Âu Cơ&lt;br/&gt;&lt;b&gt;Khu vực:&lt;/b&gt; None, Quận Tân Bình&lt;br/&gt;&lt;b&gt;Các tuyến qua trạm:&lt;/b&gt; 23, 27, 62, 64]]></description>
          <styleUrl>#busStopStyle</styleUrl>
          <Point>
            <coordinates>106.641182,10.78729,0</coordinates>
          </Point>
        </Placemark>
        <Placemark>
          <name>[QTB 049] Chợ Bàu Cát</name>
          <description><![CDATA[&lt;b&gt;Trạm:&lt;/b&gt; Chợ Bàu Cát&lt;br/&gt;&lt;b&gt;Mã trạm:&lt;/b&gt; QTB 049&lt;br/&gt;&lt;b&gt;Địa chỉ:&lt;/b&gt; 794 Âu Cơ&lt;br/&gt;&lt;b&gt;Khu vực:&lt;/b&gt; None, Quận Tân Bình&lt;br/&gt;&lt;b&gt;Các tuyến qua trạm:&lt;/b&gt; 27, 62, 64]]></description>
          <styleUrl>#busStopStyle</styleUrl>
          <Point>
            <coordinates>106.640221,10.790294,0</coordinates>
          </Point>
        </Placemark>
        <Placemark>
          <name>[QTB 050] Công ty Giấy Mai Lan</name>
          <description><![CDATA[&lt;b&gt;Trạm:&lt;/b&gt; Công ty Giấy Mai Lan&lt;br/&gt;&lt;b&gt;Mã trạm:&lt;/b&gt; QTB 050&lt;br/&gt;&lt;b&gt;Địa chỉ:&lt;/b&gt; 129 Âu Cơ&lt;br/&gt;&lt;b&gt;Khu vực:&lt;/b&gt; None, Quận Tân Bình&lt;br/&gt;&lt;b&gt;Các tuyến qua trạm:&lt;/b&gt; 27, 30, 62]]></description>
          <styleUrl>#busStopStyle</styleUrl>
          <Point>
            <coordinates>106.638982,10.793972,0</coordinates>
          </Point>
        </Placemark>
        <Placemark>
          <name>[QTB 051] Ngã ba Ba Vân</name>
          <description><![CDATA[&lt;b&gt;Trạm:&lt;/b&gt; Ngã ba Ba Vân&lt;br/&gt;&lt;b&gt;Mã trạm:&lt;/b&gt; QTB 051&lt;br/&gt;&lt;b&gt;Địa chỉ:&lt;/b&gt; 928 Âu Cơ&lt;br/&gt;&lt;b&gt;Khu vực:&lt;/b&gt; None, Quận Tân Bình&lt;br/&gt;&lt;b&gt;Các tuyến qua trạm:&lt;/b&gt; 27, 62]]></description>
          <styleUrl>#busStopStyle</styleUrl>
          <Point>
            <coordinates>106.638349,10.796,0</coordinates>
          </Point>
        </Placemark>
        <Placemark>
          <name>[QTB 052] Chợ Võ Thành Trang</name>
          <description><![CDATA[&lt;b&gt;Trạm:&lt;/b&gt; Chợ Võ Thành Trang&lt;br/&gt;&lt;b&gt;Mã trạm:&lt;/b&gt; QTB 052&lt;br/&gt;&lt;b&gt;Địa chỉ:&lt;/b&gt; 988-990 Âu Cơ&lt;br/&gt;&lt;b&gt;Khu vực:&lt;/b&gt; None, Quận Tân Bình&lt;br/&gt;&lt;b&gt;Các tuyến qua trạm:&lt;/b&gt; 27, 62]]></description>
          <styleUrl>#busStopStyle</styleUrl>
          <Point>
            <coordinates>106.637576,10.798709,0</coordinates>
          </Point>
        </Placemark>
        <Placemark>
          <name>[QTB 053] Ngã ba Bà Quẹo</name>
          <description><![CDATA[&lt;b&gt;Trạm:&lt;/b&gt; Ngã ba Bà Quẹo&lt;br/&gt;&lt;b&gt;Mã trạm:&lt;/b&gt; QTB 053&lt;br/&gt;&lt;b&gt;Địa chỉ:&lt;/b&gt; 1064 Âu Cơ&lt;br/&gt;&lt;b&gt;Khu vực:&lt;/b&gt; None, Quận Tân Bình&lt;br/&gt;&lt;b&gt;Các tuyến qua trạm:&lt;/b&gt; 27, 62]]></description>
          <styleUrl>#busStopStyle</styleUrl>
          <Point>
            <coordinates>106.637045,10.800674,0</coordinates>
          </Point>
        </Placemark>
        <Placemark>
          <name>[QTB 073] Ngã tư Tân Kỳ Tân Quý</name>
          <description><![CDATA[&lt;b&gt;Trạm:&lt;/b&gt; Ngã tư Tân Kỳ Tân Quý&lt;br/&gt;&lt;b&gt;Mã trạm:&lt;/b&gt; QTB 073&lt;br/&gt;&lt;b&gt;Địa chỉ:&lt;/b&gt; 638 Trường Chinh&lt;br/&gt;&lt;b&gt;Khu vực:&lt;/b&gt; None, Quận Tân Bình&lt;br/&gt;&lt;b&gt;Các tuyến qua trạm:&lt;/b&gt; 13, 23, 27, 62, 65, 94]]></description>
          <styleUrl>#busStopStyle</styleUrl>
          <Point>
            <coordinates>106.635629,10.804732,0</coordinates>
          </Point>
        </Placemark>
        <Placemark>
          <name>[QTB 074] Siêu thị Big C</name>
          <description><![CDATA[&lt;b&gt;Trạm:&lt;/b&gt; Siêu thị Big C&lt;br/&gt;&lt;b&gt;Mã trạm:&lt;/b&gt; QTB 074&lt;br/&gt;&lt;b&gt;Địa chỉ:&lt;/b&gt; 680 Trường Chinh&lt;br/&gt;&lt;b&gt;Khu vực:&lt;/b&gt; None, Quận Tân Bình&lt;br/&gt;&lt;b&gt;Các tuyến qua trạm:&lt;/b&gt; 13, 23, 27, 62, 65, 94]]></description>
          <styleUrl>#busStopStyle</styleUrl>
          <Point>
            <coordinates>106.635184,10.806202,0</coordinates>
          </Point>
        </Placemark>
        <Placemark>
          <name>[QTB 075] Mũi tàu Cộng Hòa</name>
          <description><![CDATA[&lt;b&gt;Trạm:&lt;/b&gt; Mũi tàu Cộng Hòa&lt;br/&gt;&lt;b&gt;Mã trạm:&lt;/b&gt; QTB 075&lt;br/&gt;&lt;b&gt;Địa chỉ:&lt;/b&gt; 19B1 Trường Chinh&lt;br/&gt;&lt;b&gt;Khu vực:&lt;/b&gt; None, Quận Tân Bình&lt;br/&gt;&lt;b&gt;Các tuyến qua trạm:&lt;/b&gt; 04, 104, 13, 145, 16, 23, 27, 28, 62, 63-1, 65, 94]]></description>
          <styleUrl>#busStopStyle</styleUrl>
          <Point>
            <coordinates>106.634638,10.808314,0</coordinates>
          </Point>
        </Placemark>
        <Placemark>
          <name>[QTB 076] Ngã ba Chế Lan Viên</name>
          <description><![CDATA[&lt;b&gt;Trạm:&lt;/b&gt; Ngã ba Chế Lan Viên&lt;br/&gt;&lt;b&gt;Mã trạm:&lt;/b&gt; QTB 076&lt;br/&gt;&lt;b&gt;Địa chỉ:&lt;/b&gt; Đối diện đường Chế Lan Viên Trường Chinh&lt;br/&gt;&lt;b&gt;Khu vực:&lt;/b&gt; None, Quận Tân Bình&lt;br/&gt;&lt;b&gt;Các tuyến qua trạm:&lt;/b&gt; 04, 104, 13, 145, 23, 27, 28, 62, 65, 94]]></description>
          <styleUrl>#busStopStyle</styleUrl>
          <Point>
            <coordinates>106.633349,10.812204,0</coordinates>
          </Point>
        </Placemark>
        <Placemark>
          <name>[QTB 078] UBND Phường 15</name>
          <description><![CDATA[&lt;b&gt;Trạm:&lt;/b&gt; UBND Phường 15&lt;br/&gt;&lt;b&gt;Mã trạm:&lt;/b&gt; QTB 078&lt;br/&gt;&lt;b&gt;Địa chỉ:&lt;/b&gt; 850 Trường Chinh&lt;br/&gt;&lt;b&gt;Khu vực:&lt;/b&gt; None, Quận Tân Bình&lt;br/&gt;&lt;b&gt;Các tuyến qua trạm:&lt;/b&gt; 04, 104, 13, 145, 23, 27, 62, 65, 94]]></description>
          <styleUrl>#busStopStyle</styleUrl>
          <Point>
            <coordinates>106.631461,10.818332,0</coordinates>
          </Point>
        </Placemark>
        <Placemark>
          <name>[QTB 079] Khu Công Nghiệp Tân Bình</name>
          <description><![CDATA[&lt;b&gt;Trạm:&lt;/b&gt; Khu Công Nghiệp Tân Bình&lt;br/&gt;&lt;b&gt;Mã trạm:&lt;/b&gt; QTB 079&lt;br/&gt;&lt;b&gt;Địa chỉ:&lt;/b&gt; 932 Trường Chinh&lt;br/&gt;&lt;b&gt;Khu vực:&lt;/b&gt; None, Quận Tân Bình&lt;br/&gt;&lt;b&gt;Các tuyến qua trạm:&lt;/b&gt; 04, 104, 13, 145, 23, 27, 32, 41, 62, 65, 94]]></description>
          <styleUrl>#busStopStyle</styleUrl>
          <Point>
            <coordinates>106.630254,10.822452,0</coordinates>
          </Point>
        </Placemark>
        <Placemark>
          <name>[Q12 128] Cầu Tham Lương - Siêu thị Thiên Hòa</name>
          <description><![CDATA[&lt;b&gt;Trạm:&lt;/b&gt; Cầu Tham Lương - Siêu thị Thiên Hòa&lt;br/&gt;&lt;b&gt;Mã trạm:&lt;/b&gt; Q12 128&lt;br/&gt;&lt;b&gt;Địa chỉ:&lt;/b&gt; 60A-B (1/17A) Trường Chinh&lt;br/&gt;&lt;b&gt;Khu vực:&lt;/b&gt; None, Quận 12&lt;br/&gt;&lt;b&gt;Các tuyến qua trạm:&lt;/b&gt; 04, 104, 13, 145, 23, 27, 41, 62, 65, 94]]></description>
          <styleUrl>#busStopStyle</styleUrl>
          <Point>
            <coordinates>106.625828,10.826957,0</coordinates>
          </Point>
        </Placemark>
        <Placemark>
          <name>[Q12 129] Chùa Vĩnh Phước</name>
          <description><![CDATA[&lt;b&gt;Trạm:&lt;/b&gt; Chùa Vĩnh Phước&lt;br/&gt;&lt;b&gt;Mã trạm:&lt;/b&gt; Q12 129&lt;br/&gt;&lt;b&gt;Địa chỉ:&lt;/b&gt; 110 (189/4) Trường Chinh&lt;br/&gt;&lt;b&gt;Khu vực:&lt;/b&gt; None, Quận 12&lt;br/&gt;&lt;b&gt;Các tuyến qua trạm:&lt;/b&gt; 04, 104, 13, 145, 27, 41, 65, 94]]></description>
          <styleUrl>#busStopStyle</styleUrl>
          <Point>
            <coordinates>106.624594,10.828627,0</coordinates>
          </Point>
        </Placemark>
        <Placemark>
          <name>[Q12 132] Chùa Lạc Quang</name>
          <description><![CDATA[&lt;b&gt;Trạm:&lt;/b&gt; Chùa Lạc Quang&lt;br/&gt;&lt;b&gt;Mã trạm:&lt;/b&gt; Q12 132&lt;br/&gt;&lt;b&gt;Địa chỉ:&lt;/b&gt; 408 Trường Chinh&lt;br/&gt;&lt;b&gt;Khu vực:&lt;/b&gt; None, Quận 12&lt;br/&gt;&lt;b&gt;Các tuyến qua trạm:&lt;/b&gt; 04, 104, 13, 145, 27, 41, 65, 94]]></description>
          <styleUrl>#busStopStyle</styleUrl>
          <Point>
            <coordinates>106.620614,10.834781,0</coordinates>
          </Point>
        </Placemark>
        <Placemark>
          <name>[Q12 131] Bitis</name>
          <description><![CDATA[&lt;b&gt;Trạm:&lt;/b&gt; Bitis&lt;br/&gt;&lt;b&gt;Mã trạm:&lt;/b&gt; Q12 131&lt;br/&gt;&lt;b&gt;Địa chỉ:&lt;/b&gt; 590 (640) Trường Chinh&lt;br/&gt;&lt;b&gt;Khu vực:&lt;/b&gt; None, Quận 12&lt;br/&gt;&lt;b&gt;Các tuyến qua trạm:&lt;/b&gt; 04, 104, 13, 145, 27, 41, 65, 94]]></description>
          <styleUrl>#busStopStyle</styleUrl>
          <Point>
            <coordinates>106.618398,10.838222,0</coordinates>
          </Point>
        </Placemark>
        <Placemark>
          <name>[Q12 123] Bến xe An Sương</name>
          <description><![CDATA[&lt;b&gt;Trạm:&lt;/b&gt; Bến xe An Sương&lt;br/&gt;&lt;b&gt;Mã trạm:&lt;/b&gt; Q12 123&lt;br/&gt;&lt;b&gt;Địa chỉ:&lt;/b&gt; 142 Quốc lộ 22&lt;br/&gt;&lt;b&gt;Khu vực:&lt;/b&gt; None, Quận 12&lt;br/&gt;&lt;b&gt;Các tuyến qua trạm:&lt;/b&gt; 151, 27, 41, 65, 71]]></description>
          <styleUrl>#busStopStyle</styleUrl>
          <Point>
            <coordinates>106.613361,10.846035,0</coordinates>
          </Point>
        </Placemark>
        <Placemark>
          <name>[BX41] Bến xe An Sương</name>
          <description><![CDATA[&lt;b&gt;Trạm:&lt;/b&gt; Bến xe An Sương&lt;br/&gt;&lt;b&gt;Mã trạm:&lt;/b&gt; BX41&lt;br/&gt;&lt;b&gt;Địa chỉ:&lt;/b&gt; Bến xe An Sương Quốc lộ 22&lt;br/&gt;&lt;b&gt;Khu vực:&lt;/b&gt; None, Quận 12&lt;br/&gt;&lt;b&gt;Các tuyến qua trạm:&lt;/b&gt; 04, 104, 122, 151, 27, 33, 41, 61-3, 62-5, 65, 71, 74, 85]]></description>
          <styleUrl>#busStopStyle</styleUrl>
          <Point>
            <coordinates>106.61337280273438,10.843737602233887,0</coordinates>
          </Point>
        </Placemark>
      </Folder>
    </Folder>
    <Folder>
      <name>Lượt về: Bến xe An Sương → Bến xe buýt Sài Gòn (15.29 km)</name>
      <Placemark>
        <name>B 27 - Đường đi Lượt về</name>
        <description><![CDATA[&lt;b&gt;Tuyến:&lt;/b&gt; B 27 - Bến xe buýt Sài Gòn - Âu Cơ - Bến xe An Sương&lt;br/&gt;&lt;b&gt;Lượt:&lt;/b&gt; Lượt về&lt;br/&gt;&lt;b&gt;Cự ly:&lt;/b&gt; 15.29 km&lt;br/&gt;&lt;b&gt;Thời gian hành trình:&lt;/b&gt; 65 phút&lt;br/&gt;&lt;b&gt;Thời gian hoạt động:&lt;/b&gt; 5:00 - 20:00]]></description>
        <styleUrl>#routeLineStyle</styleUrl>
        <LineString>
          <tessellate>1</tessellate>
          <coordinates>106.6133728,10.8437376,0 106.61418152,10.84418106,0 106.61734772,10.83889103,0 106.61734772,10.83889103,0 106.61751556,10.83894348,0 106.6203537,10.83460712,0 106.62020874,10.83449745,0 106.62020874,10.83449745,0 106.62020874,10.83449745,0 106.62033844,10.83462811,0 106.62194061,10.83214664,0 106.62179565,10.83201981,0 106.62179565,10.83201981,0 106.62179565,10.83201981,0 106.62179565,10.83201981,0 106.62197876,10.83206749,0 106.62510681,10.82725239,0 106.62592316,10.82639885,0 106.62586212,10.82623959,0 106.62586212,10.82623959,0 106.62586212,10.82623959,0 106.62586212,10.82623959,0 106.62600708,10.82635117,0 106.62802124,10.82440186,0 106.62945557,10.82314205,0 106.62996674,10.82238388,0 106.62982178,10.82231522,0 106.62982178,10.82231522,0 106.62982178,10.82231522,0 106.62982178,10.82231522,0 106.62982178,10.82231522,0 106.62982178,10.82231522,0 106.62992859,10.8223629,0 106.63041687,10.82091904,0 106.63085175,10.81945419,0 106.63061523,10.81938553,0 106.63061523,10.81938553,0 106.63061523,10.81938553,0 106.63061523,10.81938553,0 106.63061523,10.81938553,0 106.63082123,10.81945419,0 106.63124084,10.81818676,0 106.63166809,10.81691933,0 106.63201904,10.81568718,0 106.63237762,10.81445503,0 106.63237762,10.81445503,0 106.63259888,10.81373405,0 106.63282013,10.81301308,0 106.63304138,10.8122921,0 106.633255,10.81157112,0 106.63346863,10.81084919,0 106.63368988,10.81012726,0 106.63394165,10.80940533,0 106.63414001,10.80870533,0 106.63401794,10.80868912,0 106.63401794,10.80868912,0 106.63414001,10.80871582,0 106.63453674,10.80748463,0 106.63493346999999,10.80625439,0 106.63477325,10.80621243,0 106.63477325,10.80621243,0 106.63495636,10.80626011,0 106.63519287,10.80554581,0 106.63542938,10.8048315,0 106.63526917,10.80480003,0 106.63526917,10.80480003,0 106.63542175,10.8048315,0 106.63574982,10.80381012,0 106.63608551,10.80279255,0 106.63667297,10.80179691,0 106.63677216,10.80128288,0 106.63687134,10.80076885,0 106.6368103,10.80075932,0 106.6368103,10.80075932,0 106.63687134,10.80076885,0 106.63704681,10.80013657,0 106.63721466,10.79950428,0 106.63739777,10.7988615,0 106.63758087,10.79822445,0 106.63749695,10.7982111,0 106.63749695,10.7982111,0 106.63749695,10.7982111,0 106.63755798,10.79822445,0 106.63791656,10.79697227,0 106.63827515,10.79572105,0 106.63848114,10.79501534,0 106.63869476,10.79431438,0 106.63861847,10.79428291,0 106.63861847,10.79428291,0 106.63861847,10.79428291,0 106.63861847,10.79428291,0 106.63868713,10.79429817,0 106.63909912,10.79309464,0 106.63951111,10.79189014,0 106.63991547,10.79068851,0 106.64032745,10.78948689,0 106.64025116,10.7894659,0 106.64025116,10.7894659,0 106.64032745,10.78948689,0 106.64080048,10.78805447,0 106.64129639,10.78662586,0 106.64123535,10.78660488,0 106.64123535,10.78660488,0 106.64123535,10.78660488,0 106.64123535,10.78660488,0 106.64130402,10.78663158,0 106.64154053,10.78607273,0 106.64181519,10.78535557,0 106.64208984,10.78463936,0 106.64240265,10.78373241,0 106.64233398,10.78371239,0 106.64233398,10.78371239,0 106.64233398,10.78371239,0 106.64233398,10.78371239,0 106.64240265,10.78372192,0 106.64263153,10.78294277,0 106.64294434,10.78216267,0 106.64329529,10.78139877,0 106.64376068,10.78066635,0 106.64369965,10.78062344,0 106.64369965,10.78062344,0 106.64378357,10.78067684,0 106.64421082,10.7800312,0 106.64463806,10.77938557,0 106.64505005,10.7787714,0 106.64546204,10.77815723,0 106.64533234,10.77809429,0 106.64533234,10.77809429,0 106.64546967,10.77817345,0 106.64593506,10.77751732,0 106.64640045,10.77686119,0 106.64689636,10.77620792,0 106.64738464,10.77555466,0 106.64723969,10.77545929,0 106.64723969,10.77545929,0 106.64738464,10.77555943,0 106.64772034,10.77510643,0 106.64805603,10.77465343,0 106.64850616,10.7740097,0 106.64891052,10.77335644,0 106.64886475,10.77332973,0 106.64886475,10.77332973,0 106.64893341,10.77335644,0 106.64929962,10.77275372,0 106.64966583,10.77215004,0 106.6500473,10.77155113,0 106.6504364,10.77095318,0 106.6504364,10.77095318,0 106.65047455,10.77097511,0 106.65155792,10.76951504,0 106.6515274,10.76948261,0 106.6515274,10.76948261,0 106.65185547,10.76908779,0 106.6518631,10.76887703,0 106.65206146,10.76881886,0 106.6522522,10.76873016,0 106.65241241,10.76871872,0 106.65270233,10.76845551,0 106.65337372,10.76733017,0 106.65335846,10.76728058,0 106.65335846,10.76728058,0 106.65341949,10.76730156,0 106.65463257,10.76555157,0 106.65461731,10.76548386,0 106.65461731,10.76548386,0 106.65461731,10.76548386,0 106.65467072,10.76550484,0 106.65632629,10.76320171,0 106.65631866,10.76311684,0 106.65631866,10.76311684,0 106.65631866,10.76311684,0 106.65634918,10.76315403,0 106.65703583,10.76216888,0 106.65786743,10.76261139,0 106.65788269,10.7625742,0 106.65788269,10.7625742,0 106.65785217,10.76261139,0 106.65865326,10.76304913,0 106.65945435,10.76348591,0 106.6602478,10.76392365,0 106.66104889,10.76436043,0 106.66107941,10.7643404,0 106.66107941,10.7643404,0 106.66106415,10.76437664,0 106.66195679,10.76484585,0 106.66284943,10.76531506,0 106.66372681,10.76578617,0 106.66461182,10.76625824,0 106.66462708,10.76623154,0 106.66462708,10.76623154,0 106.66459656,10.76626873,0 106.66625214,10.76716423,0 106.66784668,10.7680397,0 106.66820526,10.76791286,0 106.66930389,10.76786518,0 106.67040253,10.76781845,0 106.67037964,10.76776505,0 106.67037964,10.76776505,0 106.67037964,10.76781845,0 106.67185974,10.76774693,0 106.67333221,10.7676754,0 106.6733551,10.76762295,0 106.6733551,10.76762295,0 106.67337036,10.76767063,0 106.67410278,10.76764393,0 106.67433167,10.76741791,0 106.67461395,10.7675705,0 106.67559052,10.7672596,0 106.67557526,10.7671957,0 106.67557526,10.7671957,0 106.67559052,10.76724911,0 106.67670441,10.76691437,0 106.6778183,10.76657963,0 106.67779541,10.76652241,0 106.67779541,10.76652241,0 106.6778183,10.76657963,0 106.67913055,10.76617622,0 106.68045044,10.76577282,0 106.68045044,10.76570988,0 106.68045044,10.76570988,0 106.68048859,10.76576233,0 106.68135834,10.76548862,0 106.68143463,10.7652092,0 106.68170929,10.76515102,0 106.68186951,10.76530933,0 106.68187714,10.76555729,0 106.68271637,10.76608944,0 106.68280029,10.76601982,0 106.68280029,10.76601982,0 106.68280029,10.76601982,0 106.68270874,10.76614761,0 106.68502808,10.76765442,0 106.68508148,10.7675972,0 106.68508148,10.7675972,0 106.68505859,10.7676754,0 106.68544769,10.76790237,0 106.6876297,10.7669487,0 106.68765259,10.76686287,0 106.68765259,10.76686287,0 106.68765259,10.76686287,0 106.68765259,10.76686287,0 106.68768311,10.76690102,0 106.6882019,10.76672745,0 106.68822479,10.7666111,0 106.68838501,10.76663208,0 106.68834686,10.76686954,0 106.68842316,10.76714325,0 106.68894958,10.76800728,0 106.68925476,10.76811314,0 106.68932343,10.76779652,0 106.68936157,10.76767635,0 106.68936157,10.76767635,0</coordinates>
        </LineString>
      </Placemark>
      <Folder>
        <name>Trạm dừng (38 trạm)</name>
        <Placemark>
          <name>[BX41] Bến xe An Sương</name>
          <description><![CDATA[&lt;b&gt;Trạm:&lt;/b&gt; Bến xe An Sương&lt;br/&gt;&lt;b&gt;Mã trạm:&lt;/b&gt; BX41&lt;br/&gt;&lt;b&gt;Địa chỉ:&lt;/b&gt; Bến xe An Sương Quốc lộ 22&lt;br/&gt;&lt;b&gt;Khu vực:&lt;/b&gt; None, Quận 12&lt;br/&gt;&lt;b&gt;Các tuyến qua trạm:&lt;/b&gt; 04, 104, 122, 151, 27, 33, 41, 61-3, 62-5, 65, 71, 74, 85]]></description>
          <styleUrl>#busStopStyle</styleUrl>
          <Point>
            <coordinates>106.61337280273438,10.843737602233887,0</coordinates>
          </Point>
        </Placemark>
        <Placemark>
          <name>[Q12 135] Bitis</name>
          <description><![CDATA[&lt;b&gt;Trạm:&lt;/b&gt; Bitis&lt;br/&gt;&lt;b&gt;Mã trạm:&lt;/b&gt; Q12 135&lt;br/&gt;&lt;b&gt;Địa chỉ:&lt;/b&gt; 487 Trường Chinh&lt;br/&gt;&lt;b&gt;Khu vực:&lt;/b&gt; None, Quận 12&lt;br/&gt;&lt;b&gt;Các tuyến qua trạm:&lt;/b&gt; 04, 104, 13, 145, 27, 41, 65, 94]]></description>
          <styleUrl>#busStopStyle</styleUrl>
          <Point>
            <coordinates>106.617347,10.838891,0</coordinates>
          </Point>
        </Placemark>
        <Placemark>
          <name>[Q12 136] Chùa Lạc Quang</name>
          <description><![CDATA[&lt;b&gt;Trạm:&lt;/b&gt; Chùa Lạc Quang&lt;br/&gt;&lt;b&gt;Mã trạm:&lt;/b&gt; Q12 136&lt;br/&gt;&lt;b&gt;Địa chỉ:&lt;/b&gt; 257 Trường Chinh&lt;br/&gt;&lt;b&gt;Khu vực:&lt;/b&gt; None, Quận 12&lt;br/&gt;&lt;b&gt;Các tuyến qua trạm:&lt;/b&gt; 04, 104, 13, 145, 27, 41, 65, 94]]></description>
          <styleUrl>#busStopStyle</styleUrl>
          <Point>
            <coordinates>106.620212,10.834497,0</coordinates>
          </Point>
        </Placemark>
        <Placemark>
          <name>[Q12 137] Chùa Vĩnh Phước</name>
          <description><![CDATA[&lt;b&gt;Trạm:&lt;/b&gt; Chùa Vĩnh Phước&lt;br/&gt;&lt;b&gt;Mã trạm:&lt;/b&gt; Q12 137&lt;br/&gt;&lt;b&gt;Địa chỉ:&lt;/b&gt; Chùa Vĩnh Phước Trường Chinh&lt;br/&gt;&lt;b&gt;Khu vực:&lt;/b&gt; None, Quận 12&lt;br/&gt;&lt;b&gt;Các tuyến qua trạm:&lt;/b&gt; 04, 104, 13, 145, 27, 41, 65, 94]]></description>
          <styleUrl>#busStopStyle</styleUrl>
          <Point>
            <coordinates>106.621794,10.83202,0</coordinates>
          </Point>
        </Placemark>
        <Placemark>
          <name>[Q12 139] Cầu Tham Lương - Siêu thị Thiên Hòa</name>
          <description><![CDATA[&lt;b&gt;Trạm:&lt;/b&gt; Cầu Tham Lương - Siêu thị Thiên Hòa&lt;br/&gt;&lt;b&gt;Mã trạm:&lt;/b&gt; Q12 139&lt;br/&gt;&lt;b&gt;Địa chỉ:&lt;/b&gt; 21 (Kế 2/6B) Trường Chinh&lt;br/&gt;&lt;b&gt;Khu vực:&lt;/b&gt; None, Quận 12&lt;br/&gt;&lt;b&gt;Các tuyến qua trạm:&lt;/b&gt; 04, 104, 13, 145, 23, 27, 41, 62, 65, 94]]></description>
          <styleUrl>#busStopStyle</styleUrl>
          <Point>
            <coordinates>106.62586,10.82624,0</coordinates>
          </Point>
        </Placemark>
        <Placemark>
          <name>[QTP 010] Trạm Dệt Thành Công</name>
          <description><![CDATA[&lt;b&gt;Trạm:&lt;/b&gt; Trạm Dệt Thành Công&lt;br/&gt;&lt;b&gt;Mã trạm:&lt;/b&gt; QTP 010&lt;br/&gt;&lt;b&gt;Địa chỉ:&lt;/b&gt; 8 Trường Chinh&lt;br/&gt;&lt;b&gt;Khu vực:&lt;/b&gt; Phường Tây Thạnh, Quận Tân Phú&lt;br/&gt;&lt;b&gt;Các tuyến qua trạm:&lt;/b&gt; 04, 104, 13, 145, 23, 27, 32, 41, 62, 65, 94]]></description>
          <styleUrl>#busStopStyle</styleUrl>
          <Point>
            <coordinates>106.629825,10.822315,0</coordinates>
          </Point>
        </Placemark>
        <Placemark>
          <name>[QTP 011] Trạm KCN Tân Bình</name>
          <description><![CDATA[&lt;b&gt;Trạm:&lt;/b&gt; Trạm KCN Tân Bình&lt;br/&gt;&lt;b&gt;Mã trạm:&lt;/b&gt; QTP 011&lt;br/&gt;&lt;b&gt;Địa chỉ:&lt;/b&gt; 881 Trường Chinh&lt;br/&gt;&lt;b&gt;Khu vực:&lt;/b&gt; Phường Tây Thạnh, Quận Tân Phú&lt;br/&gt;&lt;b&gt;Các tuyến qua trạm:&lt;/b&gt; 04, 104, 13, 145, 23, 27, 28, 62, 65, 94]]></description>
          <styleUrl>#busStopStyle</styleUrl>
          <Point>
            <coordinates>106.630615,10.819386,0</coordinates>
          </Point>
        </Placemark>
        <Placemark>
          <name>[QTP 012] Ngã 3 Chế Lan Viên</name>
          <description><![CDATA[&lt;b&gt;Trạm:&lt;/b&gt; Ngã 3 Chế Lan Viên&lt;br/&gt;&lt;b&gt;Mã trạm:&lt;/b&gt; QTP 012&lt;br/&gt;&lt;b&gt;Địa chỉ:&lt;/b&gt; 831 (trước showroom o tô) Trường Chinh&lt;br/&gt;&lt;b&gt;Khu vực:&lt;/b&gt; Phường Tây Thạnh, Quận Tân Phú&lt;br/&gt;&lt;b&gt;Các tuyến qua trạm:&lt;/b&gt; 04, 104, 13, 145, 23, 27, 28, 62, 65, 94]]></description>
          <styleUrl>#busStopStyle</styleUrl>
          <Point>
            <coordinates>106.632377,10.814455,0</coordinates>
          </Point>
        </Placemark>
        <Placemark>
          <name>[QTP 014] Trạm Đài Liệt Sỹ</name>
          <description><![CDATA[&lt;b&gt;Trạm:&lt;/b&gt; Trạm Đài Liệt Sỹ&lt;br/&gt;&lt;b&gt;Mã trạm:&lt;/b&gt; QTP 014&lt;br/&gt;&lt;b&gt;Địa chỉ:&lt;/b&gt; 1/3 Trường Chinh&lt;br/&gt;&lt;b&gt;Khu vực:&lt;/b&gt; Phường Tây Thạnh, Quận Tân Phú&lt;br/&gt;&lt;b&gt;Các tuyến qua trạm:&lt;/b&gt; 04, 104, 13, 145, 16, 23, 27, 28, 48, 62, 63-1, 65, 94]]></description>
          <styleUrl>#busStopStyle</styleUrl>
          <Point>
            <coordinates>106.634019,10.808689,0</coordinates>
          </Point>
        </Placemark>
        <Placemark>
          <name>[QTP 015] Siêu thị BigC</name>
          <description><![CDATA[&lt;b&gt;Trạm:&lt;/b&gt; Siêu thị BigC&lt;br/&gt;&lt;b&gt;Mã trạm:&lt;/b&gt; QTP 015&lt;br/&gt;&lt;b&gt;Địa chỉ:&lt;/b&gt; 1/1 Trường Chinh&lt;br/&gt;&lt;b&gt;Khu vực:&lt;/b&gt; Phường Tây Thạnh, Quận Tân Phú&lt;br/&gt;&lt;b&gt;Các tuyến qua trạm:&lt;/b&gt; 13, 23, 27, 48, 62, 65, 94]]></description>
          <styleUrl>#busStopStyle</styleUrl>
          <Point>
            <coordinates>106.634773,10.806212,0</coordinates>
          </Point>
        </Placemark>
        <Placemark>
          <name>[QTP 016] Trạm Tân Kỳ Tân Quý</name>
          <description><![CDATA[&lt;b&gt;Trạm:&lt;/b&gt; Trạm Tân Kỳ Tân Quý&lt;br/&gt;&lt;b&gt;Mã trạm:&lt;/b&gt; QTP 016&lt;br/&gt;&lt;b&gt;Địa chỉ:&lt;/b&gt; 33/24 (659-661) Trường Chinh&lt;br/&gt;&lt;b&gt;Khu vực:&lt;/b&gt; Phường Tây Thạnh, Quận Tân Phú&lt;br/&gt;&lt;b&gt;Các tuyến qua trạm:&lt;/b&gt; 13, 23, 27, 62, 65, 94]]></description>
          <styleUrl>#busStopStyle</styleUrl>
          <Point>
            <coordinates>106.635269,10.8048,0</coordinates>
          </Point>
        </Placemark>
        <Placemark>
          <name>[QTP 001] Trạm Ngã ba Bà Quẹo</name>
          <description><![CDATA[&lt;b&gt;Trạm:&lt;/b&gt; Trạm Ngã ba Bà Quẹo&lt;br/&gt;&lt;b&gt;Mã trạm:&lt;/b&gt; QTP 001&lt;br/&gt;&lt;b&gt;Địa chỉ:&lt;/b&gt; 971 Âu Cơ&lt;br/&gt;&lt;b&gt;Khu vực:&lt;/b&gt; None, Quận Tân Phú&lt;br/&gt;&lt;b&gt;Các tuyến qua trạm:&lt;/b&gt; 27, 62]]></description>
          <styleUrl>#busStopStyle</styleUrl>
          <Point>
            <coordinates>106.636814,10.800759,0</coordinates>
          </Point>
        </Placemark>
        <Placemark>
          <name>[QTP 002] Trạm chợ Võ Thành Trang</name>
          <description><![CDATA[&lt;b&gt;Trạm:&lt;/b&gt; Trạm chợ Võ Thành Trang&lt;br/&gt;&lt;b&gt;Mã trạm:&lt;/b&gt; QTP 002&lt;br/&gt;&lt;b&gt;Địa chỉ:&lt;/b&gt; 885-887 Âu Cơ&lt;br/&gt;&lt;b&gt;Khu vực:&lt;/b&gt; None, Quận Tân Phú&lt;br/&gt;&lt;b&gt;Các tuyến qua trạm:&lt;/b&gt; 27, 62]]></description>
          <styleUrl>#busStopStyle</styleUrl>
          <Point>
            <coordinates>106.637497,10.798211,0</coordinates>
          </Point>
        </Placemark>
        <Placemark>
          <name>[QTP 003] Trạm Lũy Bán Bích</name>
          <description><![CDATA[&lt;b&gt;Trạm:&lt;/b&gt; Trạm Lũy Bán Bích&lt;br/&gt;&lt;b&gt;Mã trạm:&lt;/b&gt; QTP 003&lt;br/&gt;&lt;b&gt;Địa chỉ:&lt;/b&gt; 825 Âu Cơ&lt;br/&gt;&lt;b&gt;Khu vực:&lt;/b&gt; None, Quận Tân Phú&lt;br/&gt;&lt;b&gt;Các tuyến qua trạm:&lt;/b&gt; 27, 30, 62]]></description>
          <styleUrl>#busStopStyle</styleUrl>
          <Point>
            <coordinates>106.638618,10.794283,0</coordinates>
          </Point>
        </Placemark>
        <Placemark>
          <name>[QTP 004] Nguyễn Hồng Đào</name>
          <description><![CDATA[&lt;b&gt;Trạm:&lt;/b&gt; Nguyễn Hồng Đào&lt;br/&gt;&lt;b&gt;Mã trạm:&lt;/b&gt; QTP 004&lt;br/&gt;&lt;b&gt;Địa chỉ:&lt;/b&gt; Đối diện 770 Âu Cơ&lt;br/&gt;&lt;b&gt;Khu vực:&lt;/b&gt; None, Quận Tân Phú&lt;br/&gt;&lt;b&gt;Các tuyến qua trạm:&lt;/b&gt; 23, 27, 62, 64]]></description>
          <styleUrl>#busStopStyle</styleUrl>
          <Point>
            <coordinates>106.640253,10.789466,0</coordinates>
          </Point>
        </Placemark>
        <Placemark>
          <name>[QTP 005] Trạm Ngã 4 Thoại Ngọc Hầu</name>
          <description><![CDATA[&lt;b&gt;Trạm:&lt;/b&gt; Trạm Ngã 4 Thoại Ngọc Hầu&lt;br/&gt;&lt;b&gt;Mã trạm:&lt;/b&gt; QTP 005&lt;br/&gt;&lt;b&gt;Địa chỉ:&lt;/b&gt; 647 Âu Cơ&lt;br/&gt;&lt;b&gt;Khu vực:&lt;/b&gt; Phường Hoà Thạnh, Quận Tân Phú&lt;br/&gt;&lt;b&gt;Các tuyến qua trạm:&lt;/b&gt; 23, 27, 62, 64]]></description>
          <styleUrl>#busStopStyle</styleUrl>
          <Point>
            <coordinates>106.641235,10.786605,0</coordinates>
          </Point>
        </Placemark>
        <Placemark>
          <name>[QTP 006] Bệnh viện Quân Tân Phú</name>
          <description><![CDATA[&lt;b&gt;Trạm:&lt;/b&gt; Bệnh viện Quân Tân Phú&lt;br/&gt;&lt;b&gt;Mã trạm:&lt;/b&gt; QTP 006&lt;br/&gt;&lt;b&gt;Địa chỉ:&lt;/b&gt; 609-611 (577) Âu Cơ&lt;br/&gt;&lt;b&gt;Khu vực:&lt;/b&gt; None, Quận Tân Phú&lt;br/&gt;&lt;b&gt;Các tuyến qua trạm:&lt;/b&gt; 23, 27]]></description>
          <styleUrl>#busStopStyle</styleUrl>
          <Point>
            <coordinates>106.642334,10.783712,0</coordinates>
          </Point>
        </Placemark>
        <Placemark>
          <name>[QTP 007] Bông Bạch Tuyết</name>
          <description><![CDATA[&lt;b&gt;Trạm:&lt;/b&gt; Bông Bạch Tuyết&lt;br/&gt;&lt;b&gt;Mã trạm:&lt;/b&gt; QTP 007&lt;br/&gt;&lt;b&gt;Địa chỉ:&lt;/b&gt; 523 Âu Cơ&lt;br/&gt;&lt;b&gt;Khu vực:&lt;/b&gt; Phường Phú Trung, Quận Tân Phú&lt;br/&gt;&lt;b&gt;Các tuyến qua trạm:&lt;/b&gt; 27]]></description>
          <styleUrl>#busStopStyle</styleUrl>
          <Point>
            <coordinates>106.6437,10.780623,0</coordinates>
          </Point>
        </Placemark>
        <Placemark>
          <name>[QTP 008] Trạm Chợ Trần Văn Quang</name>
          <description><![CDATA[&lt;b&gt;Trạm:&lt;/b&gt; Trạm Chợ Trần Văn Quang&lt;br/&gt;&lt;b&gt;Mã trạm:&lt;/b&gt; QTP 008&lt;br/&gt;&lt;b&gt;Địa chỉ:&lt;/b&gt; 425 Âu Cơ&lt;br/&gt;&lt;b&gt;Khu vực:&lt;/b&gt; Phường Phú Trung, Quận Tân Phú&lt;br/&gt;&lt;b&gt;Các tuyến qua trạm:&lt;/b&gt; 27]]></description>
          <styleUrl>#busStopStyle</styleUrl>
          <Point>
            <coordinates>106.645332,10.778094,0</coordinates>
          </Point>
        </Placemark>
        <Placemark>
          <name>[QTP 009] Trạm Nhà Thiếu Nhi Q.TB</name>
          <description><![CDATA[&lt;b&gt;Trạm:&lt;/b&gt; Trạm Nhà Thiếu Nhi Q.TB&lt;br/&gt;&lt;b&gt;Mã trạm:&lt;/b&gt; QTP 009&lt;br/&gt;&lt;b&gt;Địa chỉ:&lt;/b&gt; 309 Âu Cơ&lt;br/&gt;&lt;b&gt;Khu vực:&lt;/b&gt; None, Quận Tân Phú&lt;br/&gt;&lt;b&gt;Các tuyến qua trạm:&lt;/b&gt; 27]]></description>
          <styleUrl>#busStopStyle</styleUrl>
          <Point>
            <coordinates>106.64724,10.775459,0</coordinates>
          </Point>
        </Placemark>
        <Placemark>
          <name>[Q11 079] Trường Phạm Ngọc Thạch</name>
          <description><![CDATA[&lt;b&gt;Trạm:&lt;/b&gt; Trường Phạm Ngọc Thạch&lt;br/&gt;&lt;b&gt;Mã trạm:&lt;/b&gt; Q11 079&lt;br/&gt;&lt;b&gt;Địa chỉ:&lt;/b&gt; 185-189 Âu Cơ&lt;br/&gt;&lt;b&gt;Khu vực:&lt;/b&gt; None, Quận 11&lt;br/&gt;&lt;b&gt;Các tuyến qua trạm:&lt;/b&gt; 27, 38]]></description>
          <styleUrl>#busStopStyle</styleUrl>
          <Point>
            <coordinates>106.648863,10.77333,0</coordinates>
          </Point>
        </Placemark>
        <Placemark>
          <name>[Q11 080] Chợ Tân Phước</name>
          <description><![CDATA[&lt;b&gt;Trạm:&lt;/b&gt; Chợ Tân Phước&lt;br/&gt;&lt;b&gt;Mã trạm:&lt;/b&gt; Q11 080&lt;br/&gt;&lt;b&gt;Địa chỉ:&lt;/b&gt; 113-115(105) Âu Cơ&lt;br/&gt;&lt;b&gt;Khu vực:&lt;/b&gt; None, Quận 11&lt;br/&gt;&lt;b&gt;Các tuyến qua trạm:&lt;/b&gt; 27, 38]]></description>
          <styleUrl>#busStopStyle</styleUrl>
          <Point>
            <coordinates>106.650436,10.770953,0</coordinates>
          </Point>
        </Placemark>
        <Placemark>
          <name>[Q11 081] Bình Thới</name>
          <description><![CDATA[&lt;b&gt;Trạm:&lt;/b&gt; Bình Thới&lt;br/&gt;&lt;b&gt;Mã trạm:&lt;/b&gt; Q11 081&lt;br/&gt;&lt;b&gt;Địa chỉ:&lt;/b&gt; 27P Âu Cơ&lt;br/&gt;&lt;b&gt;Khu vực:&lt;/b&gt; None, Quận 11&lt;br/&gt;&lt;b&gt;Các tuyến qua trạm:&lt;/b&gt; 27, 38]]></description>
          <styleUrl>#busStopStyle</styleUrl>
          <Point>
            <coordinates>106.651524,10.769483,0</coordinates>
          </Point>
        </Placemark>
        <Placemark>
          <name>[Q11 026] Trường Đua Phú Thọ</name>
          <description><![CDATA[&lt;b&gt;Trạm:&lt;/b&gt; Trường Đua Phú Thọ&lt;br/&gt;&lt;b&gt;Mã trạm:&lt;/b&gt; Q11 026&lt;br/&gt;&lt;b&gt;Địa chỉ:&lt;/b&gt; 407A Lê Đại Hành&lt;br/&gt;&lt;b&gt;Khu vực:&lt;/b&gt; None, Quận 11&lt;br/&gt;&lt;b&gt;Các tuyến qua trạm:&lt;/b&gt; 27]]></description>
          <styleUrl>#busStopStyle</styleUrl>
          <Point>
            <coordinates>106.653358,10.767281,0</coordinates>
          </Point>
        </Placemark>
        <Placemark>
          <name>[Q11 027] Tôn Thất Hiệp</name>
          <description><![CDATA[&lt;b&gt;Trạm:&lt;/b&gt; Tôn Thất Hiệp&lt;br/&gt;&lt;b&gt;Mã trạm:&lt;/b&gt; Q11 027&lt;br/&gt;&lt;b&gt;Địa chỉ:&lt;/b&gt; 321 Lê Đại Hành&lt;br/&gt;&lt;b&gt;Khu vực:&lt;/b&gt; None, Quận 11&lt;br/&gt;&lt;b&gt;Các tuyến qua trạm:&lt;/b&gt; 27]]></description>
          <styleUrl>#busStopStyle</styleUrl>
          <Point>
            <coordinates>106.654617,10.765484,0</coordinates>
          </Point>
        </Placemark>
        <Placemark>
          <name>[Q11 028] Đường 3/2</name>
          <description><![CDATA[&lt;b&gt;Trạm:&lt;/b&gt; Đường 3/2&lt;br/&gt;&lt;b&gt;Mã trạm:&lt;/b&gt; Q11 028&lt;br/&gt;&lt;b&gt;Địa chỉ:&lt;/b&gt; 157 Lê Đại Hành&lt;br/&gt;&lt;b&gt;Khu vực:&lt;/b&gt; None, Quận 11&lt;br/&gt;&lt;b&gt;Các tuyến qua trạm:&lt;/b&gt; 27]]></description>
          <styleUrl>#busStopStyle</styleUrl>
          <Point>
            <coordinates>106.656319,10.763117,0</coordinates>
          </Point>
        </Placemark>
        <Placemark>
          <name>[Q11 015] Phú Thọ</name>
          <description><![CDATA[&lt;b&gt;Trạm:&lt;/b&gt; Phú Thọ&lt;br/&gt;&lt;b&gt;Mã trạm:&lt;/b&gt; Q11 015&lt;br/&gt;&lt;b&gt;Địa chỉ:&lt;/b&gt; 957 Đường 3/2&lt;br/&gt;&lt;b&gt;Khu vực:&lt;/b&gt; None, Quận 11&lt;br/&gt;&lt;b&gt;Các tuyến qua trạm:&lt;/b&gt; 103, 14, 27]]></description>
          <styleUrl>#busStopStyle</styleUrl>
          <Point>
            <coordinates>106.657881,10.762574,0</coordinates>
          </Point>
        </Placemark>
        <Placemark>
          <name>[Q10 009] Ngã ba Nguyễn Kim</name>
          <description><![CDATA[&lt;b&gt;Trạm:&lt;/b&gt; Ngã ba Nguyễn Kim&lt;br/&gt;&lt;b&gt;Mã trạm:&lt;/b&gt; Q10 009&lt;br/&gt;&lt;b&gt;Địa chỉ:&lt;/b&gt; 781 Đường 3/2&lt;br/&gt;&lt;b&gt;Khu vực:&lt;/b&gt; None, Quận 10&lt;br/&gt;&lt;b&gt;Các tuyến qua trạm:&lt;/b&gt; 14, 27]]></description>
          <styleUrl>#busStopStyle</styleUrl>
          <Point>
            <coordinates>106.661078,10.76434,0</coordinates>
          </Point>
        </Placemark>
        <Placemark>
          <name>[Q10 010] Nhà thờ tin lành Nguyễn Tri Phương</name>
          <description><![CDATA[&lt;b&gt;Trạm:&lt;/b&gt; Nhà thờ tin lành Nguyễn Tri Phương&lt;br/&gt;&lt;b&gt;Mã trạm:&lt;/b&gt; Q10 010&lt;br/&gt;&lt;b&gt;Địa chỉ:&lt;/b&gt; 635 Đường 3/2&lt;br/&gt;&lt;b&gt;Khu vực:&lt;/b&gt; None, Quận 10&lt;br/&gt;&lt;b&gt;Các tuyến qua trạm:&lt;/b&gt; 14, 27]]></description>
          <styleUrl>#busStopStyle</styleUrl>
          <Point>
            <coordinates>106.664627,10.766232,0</coordinates>
          </Point>
        </Placemark>
        <Placemark>
          <name>[Q10 031] Bệnh viện Nhi Đồng 1</name>
          <description><![CDATA[&lt;b&gt;Trạm:&lt;/b&gt; Bệnh viện Nhi Đồng 1&lt;br/&gt;&lt;b&gt;Mã trạm:&lt;/b&gt; Q10 031&lt;br/&gt;&lt;b&gt;Địa chỉ:&lt;/b&gt; 359 Lý Thái Tổ&lt;br/&gt;&lt;b&gt;Khu vực:&lt;/b&gt; None, Quận 10&lt;br/&gt;&lt;b&gt;Các tuyến qua trạm:&lt;/b&gt; 10, 14, 27, 38, 69]]></description>
          <styleUrl>#busStopStyle</styleUrl>
          <Point>
            <coordinates>106.67038,10.767765,0</coordinates>
          </Point>
        </Placemark>
        <Placemark>
          <name>[Q10 032] Vòng xoay Lý Thái Tổ</name>
          <description><![CDATA[&lt;b&gt;Trạm:&lt;/b&gt; Vòng xoay Lý Thái Tổ&lt;br/&gt;&lt;b&gt;Mã trạm:&lt;/b&gt; Q10 032&lt;br/&gt;&lt;b&gt;Địa chỉ:&lt;/b&gt; 183 Lý Thái Tổ&lt;br/&gt;&lt;b&gt;Khu vực:&lt;/b&gt; None, Quận 10&lt;br/&gt;&lt;b&gt;Các tuyến qua trạm:&lt;/b&gt; 10, 14, 27, 69]]></description>
          <styleUrl>#busStopStyle</styleUrl>
          <Point>
            <coordinates>106.673357,10.767623,0</coordinates>
          </Point>
        </Placemark>
        <Placemark>
          <name>[Q10 033] Chợ hoa Hồ Thị Kỷ</name>
          <description><![CDATA[&lt;b&gt;Trạm:&lt;/b&gt; Chợ hoa Hồ Thị Kỷ&lt;br/&gt;&lt;b&gt;Mã trạm:&lt;/b&gt; Q10 033&lt;br/&gt;&lt;b&gt;Địa chỉ:&lt;/b&gt; 87 Lý Thái Tổ&lt;br/&gt;&lt;b&gt;Khu vực:&lt;/b&gt; None, Quận 10&lt;br/&gt;&lt;b&gt;Các tuyến qua trạm:&lt;/b&gt; 14, 27, 69]]></description>
          <styleUrl>#busStopStyle</styleUrl>
          <Point>
            <coordinates>106.675572,10.767196,0</coordinates>
          </Point>
        </Placemark>
        <Placemark>
          <name>[Q10 034] Công viên số 1 Lý Thái Tổ</name>
          <description><![CDATA[&lt;b&gt;Trạm:&lt;/b&gt; Công viên số 1 Lý Thái Tổ&lt;br/&gt;&lt;b&gt;Mã trạm:&lt;/b&gt; Q10 034&lt;br/&gt;&lt;b&gt;Địa chỉ:&lt;/b&gt; Đối diện 180 (1B) Lý Thái Tổ&lt;br/&gt;&lt;b&gt;Khu vực:&lt;/b&gt; None, Quận 10&lt;br/&gt;&lt;b&gt;Các tuyến qua trạm:&lt;/b&gt; 14, 27, 69]]></description>
          <styleUrl>#busStopStyle</styleUrl>
          <Point>
            <coordinates>106.677799,10.766522,0</coordinates>
          </Point>
        </Placemark>
        <Placemark>
          <name>[Q10 035] Ngã sáu Cộng Hòa</name>
          <description><![CDATA[&lt;b&gt;Trạm:&lt;/b&gt; Ngã sáu Cộng Hòa&lt;br/&gt;&lt;b&gt;Mã trạm:&lt;/b&gt; Q10 035&lt;br/&gt;&lt;b&gt;Địa chỉ:&lt;/b&gt; Đối diện 30-32 Lý Thái Tổ&lt;br/&gt;&lt;b&gt;Khu vực:&lt;/b&gt; None, Quận 10&lt;br/&gt;&lt;b&gt;Các tuyến qua trạm:&lt;/b&gt; 14, 27, 69]]></description>
          <styleUrl>#busStopStyle</styleUrl>
          <Point>
            <coordinates>106.680449,10.76571,0</coordinates>
          </Point>
        </Placemark>
        <Placemark>
          <name>[Q1 143] Nhà Sách Minh Khai</name>
          <description><![CDATA[&lt;b&gt;Trạm:&lt;/b&gt; Nhà Sách Minh Khai&lt;br/&gt;&lt;b&gt;Mã trạm:&lt;/b&gt; Q1 143&lt;br/&gt;&lt;b&gt;Địa chỉ:&lt;/b&gt; 59-61 Phạm Viết Chánh&lt;br/&gt;&lt;b&gt;Khu vực:&lt;/b&gt; None, Quận 1&lt;br/&gt;&lt;b&gt;Các tuyến qua trạm:&lt;/b&gt; 27, 53]]></description>
          <styleUrl>#busStopStyle</styleUrl>
          <Point>
            <coordinates>106.6828,10.76602,0</coordinates>
          </Point>
        </Placemark>
        <Placemark>
          <name>[Q1 144] Bệnh viện Từ Dũ</name>
          <description><![CDATA[&lt;b&gt;Trạm:&lt;/b&gt; Bệnh viện Từ Dũ&lt;br/&gt;&lt;b&gt;Mã trạm:&lt;/b&gt; Q1 144&lt;br/&gt;&lt;b&gt;Địa chỉ:&lt;/b&gt; 19-21 Phạm Viết Chánh&lt;br/&gt;&lt;b&gt;Khu vực:&lt;/b&gt; Phường Nguyễn Cư Trinh, Quận 1&lt;br/&gt;&lt;b&gt;Các tuyến qua trạm:&lt;/b&gt; 27, 53]]></description>
          <styleUrl>#busStopStyle</styleUrl>
          <Point>
            <coordinates>106.685084,10.767597,0</coordinates>
          </Point>
        </Placemark>
        <Placemark>
          <name>[Q1 007] Chợ Thái Bình</name>
          <description><![CDATA[&lt;b&gt;Trạm:&lt;/b&gt; Chợ Thái Bình&lt;br/&gt;&lt;b&gt;Mã trạm:&lt;/b&gt; Q1 007&lt;br/&gt;&lt;b&gt;Địa chỉ:&lt;/b&gt; 187A Cống Quỳnh&lt;br/&gt;&lt;b&gt;Khu vực:&lt;/b&gt; None, Quận 1&lt;br/&gt;&lt;b&gt;Các tuyến qua trạm:&lt;/b&gt; 156V, 27, 53]]></description>
          <styleUrl>#busStopStyle</styleUrl>
          <Point>
            <coordinates>106.687653,10.766863,0</coordinates>
          </Point>
        </Placemark>
        <Placemark>
          <name>[BX 01] Bến xe buýt Sài Gòn</name>
          <description><![CDATA[&lt;b&gt;Trạm:&lt;/b&gt; Bến xe buýt Sài Gòn&lt;br/&gt;&lt;b&gt;Mã trạm:&lt;/b&gt; BX 01&lt;br/&gt;&lt;b&gt;Địa chỉ:&lt;/b&gt; BẾN XE BUÝT SÀI GÒN Lê Lai&lt;br/&gt;&lt;b&gt;Khu vực:&lt;/b&gt; Phường Phạm Ngũ Lão, Quận 1&lt;br/&gt;&lt;b&gt;Các tuyến qua trạm:&lt;/b&gt; 03, 04, 102, 109, 13, 140, 171, 172, 18, 19, 20, 27, 28, 34, 36, 39, 52, 65, 69, 72, 75, 86, 88, 93, D4, DL01, DL02, DL03, DL04, DL05, DL06]]></description>
          <styleUrl>#busStopStyle</styleUrl>
          <Point>
            <coordinates>106.689362,10.767676,0</coordinates>
          </Point>
        </Placemark>
      </Folder>
    </Folder>
  </Document>
</kml>