<?xml version="1.0" encoding="UTF-8"?>
<kml xmlns="http://www.opengis.net/kml/2.2">
  <Document>
    <name>B 61-3 - Thủ Dầu Một - Bến xe An Sương</name>
    <description>Lộ trình tuyến xe buýt B 61-3 (6:00 - 16:30)</description>
    <Style id="routeLineStyle">
      <LineStyle>
        <color>e642B37C</color>
        <width>4</width>
      </LineStyle>
    </Style>
    <Style id="busStopStyle">
      <IconStyle>
        <scale>0.8</scale>
        <Icon>
          <href>http://maps.google.com/mapfiles/kml/shapes/bus.png</href>
        </Icon>
      </IconStyle>
    </Style>
    <Folder>
      <name>Lượt đi: Bến xe khách Bình Dương → Bến xe An Sương (31.98 km)</name>
      <Placemark>
        <name>B 61-3 - Đường đi Lượt đi</name>
        <description><![CDATA[&lt;b&gt;Tuyến:&lt;/b&gt; B 61-3 - Thủ Dầu Một - Bến xe An Sương&lt;br/&gt;&lt;b&gt;Lượt:&lt;/b&gt; Lượt đi&lt;br/&gt;&lt;b&gt;Cự ly:&lt;/b&gt; 31.98 km&lt;br/&gt;&lt;b&gt;Thời gian hành trình:&lt;/b&gt; 75 phút&lt;br/&gt;&lt;b&gt;Thời gian hoạt động:&lt;/b&gt; 6:00 - 16:30]]></description>
        <styleUrl>#routeLineStyle</styleUrl>
        <LineString>
          <tessellate>1</tessellate>
          <coordinates>106.6685257,10.96564007,0 106.6686554,10.96559238,0 106.66883087,10.96605778,0 106.66901398,10.96652412,0 106.66901398,10.96652412,0 106.66941833,10.96749115,0 106.66983032,10.96845818,0 106.67023468,10.96942616,0 106.67063904,10.97039318,0 106.67063904,10.97039318,0 106.67102051,10.97147465,0 106.67146301,10.97255993,0 106.67220306,10.97215462,0 106.67285156,10.97182274,0 106.67280579,10.97177505,0 106.67280579,10.97177505,0 106.67284393,10.97184849,0 106.6738739,10.97134304,0 106.67498779,10.9708643,0 106.67601013,10.97028732,0 106.6770401,10.96971035,0 106.67698669,10.9696579,0 106.67698669,10.9696579,0 106.67703247,10.96971035,0 106.6783371,10.96897125,0 106.67964172,10.9682312,0 106.68096161,10.9674778,0 106.68239594,10.96677685,0 106.68382263,10.96607685,0 106.68527985,10.96538734,0 106.68670654,10.96471786,0 106.68817902,10.96404934,0 106.68814087,10.96397018,0 106.68814087,10.96397018,0 106.68814087,10.96397018,0 106.68817902,10.96402836,0 106.69004059,10.96315956,0 106.69190216,10.96228981,0 106.69187164,10.96223354,0 106.69187164,10.96223354,0 106.69187164,10.96223354,0 106.69187164,10.96223354,0 106.69190979,10.96228981,0 106.69289398,10.96182156,0 106.69387817,10.9613533,0 106.69487,10.96090221,0 106.69586182,10.96045208,0 106.69689178,10.95988846,0 106.69779205,10.95926762,0 106.69831848,10.95882988,0 106.69882202,10.95836639,0 106.69929504,10.95791149,0 106.69976807,10.95745564,0 106.69973755,10.95741081,0 106.69973755,10.95741081,0 106.69973755,10.95741081,0 106.69979095,10.95745564,0 106.70069122,10.95656013,0 106.70159149,10.95567036,0 106.70249176,10.95478821,0 106.70339966,10.95390606,0 106.70463562,10.95271587,0 106.7053833,10.95176792,0 106.70603943,10.95073509,0 106.70645905,10.9497242,0 106.70637512,10.94970322,0 106.70637512,10.94970322,0 106.70637512,10.94970322,0 106.70645905,10.94972897,0 106.70664215,10.94929218,0 106.70677948,10.94888687,0 106.70693207,10.94819641,0 106.70710754,10.94741154,0 106.70743561,10.94601631,0 106.7077713,10.94462872,0 106.70809937,10.94323635,0 106.70842743,10.94184494,0 106.70867157,10.94081783,0 106.70891571,10.93979073,0 106.70915221999999,10.93876362,0 106.70939636,10.93773651,0 106.70962524,10.93674946,0 106.7098465,10.93576145,0 106.7101059,10.93469524,0 106.71035767,10.93362808,0 106.71025085,10.9336071,0 106.71025085,10.9336071,0 106.71025085,10.9336071,0 106.71025085,10.9336071,0 106.7103653,10.9336338,0 106.71056366,10.93275928,0 106.71075439,10.93188477,0 106.7106781,10.93187428,0 106.7106781,10.93187428,0 106.7106781,10.93187428,0 106.71075439,10.93188,0 106.71113586,10.93027306,0 106.71157074,10.92868805,0 106.71201324,10.92709446,0 106.71246338,10.92550087,0 106.7129364,10.92393208,0 106.71311951,10.92313099,0 106.71328735,10.92233086,0 106.71343994,10.92107677,0 106.71339417,10.92004967,0 106.71334839,10.91902256,0 106.71321106,10.91902828,0 106.71321106,10.91902828,0 106.71321106,10.91902828,0 106.71336365,10.91902256,0 106.71331787,10.91816425,0 106.71327209,10.91730499,0 106.71322632,10.91644669,0 106.71318054,10.91558838,0 106.7131424,10.91473007,0 106.71308899,10.91385555,0 106.71304321,10.91299152,0 106.71299744,10.91212749,0 106.71294403,10.91127205,0 106.712883,10.91041565,0 106.71282196,10.90954685,0 106.71279907,10.90869331,0 106.71274567,10.90783596,0 106.71269226,10.90697861,0 106.71264648,10.90612125,0 106.71259308,10.9052639,0 106.71251678,10.90527534,0 106.71251678,10.90527534,0 106.71251678,10.90527534,0 106.71251678,10.90527534,0 106.71259308,10.90528011,0 106.71253204,10.90441132,0 106.71247101,10.90355778,0 106.71234894,10.90299416,0 106.71213531,10.90243053,0 106.71190643,10.90182972,0 106.71154785,10.90122414,0 106.71116638,10.90061283,0 106.71077728,10.89999676,0 106.71071625,10.90004444,0 106.71071625,10.90004444,0 106.71071625,10.90004444,0 106.71071625,10.90004444,0 106.71079254,10.89999104,0 106.71050262,10.89952278,0 106.71018982,10.89904785,0 106.70951843,10.89823151,0 106.70885468,10.89741516,0 106.70815277,10.89658833,0 106.7074585,10.89576626,0 106.70740509,10.8958168,0 106.70740509,10.8958168,0 106.70740509,10.8958168,0 106.70745087,10.89576149,0 106.70688629,10.89509201,0 106.70619965,10.89429188,0 106.70494843,10.89282227,0 106.70378113,10.89139462,0 106.70310211,10.89068317,0 106.70237732,10.89002228,0 106.70237732,10.89002228,0 106.70114136,10.88868618,0 106.70072174,10.88828087,0 106.70030975,10.88779068,0 106.6999054,10.88725948,0 106.69974518,10.88704872,0 106.69960022,10.88685322,0 106.69948578,10.88646889,0 106.69947815,10.88623714,0 106.6989975,10.88524151,0 106.69889832,10.88529396,0 106.69889832,10.88529396,0 106.69898987,10.88527298,0 106.69869232,10.88465691,0 106.69844818,10.88411427,0 106.69822693,10.88349819,0 106.69810486,10.88285542,0 106.69817352,10.88219166,0 106.69824982,10.88179588,0 106.69843292,10.88109016,0 106.69869995,10.88037872,0 106.6986084,10.88035297,0 106.6986084,10.88035297,0 106.69872284,10.88039494,0 106.69895935,10.87971497,0 106.6993103,10.87867737,0 106.69960785,10.87789822,0 106.69989014,10.87713909,0 106.70026398,10.87638569,0 106.70066071,10.87571716,0 106.70136261,10.87482166,0 106.7020874,10.87393093,0 106.70201111,10.87390232,0 106.70201111,10.87390232,0 106.70207214,10.87393665,0 106.70248413,10.87349415,0 106.70304871,10.87277699,0 106.70355988,10.87220287,0 106.70423889,10.87158108,0 106.70471191,10.8712492,0 106.70516205,10.87106514,0 106.70692444,10.87067509,0 106.70690155,10.87059593,0 106.70690155,10.87059593,0 106.70690155,10.8706646,0 106.70708466,10.87063313,0 106.70835114,10.87039089,0 106.70964813,10.87018585,0 106.71120453,10.86998558,0 106.71198273,10.86986923,0 106.71272278,10.86965847,0 106.71406555,10.86913681,0 106.71537781,10.86857319,0 106.71681213,10.86798859,0 106.71717834,10.86790466,0 106.7175293,10.86788368,0 106.71825409,10.86786461,0 106.71825409,10.86786461,0 106.71825409,10.86786461,0 106.71941376,10.86788177,0 106.72058105,10.86789894,0 106.72129059,10.86781502,0 106.72193909,10.86757755,0 106.72261047,10.86710358,0 106.72257996,10.86706543,0 106.72257996,10.86706543,0 106.72257996,10.86706543,0 106.72290039,10.86680984,0 106.72315979,10.86645031,0 106.72353363,10.86579037,0 106.72358704,10.8655901,0 106.72355652,10.86544991,0 106.72354889,10.86542034,0 106.72344971,10.86530018,0 106.72315979,10.86513042,0 106.72203064,10.86455917,0 106.72090912,10.86398983,0 106.72039795,10.86372089,0 106.71989441,10.863451,0 106.71989441,10.863451,0 106.71989441,10.863451,0 106.71989441,10.863451,0 106.71989441,10.863451,0 106.71841431,10.86265087,0 106.71694183,10.86185074,0 106.71502686,10.86087608,0 106.71311951,10.85990143,0 106.71309662,10.85997009,0 106.71309662,10.85997009,0 106.71309662,10.85997009,0 106.71309662,10.85997009,0 106.7131424,10.85988045,0 106.71234131,10.85947037,0 106.71154022,10.85908985,0 106.71115875,10.85896969,0 106.71031189,10.85883713,0 106.70943451,10.85883713,0 106.7077179,10.85905361,0 106.70772552,10.85914803,0 106.70772552,10.85914803,0 106.70772552,10.85914803,0 106.70772552,10.85914803,0 106.70770264,10.85905361,0 106.70631409,10.85923004,0 106.70493317,10.85940647,0 106.70494843,10.85949612,0 106.70494843,10.85949612,0 106.70494843,10.85949612,0 106.70494843,10.85949612,0 106.70494843,10.85949612,0 106.7049408,10.85940647,0 106.7029953,10.85965443,0 106.7010498,10.85990715,0 106.70108795,10.86000729,0 106.70108795,10.86000729,0 106.70108795,10.86000729,0 106.70108795,10.86000729,0 106.70108795,10.86000729,0 106.70105743,10.85989094,0 106.69965363,10.86005974,0 106.69824219,10.86022854,0 106.69683838,10.86039639,0 106.69543457,10.86056519,0 106.69544983,10.86065006,0 106.69544983,10.86065006,0 106.69544983,10.86065006,0 106.69544983,10.86065006,0 106.6954422,10.86056042,0 106.69384003,10.86068439,0 106.69223785,10.86080837,0 106.69223785,10.86087608,0 106.69223785,10.86087608,0 106.69223785,10.86079693,0 106.69082642,10.86088181,0 106.68941498,10.86096573,0 106.68941498,10.86104012,0 106.68941498,10.86104012,0 106.68941498,10.86104012,0 106.68941498,10.86104012,0 106.68942261,10.86098194,0 106.68836212,10.86104774,0 106.68730164,10.86111355,0 106.68623352,10.86117935,0 106.68517303,10.86124516,0 106.68517303,10.86132431,0 106.68517303,10.86132431,0 106.68517303,10.86132431,0 106.68517303,10.86132431,0 106.68517303,10.86132431,0 106.68515015,10.86124039,0 106.68373108,10.86133003,0 106.68230438,10.86141872,0 106.68231964,10.86150265,0 106.68231964,10.86150265,0 106.68231964,10.86150265,0 106.68231964,10.86150265,0 106.68231964,10.86150265,0 106.68231201,10.86140347,0 106.6802063,10.86156654,0 106.67933655,10.8616457,0 106.67935181,10.86172485,0 106.67935181,10.86172485,0 106.67936707,10.86163998,0 106.67700195,10.8618145,0 106.67456055,10.86190891,0 106.67456055,10.86196709,0 106.67456055,10.86196709,0 106.67456055,10.86196709,0 106.67456055,10.86196709,0 106.67456055,10.86186695,0 106.67390442,10.86185837,0 106.67324829,10.86184883,0 106.67259216,10.86183929,0 106.67193604,10.86182976,0 106.67193604,10.86190414,0 106.67193604,10.86190414,0 106.67193604,10.86190414,0 106.67193604,10.86190414,0 106.67193604,10.86190414,0 106.67193604,10.86190414,0 106.67193604,10.86190414,0 106.67194366,10.86180878,0 106.66970062,10.86178017,0 106.66745758,10.8617506,0 106.66745758,10.86187744,0 106.66745758,10.86187744,0 106.66745758,10.86187744,0 106.66745758,10.86187744,0 106.66745758,10.86187744,0 106.66745758,10.86187744,0 106.66745758,10.86187744,0 106.66746521,10.86177731,0 106.66594696,10.86176395,0 106.66442871,10.8617506,0 106.66291046,10.86172199,0 106.66139221,10.86169338,0 106.66139221,10.86181927,0 106.66139221,10.86181927,0 106.66139221,10.86181927,0 106.66139221,10.86181927,0 106.66139221,10.86181927,0 106.66139221,10.86181927,0 106.66139221,10.86181927,0 106.66139221,10.86181927,0 106.66139221,10.86169338,0 106.66033936,10.86173534,0 106.65927887,10.86177731,0 106.65822601,10.86181927,0 106.65716553,10.86186123,0 106.65718079,10.86198807,0 106.65718079,10.86198807,0 106.65718079,10.86198807,0 106.65718079,10.86198807,0 106.65718079,10.86198807,0 106.65718079,10.86198807,0 106.65718079,10.86198807,0 106.65718842,10.86187744,0 106.65625,10.8619194,0 106.65530396,10.86196232,0 106.65436554,10.86200428,0 106.65341949,10.86204624,0 106.65342712,10.86211395,0 106.65342712,10.86211395,0 106.65342712,10.86211395,0 106.65342712,10.86211395,0 106.65342712,10.86211395,0 106.65342712,10.86204624,0 106.65267944,10.86205959,0 106.65244293,10.86209965,0 106.65189362,10.86211967,0 106.65074921,10.86218834,0 106.65075684,10.86227322,0 106.65075684,10.86227322,0 106.65075684,10.86227322,0 106.65075684,10.86227322,0 106.65075684,10.86217976,0 106.65035248,10.86217976,0 106.64987183,10.86213017,0 106.64955902,10.86207008,0 106.64903259,10.86190033,0 106.64859009,10.86170006,0 106.64853668,10.86176682,0 106.64853668,10.86176682,0 106.64853668,10.86176682,0 106.64853668,10.86176682,0 106.64853668,10.86176682,0 106.64859009,10.86170387,0 106.64789581,10.86130333,0 106.64719391,10.86093426,0 106.64648438,10.8605423,0 106.64575958,10.86015987,0 106.64568329,10.86030197,0 106.64568329,10.86030197,0 106.64568329,10.86030197,0 106.64568329,10.86030197,0 106.64568329,10.86030197,0 106.64568329,10.86030197,0 106.64568329,10.86030197,0 106.64576721,10.86015511,0 106.64382935,10.85907459,0 106.64100647,10.8575201,0 106.64091492,10.85766792,0 106.64091492,10.85766792,0 106.64091492,10.85766792,0 106.64091492,10.85766792,0 106.64091492,10.85766792,0 106.64091492,10.85766792,0 106.64091492,10.85766792,0 106.64099121,10.85755253,0 106.63964081,10.85681152,0 106.63829803,10.85607147,0 106.63816833,10.85625553,0 106.63816833,10.85625553,0 106.63816833,10.85625553,0 106.63816833,10.85625553,0 106.63816833,10.85625553,0 106.63831329,10.8560667,0 106.63687134,10.8552866,0 106.63542938,10.85450649,0 106.63398743,10.85371399,0 106.63254547,10.85292149,0 106.63246918,10.85304832,0 106.63246918,10.85304832,0 106.63246918,10.85304832,0 106.63246918,10.85304832,0 106.63246918,10.85304832,0 106.63253784,10.85294724,0 106.6309967,10.8521204,0 106.63093567,10.85224247,0 106.63093567,10.85224247,0 106.63093567,10.85224247,0 106.63093567,10.85224247,0 106.63093567,10.85224247,0 106.63101196,10.85211468,0 106.62950134,10.85138035,0 106.62734985,10.85037041,0 106.62438202,10.84899044,0 106.6243515,10.8490696,0 106.6243515,10.8490696,0 106.6243515,10.8490696,0 106.62437439,10.84899044,0 106.62271881,10.84822178,0 106.62108612,10.84745216,0 106.6210556,10.84749985,0 106.6210556,10.84749985,0 106.6210556,10.84749985,0 106.62107849,10.84745216,0 106.61991119,10.84677792,0 106.61933899,10.8463459,0 106.61880493,10.84588718,0 106.61875916,10.84593487,0 106.61875916,10.84593487,0 106.61875916,10.84593487,0 106.61875916,10.84593487,0 106.61880493,10.84589863,0 106.61756897,10.84479713,0 106.61722565,10.84459114,0 106.61611176,10.84359074,0 106.61608124,10.84362316,0 106.61608124,10.84362316,0 106.61608124,10.84362316,0 106.61608124,10.84362316,0 106.61608124,10.84362316,0 106.61612701,10.8435955,0 106.61579895,10.84337997,0 106.61538696,10.84325886,0 106.61505127,10.84341621,0 106.61415863,10.84463406,0 106.61347198,10.84577656,0 106.61351776,10.84580326,0 106.61351776,10.84580326,0 106.61351776,10.84580326,0 106.61351776,10.84580326,0 106.61343384,10.8457613,0 106.61292267,10.84655094,0 106.61248016,10.8472681,0 106.61235809,10.84719372,0 106.61273193,10.84657288,0 106.61313629,10.84595203,0 106.61356354,10.84520817,0 106.61352539,10.84518719,0 106.61352539,10.84518719,0 106.61352539,10.84518719,0 106.61352539,10.84518719,0 106.61352539,10.84518719,0 106.61352539,10.84518719,0 106.61358643,10.84522343,0 106.61406708,10.84443855,0 106.61330414,10.84384346,0 106.6133728,10.8437376,0</coordinates>
        </LineString>
      </Placemark>
      <Folder>
        <name>Trạm dừng (53 trạm)</name>
        <Placemark>
          <name>[BXLT Thu Dau Mot] Bến xe khách Bình Dương</name>
          <description><![CDATA[&lt;b&gt;Trạm:&lt;/b&gt; Bến xe khách Bình Dương&lt;br/&gt;&lt;b&gt;Mã trạm:&lt;/b&gt; BXLT Thu Dau Mot&lt;br/&gt;&lt;b&gt;Địa chỉ:&lt;/b&gt; Bến xe khách Bình Dương Đường 30 tháng 4&lt;br/&gt;&lt;b&gt;Khu vực:&lt;/b&gt; None, Ngoại thành&lt;br/&gt;&lt;b&gt;Các tuyến qua trạm:&lt;/b&gt; 60-15, 61-2, 61-3, 61-4, 61-8, 61-9]]></description>
          <styleUrl>#busStopStyle</styleUrl>
          <Point>
            <coordinates>106.668524,10.96564,0</coordinates>
          </Point>
        </Placemark>
        <Placemark>
          <name>[BD-0017] Bến xe khách tỉnh Bình Dương (Cổng cty điện lực)</name>
          <description><![CDATA[&lt;b&gt;Trạm:&lt;/b&gt; Bến xe khách tỉnh Bình Dương (Cổng cty điện lực)&lt;br/&gt;&lt;b&gt;Mã trạm:&lt;/b&gt; BD-0017&lt;br/&gt;&lt;b&gt;Địa chỉ:&lt;/b&gt; sô 233, đường 30/4, Phường Thủ Dầu Một đường 30/4&lt;br/&gt;&lt;b&gt;Khu vực:&lt;/b&gt; None, Bình Dương&lt;br/&gt;&lt;b&gt;Các tuyến qua trạm:&lt;/b&gt; 60-15, 60-18, 61-3, 61-37, 61-38, 61-39, 61-51, 61-52, 61-53]]></description>
          <styleUrl>#busStopStyle</styleUrl>
          <Point>
            <coordinates>106.669017,10.966524,0</coordinates>
          </Point>
        </Placemark>
        <Placemark>
          <name>[BD-0015] Sân vận động Gò Đậu - Bình Dương</name>
          <description><![CDATA[&lt;b&gt;Trạm:&lt;/b&gt; Sân vận động Gò Đậu - Bình Dương&lt;br/&gt;&lt;b&gt;Mã trạm:&lt;/b&gt; BD-0015&lt;br/&gt;&lt;b&gt;Địa chỉ:&lt;/b&gt; đối diện 254, đường 30/4, Phường Thủ Dầu Một đường 30/4&lt;br/&gt;&lt;b&gt;Khu vực:&lt;/b&gt; None, Bình Dương&lt;br/&gt;&lt;b&gt;Các tuyến qua trạm:&lt;/b&gt; 60-15, 60-18, 61-3, 61-37, 61-38, 61-39, 61-51, 61-52, 61-53]]></description>
          <styleUrl>#busStopStyle</styleUrl>
          <Point>
            <coordinates>106.670637,10.970393,0</coordinates>
          </Point>
        </Placemark>
        <Placemark>
          <name>[BD-0950] Sân banh Gò Đậu</name>
          <description><![CDATA[&lt;b&gt;Trạm:&lt;/b&gt; Sân banh Gò Đậu&lt;br/&gt;&lt;b&gt;Mã trạm:&lt;/b&gt; BD-0950&lt;br/&gt;&lt;b&gt;Địa chỉ:&lt;/b&gt; Sân banh Gò Đậu Quốc lộ 13&lt;br/&gt;&lt;b&gt;Khu vực:&lt;/b&gt; None, Bình Dương&lt;br/&gt;&lt;b&gt;Các tuyến qua trạm:&lt;/b&gt; 171, 61-3]]></description>
          <styleUrl>#busStopStyle</styleUrl>
          <Point>
            <coordinates>106.672804,10.971775,0</coordinates>
          </Point>
        </Placemark>
        <Placemark>
          <name>[BD-0694] Vietcombank 185-187 QL13 - Gò Đậu -&gt; Cổng chào Bình Dương</name>
          <description><![CDATA[&lt;b&gt;Trạm:&lt;/b&gt; Vietcombank 185-187 QL13 - Gò Đậu -&gt; Cổng chào Bình Dương&lt;br/&gt;&lt;b&gt;Mã trạm:&lt;/b&gt; BD-0694&lt;br/&gt;&lt;b&gt;Địa chỉ:&lt;/b&gt; Vietcombank 185-187 QL13 - Gò Đậu -&gt; Cổng chào Bình Dương Quốc lộ 13&lt;br/&gt;&lt;b&gt;Khu vực:&lt;/b&gt; None, Bình Dương&lt;br/&gt;&lt;b&gt;Các tuyến qua trạm:&lt;/b&gt; 171, 61-3]]></description>
          <styleUrl>#busStopStyle</styleUrl>
          <Point>
            <coordinates>106.676989,10.969658,0</coordinates>
          </Point>
        </Placemark>
        <Placemark>
          <name>[BD-0696] Mega market ( Metro cũ) - Gò Đậu -&gt; Cổng chào Bình Dương</name>
          <description><![CDATA[&lt;b&gt;Trạm:&lt;/b&gt; Mega market ( Metro cũ) - Gò Đậu -&gt; Cổng chào Bình Dương&lt;br/&gt;&lt;b&gt;Mã trạm:&lt;/b&gt; BD-0696&lt;br/&gt;&lt;b&gt;Địa chỉ:&lt;/b&gt; Mega market ( Metro cũ) - Gò Đậu -&gt; Cổng chào Bình Dương Quốc lộ 13&lt;br/&gt;&lt;b&gt;Khu vực:&lt;/b&gt; None, Bình Dương&lt;br/&gt;&lt;b&gt;Các tuyến qua trạm:&lt;/b&gt; 171, 61-3]]></description>
          <styleUrl>#busStopStyle</styleUrl>
          <Point>
            <coordinates>106.688141,10.96397,0</coordinates>
          </Point>
        </Placemark>
        <Placemark>
          <name>[BD-0997] Thiên Hải Auto</name>
          <description><![CDATA[&lt;b&gt;Trạm:&lt;/b&gt; Thiên Hải Auto&lt;br/&gt;&lt;b&gt;Mã trạm:&lt;/b&gt; BD-0997&lt;br/&gt;&lt;b&gt;Địa chỉ:&lt;/b&gt; Cột điện 160 Quốc lộ 13&lt;br/&gt;&lt;b&gt;Khu vực:&lt;/b&gt; None, Bình Dương&lt;br/&gt;&lt;b&gt;Các tuyến qua trạm:&lt;/b&gt; 171, 61-3]]></description>
          <styleUrl>#busStopStyle</styleUrl>
          <Point>
            <coordinates>106.691869,10.962234,0</coordinates>
          </Point>
        </Placemark>
        <Placemark>
          <name>[BD-0998] Nhà sách Nguyễn Văn Cừ</name>
          <description><![CDATA[&lt;b&gt;Trạm:&lt;/b&gt; Nhà sách Nguyễn Văn Cừ&lt;br/&gt;&lt;b&gt;Mã trạm:&lt;/b&gt; BD-0998&lt;br/&gt;&lt;b&gt;Địa chỉ:&lt;/b&gt; 243/1 Quốc lộ 13&lt;br/&gt;&lt;b&gt;Khu vực:&lt;/b&gt; None, Bình Dương&lt;br/&gt;&lt;b&gt;Các tuyến qua trạm:&lt;/b&gt; 171, 61-3]]></description>
          <styleUrl>#busStopStyle</styleUrl>
          <Point>
            <coordinates>106.699734,10.957411,0</coordinates>
          </Point>
        </Placemark>
        <Placemark>
          <name>[BD-0962] Tạp hóa chú 3 số 512c QL13 - Gò Đậu -&gt; Cổng chào Bình Dương</name>
          <description><![CDATA[&lt;b&gt;Trạm:&lt;/b&gt; Tạp hóa chú 3 số 512c QL13 - Gò Đậu -&gt; Cổng chào Bình Dương&lt;br/&gt;&lt;b&gt;Mã trạm:&lt;/b&gt; BD-0962&lt;br/&gt;&lt;b&gt;Địa chỉ:&lt;/b&gt; Tạp hóa chú 3 số 512c QL13 - Gò Đậu -&gt; Cổng chào Bình Dương Quốc lộ 13&lt;br/&gt;&lt;b&gt;Khu vực:&lt;/b&gt; None, Bình Dương&lt;br/&gt;&lt;b&gt;Các tuyến qua trạm:&lt;/b&gt; 171, 61-3]]></description>
          <styleUrl>#busStopStyle</styleUrl>
          <Point>
            <coordinates>106.706375,10.949703,0</coordinates>
          </Point>
        </Placemark>
        <Placemark>
          <name>[BD-0699] Nhà hàng Nhật Sakura - Gò Đậu -&gt; Cổng chào Bình Dương</name>
          <description><![CDATA[&lt;b&gt;Trạm:&lt;/b&gt; Nhà hàng Nhật Sakura - Gò Đậu -&gt; Cổng chào Bình Dương&lt;br/&gt;&lt;b&gt;Mã trạm:&lt;/b&gt; BD-0699&lt;br/&gt;&lt;b&gt;Địa chỉ:&lt;/b&gt; Nhà hàng Nhật Sakura - Gò Đậu -&gt; Cổng chào Bình Dương Quốc lộ 13&lt;br/&gt;&lt;b&gt;Khu vực:&lt;/b&gt; None, Bình Dương&lt;br/&gt;&lt;b&gt;Các tuyến qua trạm:&lt;/b&gt; 171, 61-3]]></description>
          <styleUrl>#busStopStyle</styleUrl>
          <Point>
            <coordinates>106.710248,10.933607,0</coordinates>
          </Point>
        </Placemark>
        <Placemark>
          <name>[BD-0964] Sân gôn Sông Bé - Gò Đậu -&gt; Cổng chào Bình Dương</name>
          <description><![CDATA[&lt;b&gt;Trạm:&lt;/b&gt; Sân gôn Sông Bé - Gò Đậu -&gt; Cổng chào Bình Dương&lt;br/&gt;&lt;b&gt;Mã trạm:&lt;/b&gt; BD-0964&lt;br/&gt;&lt;b&gt;Địa chỉ:&lt;/b&gt; Sân gôn Sông Bé - Gò Đậu -&gt; Cổng chào Bình Dương Quốc lộ 13&lt;br/&gt;&lt;b&gt;Khu vực:&lt;/b&gt; None, Bình Dương&lt;br/&gt;&lt;b&gt;Các tuyến qua trạm:&lt;/b&gt; 171, 61-3]]></description>
          <styleUrl>#busStopStyle</styleUrl>
          <Point>
            <coordinates>106.710677,10.931874,0</coordinates>
          </Point>
        </Placemark>
        <Placemark>
          <name>[BD-0965] Công ty xây dựng Hằng Tiền - Gò Đậu -&gt; Cổng chào Bình Dương</name>
          <description><![CDATA[&lt;b&gt;Trạm:&lt;/b&gt; Công ty xây dựng Hằng Tiền - Gò Đậu -&gt; Cổng chào Bình Dương&lt;br/&gt;&lt;b&gt;Mã trạm:&lt;/b&gt; BD-0965&lt;br/&gt;&lt;b&gt;Địa chỉ:&lt;/b&gt; Công ty xây dựng Hằng Tiền - Gò Đậu -&gt; Cổng chào Bình Dương Quốc lộ 13&lt;br/&gt;&lt;b&gt;Khu vực:&lt;/b&gt; None, Bình Dương&lt;br/&gt;&lt;b&gt;Các tuyến qua trạm:&lt;/b&gt; 171, 61-3]]></description>
          <styleUrl>#busStopStyle</styleUrl>
          <Point>
            <coordinates>106.713209,10.919028,0</coordinates>
          </Point>
        </Placemark>
        <Placemark>
          <name>[BD-0966] Siêu thị Lotte -  Gò Đậu -&gt; Cổng chào Bình Dương</name>
          <description><![CDATA[&lt;b&gt;Trạm:&lt;/b&gt; Siêu thị Lotte -  Gò Đậu -&gt; Cổng chào Bình Dương&lt;br/&gt;&lt;b&gt;Mã trạm:&lt;/b&gt; BD-0966&lt;br/&gt;&lt;b&gt;Địa chỉ:&lt;/b&gt; Siêu thị Lotte -  Gò Đậu -&gt; Cổng chào Bình Dương Quốc lộ 13&lt;br/&gt;&lt;b&gt;Khu vực:&lt;/b&gt; None, Bình Dương&lt;br/&gt;&lt;b&gt;Các tuyến qua trạm:&lt;/b&gt; 171, 61-3]]></description>
          <styleUrl>#busStopStyle</styleUrl>
          <Point>
            <coordinates>106.712517,10.905275,0</coordinates>
          </Point>
        </Placemark>
        <Placemark>
          <name>[BD-0999] Cửa hàng Hoàng Gia Lâm</name>
          <description><![CDATA[&lt;b&gt;Trạm:&lt;/b&gt; Cửa hàng Hoàng Gia Lâm&lt;br/&gt;&lt;b&gt;Mã trạm:&lt;/b&gt; BD-0999&lt;br/&gt;&lt;b&gt;Địa chỉ:&lt;/b&gt; 465C (Cột điện 13) Quốc lộ 13&lt;br/&gt;&lt;b&gt;Khu vực:&lt;/b&gt; None, Bình Dương&lt;br/&gt;&lt;b&gt;Các tuyến qua trạm:&lt;/b&gt; 171, 61-3, 61-8]]></description>
          <styleUrl>#busStopStyle</styleUrl>
          <Point>
            <coordinates>106.710716,10.900044,0</coordinates>
          </Point>
        </Placemark>
        <Placemark>
          <name>[BD-1000] Đối diện Gỗ Vạn Tiến Phúc</name>
          <description><![CDATA[&lt;b&gt;Trạm:&lt;/b&gt; Đối diện Gỗ Vạn Tiến Phúc&lt;br/&gt;&lt;b&gt;Mã trạm:&lt;/b&gt; BD-1000&lt;br/&gt;&lt;b&gt;Địa chỉ:&lt;/b&gt; Đối diện Vạn Tiến Phúc (số 144) Quốc lộ 13&lt;br/&gt;&lt;b&gt;Khu vực:&lt;/b&gt; None, Bình Dương&lt;br/&gt;&lt;b&gt;Các tuyến qua trạm:&lt;/b&gt; 171, 61-3, 61-8]]></description>
          <styleUrl>#busStopStyle</styleUrl>
          <Point>
            <coordinates>106.707402,10.895817,0</coordinates>
          </Point>
        </Placemark>
        <Placemark>
          <name>[BD-1001] Kế tạp hóa Hải Dương</name>
          <description><![CDATA[&lt;b&gt;Trạm:&lt;/b&gt; Kế tạp hóa Hải Dương&lt;br/&gt;&lt;b&gt;Mã trạm:&lt;/b&gt; BD-1001&lt;br/&gt;&lt;b&gt;Địa chỉ:&lt;/b&gt; Kế 65D/1 (Cột điện 46) Quốc lộ 13&lt;br/&gt;&lt;b&gt;Khu vực:&lt;/b&gt; None, Bình Dương&lt;br/&gt;&lt;b&gt;Các tuyến qua trạm:&lt;/b&gt; 171, 61-3, 61-8]]></description>
          <styleUrl>#busStopStyle</styleUrl>
          <Point>
            <coordinates>106.702381,10.890022,0</coordinates>
          </Point>
        </Placemark>
        <Placemark>
          <name>[BD-1002] Kế sắt thép Phú Cường</name>
          <description><![CDATA[&lt;b&gt;Trạm:&lt;/b&gt; Kế sắt thép Phú Cường&lt;br/&gt;&lt;b&gt;Mã trạm:&lt;/b&gt; BD-1002&lt;br/&gt;&lt;b&gt;Địa chỉ:&lt;/b&gt; Kế sắt thép Phú Cường (số 1/10) Quốc lộ 13&lt;br/&gt;&lt;b&gt;Khu vực:&lt;/b&gt; None, Bình Dương&lt;br/&gt;&lt;b&gt;Các tuyến qua trạm:&lt;/b&gt; 171, 61-3, 61-8]]></description>
          <styleUrl>#busStopStyle</styleUrl>
          <Point>
            <coordinates>106.6989,10.885294,0</coordinates>
          </Point>
        </Placemark>
        <Placemark>
          <name>[BD-0701] Kamza - Gò Đậu -&gt; Cổng chào Bình Dương</name>
          <description><![CDATA[&lt;b&gt;Trạm:&lt;/b&gt; Kamza - Gò Đậu -&gt; Cổng chào Bình Dương&lt;br/&gt;&lt;b&gt;Mã trạm:&lt;/b&gt; BD-0701&lt;br/&gt;&lt;b&gt;Địa chỉ:&lt;/b&gt; Kamza - Gò Đậu -&gt; Cổng chào Bình Dương Quốc lộ 13&lt;br/&gt;&lt;b&gt;Khu vực:&lt;/b&gt; None, Bình Dương&lt;br/&gt;&lt;b&gt;Các tuyến qua trạm:&lt;/b&gt; 171, 61-3, 61-8]]></description>
          <styleUrl>#busStopStyle</styleUrl>
          <Point>
            <coordinates>106.698607,10.880353,0</coordinates>
          </Point>
        </Placemark>
        <Placemark>
          <name>[BD-1003] Đối diện Vạn Lộc Phát Palce</name>
          <description><![CDATA[&lt;b&gt;Trạm:&lt;/b&gt; Đối diện Vạn Lộc Phát Palce&lt;br/&gt;&lt;b&gt;Mã trạm:&lt;/b&gt; BD-1003&lt;br/&gt;&lt;b&gt;Địa chỉ:&lt;/b&gt; 45718 Quốc lộ 13&lt;br/&gt;&lt;b&gt;Khu vực:&lt;/b&gt; None, Bình Dương&lt;br/&gt;&lt;b&gt;Các tuyến qua trạm:&lt;/b&gt; 171, 61-3, 61-8]]></description>
          <styleUrl>#busStopStyle</styleUrl>
          <Point>
            <coordinates>106.702014,10.873902,0</coordinates>
          </Point>
        </Placemark>
        <Placemark>
          <name>[BD-0968] Đối diện khu phố Vĩnh Phú - Cổng chào Bình Dương -&gt; Gò Đậu</name>
          <description><![CDATA[&lt;b&gt;Trạm:&lt;/b&gt; Đối diện khu phố Vĩnh Phú - Cổng chào Bình Dương -&gt; Gò Đậu&lt;br/&gt;&lt;b&gt;Mã trạm:&lt;/b&gt; BD-0968&lt;br/&gt;&lt;b&gt;Địa chỉ:&lt;/b&gt; Đối diện khu phố Vĩnh Phú - Cổng chào Bình Dương -&gt; Gò Đậu Quốc lộ 13&lt;br/&gt;&lt;b&gt;Khu vực:&lt;/b&gt; None, Bình Dương&lt;br/&gt;&lt;b&gt;Các tuyến qua trạm:&lt;/b&gt; 171, 61-3, 61-8]]></description>
          <styleUrl>#busStopStyle</styleUrl>
          <Point>
            <coordinates>106.706901,10.870596,0</coordinates>
          </Point>
        </Placemark>
        <Placemark>
          <name>[QTD 212] Cầu Vĩnh Bình</name>
          <description><![CDATA[&lt;b&gt;Trạm:&lt;/b&gt; Cầu Vĩnh Bình&lt;br/&gt;&lt;b&gt;Mã trạm:&lt;/b&gt; QTD 212&lt;br/&gt;&lt;b&gt;Địa chỉ:&lt;/b&gt; 875 Quốc lộ 13&lt;br/&gt;&lt;b&gt;Khu vực:&lt;/b&gt; Phường Hiệp Bình Phước, TP. Thủ Đức - KV3&lt;br/&gt;&lt;b&gt;Các tuyến qua trạm:&lt;/b&gt; 171, 61-3, 61-8]]></description>
          <styleUrl>#busStopStyle</styleUrl>
          <Point>
            <coordinates>106.718254,10.867865,0</coordinates>
          </Point>
        </Placemark>
        <Placemark>
          <name>[QTD 213] Xây dựng Ngọc Đào</name>
          <description><![CDATA[&lt;b&gt;Trạm:&lt;/b&gt; Xây dựng Ngọc Đào&lt;br/&gt;&lt;b&gt;Mã trạm:&lt;/b&gt; QTD 213&lt;br/&gt;&lt;b&gt;Địa chỉ:&lt;/b&gt; Kế 801 Quốc lộ 13&lt;br/&gt;&lt;b&gt;Khu vực:&lt;/b&gt; Phường Hiệp Bình Phước, TP. Thủ Đức - KV3&lt;br/&gt;&lt;b&gt;Các tuyến qua trạm:&lt;/b&gt; 171, 61-3, 61-8]]></description>
          <styleUrl>#busStopStyle</styleUrl>
          <Point>
            <coordinates>106.722581,10.867065,0</coordinates>
          </Point>
        </Placemark>
        <Placemark>
          <name>[QTD 196] Cầu Bình Phước</name>
          <description><![CDATA[&lt;b&gt;Trạm:&lt;/b&gt; Cầu Bình Phước&lt;br/&gt;&lt;b&gt;Mã trạm:&lt;/b&gt; QTD 196&lt;br/&gt;&lt;b&gt;Địa chỉ:&lt;/b&gt; 39A Quốc lộ 1&lt;br/&gt;&lt;b&gt;Khu vực:&lt;/b&gt; None, TP. Thủ Đức - KV3&lt;br/&gt;&lt;b&gt;Các tuyến qua trạm:&lt;/b&gt; 33, 60-1, 61-3]]></description>
          <styleUrl>#busStopStyle</styleUrl>
          <Point>
            <coordinates>106.719894,10.863451,0</coordinates>
          </Point>
        </Placemark>
        <Placemark>
          <name>[Q12 061] Aone</name>
          <description><![CDATA[&lt;b&gt;Trạm:&lt;/b&gt; Aone&lt;br/&gt;&lt;b&gt;Mã trạm:&lt;/b&gt; Q12 061&lt;br/&gt;&lt;b&gt;Địa chỉ:&lt;/b&gt; Đối diện Aone Quốc lộ 1A&lt;br/&gt;&lt;b&gt;Khu vực:&lt;/b&gt; None, Quận 12&lt;br/&gt;&lt;b&gt;Các tuyến qua trạm:&lt;/b&gt; 33, 60-1, 61-3]]></description>
          <styleUrl>#busStopStyle</styleUrl>
          <Point>
            <coordinates>106.713096,10.85997,0</coordinates>
          </Point>
        </Placemark>
        <Placemark>
          <name>[Q12 062] Công ty EUROPA</name>
          <description><![CDATA[&lt;b&gt;Trạm:&lt;/b&gt; Công ty EUROPA&lt;br/&gt;&lt;b&gt;Mã trạm:&lt;/b&gt; Q12 062&lt;br/&gt;&lt;b&gt;Địa chỉ:&lt;/b&gt; Công ty EUROPA Quốc lộ 1A&lt;br/&gt;&lt;b&gt;Khu vực:&lt;/b&gt; None, Quận 12&lt;br/&gt;&lt;b&gt;Các tuyến qua trạm:&lt;/b&gt; 33, 60-1, 61-3]]></description>
          <styleUrl>#busStopStyle</styleUrl>
          <Point>
            <coordinates>106.707727,10.859148,0</coordinates>
          </Point>
        </Placemark>
        <Placemark>
          <name>[Q12 063] Tu viện Khánh An</name>
          <description><![CDATA[&lt;b&gt;Trạm:&lt;/b&gt; Tu viện Khánh An&lt;br/&gt;&lt;b&gt;Mã trạm:&lt;/b&gt; Q12 063&lt;br/&gt;&lt;b&gt;Địa chỉ:&lt;/b&gt; 1048/3B Quốc lộ 1A&lt;br/&gt;&lt;b&gt;Khu vực:&lt;/b&gt; None, Quận 12&lt;br/&gt;&lt;b&gt;Các tuyến qua trạm:&lt;/b&gt; 33, 61-3]]></description>
          <styleUrl>#busStopStyle</styleUrl>
          <Point>
            <coordinates>106.704948,10.859496,0</coordinates>
          </Point>
        </Placemark>
        <Placemark>
          <name>[Q12 064] Công ty Mai Linh</name>
          <description><![CDATA[&lt;b&gt;Trạm:&lt;/b&gt; Công ty Mai Linh&lt;br/&gt;&lt;b&gt;Mã trạm:&lt;/b&gt; Q12 064&lt;br/&gt;&lt;b&gt;Địa chỉ:&lt;/b&gt; 1691/3N Quốc lộ 1A&lt;br/&gt;&lt;b&gt;Khu vực:&lt;/b&gt; None, Quận 12&lt;br/&gt;&lt;b&gt;Các tuyến qua trạm:&lt;/b&gt; 33, 60-1, 61-3]]></description>
          <styleUrl>#busStopStyle</styleUrl>
          <Point>
            <coordinates>106.701086,10.860007,0</coordinates>
          </Point>
        </Placemark>
        <Placemark>
          <name>[Q12 065] Đình An Phú Đông</name>
          <description><![CDATA[&lt;b&gt;Trạm:&lt;/b&gt; Đình An Phú Đông&lt;br/&gt;&lt;b&gt;Mã trạm:&lt;/b&gt; Q12 065&lt;br/&gt;&lt;b&gt;Địa chỉ:&lt;/b&gt; Đối diện Đình An Phú Đông Quốc lộ 1A&lt;br/&gt;&lt;b&gt;Khu vực:&lt;/b&gt; None, Quận 12&lt;br/&gt;&lt;b&gt;Các tuyến qua trạm:&lt;/b&gt; 33, 60-1, 61-3]]></description>
          <styleUrl>#busStopStyle</styleUrl>
          <Point>
            <coordinates>106.695453,10.86065,0</coordinates>
          </Point>
        </Placemark>
        <Placemark>
          <name>[Q12 066] Đài Liệt sĩ An Phú Đông</name>
          <description><![CDATA[&lt;b&gt;Trạm:&lt;/b&gt; Đài Liệt sĩ An Phú Đông&lt;br/&gt;&lt;b&gt;Mã trạm:&lt;/b&gt; Q12 066&lt;br/&gt;&lt;b&gt;Địa chỉ:&lt;/b&gt; Đài Liệt sĩ An Phú Đông Quốc lộ 1A&lt;br/&gt;&lt;b&gt;Khu vực:&lt;/b&gt; None, Quận 12&lt;br/&gt;&lt;b&gt;Các tuyến qua trạm:&lt;/b&gt; 33, 61-3]]></description>
          <styleUrl>#busStopStyle</styleUrl>
          <Point>
            <coordinates>106.69224,10.860876,0</coordinates>
          </Point>
        </Placemark>
        <Placemark>
          <name>[Q12 067] Công ty Hồng Mã</name>
          <description><![CDATA[&lt;b&gt;Trạm:&lt;/b&gt; Công ty Hồng Mã&lt;br/&gt;&lt;b&gt;Mã trạm:&lt;/b&gt; Q12 067&lt;br/&gt;&lt;b&gt;Địa chỉ:&lt;/b&gt; Công ty Hồng Mã Quốc lộ 1A&lt;br/&gt;&lt;b&gt;Khu vực:&lt;/b&gt; None, Quận 12&lt;br/&gt;&lt;b&gt;Các tuyến qua trạm:&lt;/b&gt; 33, 60-1, 61-3]]></description>
          <styleUrl>#busStopStyle</styleUrl>
          <Point>
            <coordinates>106.689413,10.86104,0</coordinates>
          </Point>
        </Placemark>
        <Placemark>
          <name>[Q12 068] Phường An Phú Đông</name>
          <description><![CDATA[&lt;b&gt;Trạm:&lt;/b&gt; Phường An Phú Đông&lt;br/&gt;&lt;b&gt;Mã trạm:&lt;/b&gt; Q12 068&lt;br/&gt;&lt;b&gt;Địa chỉ:&lt;/b&gt; 616 - 618 Quốc lộ 1A&lt;br/&gt;&lt;b&gt;Khu vực:&lt;/b&gt; None, Quận 12&lt;br/&gt;&lt;b&gt;Các tuyến qua trạm:&lt;/b&gt; 33, 60-1, 61-3]]></description>
          <styleUrl>#busStopStyle</styleUrl>
          <Point>
            <coordinates>106.685175,10.861324,0</coordinates>
          </Point>
        </Placemark>
        <Placemark>
          <name>[Q12 069] Cầu Ga Nhỏ</name>
          <description><![CDATA[&lt;b&gt;Trạm:&lt;/b&gt; Cầu Ga Nhỏ&lt;br/&gt;&lt;b&gt;Mã trạm:&lt;/b&gt; Q12 069&lt;br/&gt;&lt;b&gt;Địa chỉ:&lt;/b&gt; 161 Quốc lộ 1A&lt;br/&gt;&lt;b&gt;Khu vực:&lt;/b&gt; None, Quận 12&lt;br/&gt;&lt;b&gt;Các tuyến qua trạm:&lt;/b&gt; 33, 61-3]]></description>
          <styleUrl>#busStopStyle</styleUrl>
          <Point>
            <coordinates>106.682321,10.861503,0</coordinates>
          </Point>
        </Placemark>
        <Placemark>
          <name>[Q12 070] Bến xe Ngã tư Ga</name>
          <description><![CDATA[&lt;b&gt;Trạm:&lt;/b&gt; Bến xe Ngã tư Ga&lt;br/&gt;&lt;b&gt;Mã trạm:&lt;/b&gt; Q12 070&lt;br/&gt;&lt;b&gt;Địa chỉ:&lt;/b&gt; Bến xe Ngã tư ga Quốc lộ 1A&lt;br/&gt;&lt;b&gt;Khu vực:&lt;/b&gt; None, Quận 12&lt;br/&gt;&lt;b&gt;Các tuyến qua trạm:&lt;/b&gt; 33, 58, 60-1, 61-3]]></description>
          <styleUrl>#busStopStyle</styleUrl>
          <Point>
            <coordinates>106.679354,10.861725,0</coordinates>
          </Point>
        </Placemark>
        <Placemark>
          <name>[Q12 071] Khu QLGTĐT số 3</name>
          <description><![CDATA[&lt;b&gt;Trạm:&lt;/b&gt; Khu QLGTĐT số 3&lt;br/&gt;&lt;b&gt;Mã trạm:&lt;/b&gt; Q12 071&lt;br/&gt;&lt;b&gt;Địa chỉ:&lt;/b&gt; 96/2 Quốc lộ 1A&lt;br/&gt;&lt;b&gt;Khu vực:&lt;/b&gt; None, Quận 12&lt;br/&gt;&lt;b&gt;Các tuyến qua trạm:&lt;/b&gt; 103, 161, 32, 33, 59, 60-1, 61-3]]></description>
          <styleUrl>#busStopStyle</styleUrl>
          <Point>
            <coordinates>106.674564,10.861967,0</coordinates>
          </Point>
        </Placemark>
        <Placemark>
          <name>[Q12 072] Tô Ngọc Vân</name>
          <description><![CDATA[&lt;b&gt;Trạm:&lt;/b&gt; Tô Ngọc Vân&lt;br/&gt;&lt;b&gt;Mã trạm:&lt;/b&gt; Q12 072&lt;br/&gt;&lt;b&gt;Địa chỉ:&lt;/b&gt; 972 Quốc lộ 1A&lt;br/&gt;&lt;b&gt;Khu vực:&lt;/b&gt; None, Quận 12&lt;br/&gt;&lt;b&gt;Các tuyến qua trạm:&lt;/b&gt; 103, 161, 32, 33, 59, 61-3]]></description>
          <styleUrl>#busStopStyle</styleUrl>
          <Point>
            <coordinates>106.671935,10.861904,0</coordinates>
          </Point>
        </Placemark>
        <Placemark>
          <name>[Q12 073] Trường Mầm non Ngôi Nhà Trẻ Thơ</name>
          <description><![CDATA[&lt;b&gt;Trạm:&lt;/b&gt; Trường Mầm non Ngôi Nhà Trẻ Thơ&lt;br/&gt;&lt;b&gt;Mã trạm:&lt;/b&gt; Q12 073&lt;br/&gt;&lt;b&gt;Địa chỉ:&lt;/b&gt; 990 Quốc lộ 1A&lt;br/&gt;&lt;b&gt;Khu vực:&lt;/b&gt; None, Quận 12&lt;br/&gt;&lt;b&gt;Các tuyến qua trạm:&lt;/b&gt; 103, 146, 33, 60-1, 61-3]]></description>
          <styleUrl>#busStopStyle</styleUrl>
          <Point>
            <coordinates>106.667461,10.861877,0</coordinates>
          </Point>
        </Placemark>
        <Placemark>
          <name>[Q12 074] Cơ khí Minh Huy</name>
          <description><![CDATA[&lt;b&gt;Trạm:&lt;/b&gt; Cơ khí Minh Huy&lt;br/&gt;&lt;b&gt;Mã trạm:&lt;/b&gt; Q12 074&lt;br/&gt;&lt;b&gt;Địa chỉ:&lt;/b&gt; 1218/11 Quốc lộ 1A&lt;br/&gt;&lt;b&gt;Khu vực:&lt;/b&gt; None, Quận 12&lt;br/&gt;&lt;b&gt;Các tuyến qua trạm:&lt;/b&gt; 103, 146, 33, 60-1, 61-3]]></description>
          <styleUrl>#busStopStyle</styleUrl>
          <Point>
            <coordinates>106.661389,10.861819,0</coordinates>
          </Point>
        </Placemark>
        <Placemark>
          <name>[Q12 075] Đá hoa cương Chí Thành</name>
          <description><![CDATA[&lt;b&gt;Trạm:&lt;/b&gt; Đá hoa cương Chí Thành&lt;br/&gt;&lt;b&gt;Mã trạm:&lt;/b&gt; Q12 075&lt;br/&gt;&lt;b&gt;Địa chỉ:&lt;/b&gt; 1360 Quốc lộ 1A&lt;br/&gt;&lt;b&gt;Khu vực:&lt;/b&gt; None, Quận 12&lt;br/&gt;&lt;b&gt;Các tuyến qua trạm:&lt;/b&gt; 103, 146, 33, 60-1, 61-3]]></description>
          <styleUrl>#busStopStyle</styleUrl>
          <Point>
            <coordinates>106.657183,10.861988,0</coordinates>
          </Point>
        </Placemark>
        <Placemark>
          <name>[Q12 076] Quận ủy Quận 12</name>
          <description><![CDATA[&lt;b&gt;Trạm:&lt;/b&gt; Quận ủy Quận 12&lt;br/&gt;&lt;b&gt;Mã trạm:&lt;/b&gt; Q12 076&lt;br/&gt;&lt;b&gt;Địa chỉ:&lt;/b&gt; 1456 (Quận Ủy quận 12) Quốc lộ 1A&lt;br/&gt;&lt;b&gt;Khu vực:&lt;/b&gt; None, Quận 12&lt;br/&gt;&lt;b&gt;Các tuyến qua trạm:&lt;/b&gt; 103, 33, 60-1, 61-3]]></description>
          <styleUrl>#busStopStyle</styleUrl>
          <Point>
            <coordinates>106.653428,10.862114,0</coordinates>
          </Point>
        </Placemark>
        <Placemark>
          <name>[Q12 077] Ngã tư Tân Thới Hiệp</name>
          <description><![CDATA[&lt;b&gt;Trạm:&lt;/b&gt; Ngã tư Tân Thới Hiệp&lt;br/&gt;&lt;b&gt;Mã trạm:&lt;/b&gt; Q12 077&lt;br/&gt;&lt;b&gt;Địa chỉ:&lt;/b&gt; 1680 Quốc lộ 1A&lt;br/&gt;&lt;b&gt;Khu vực:&lt;/b&gt; None, Quận 12&lt;br/&gt;&lt;b&gt;Các tuyến qua trạm:&lt;/b&gt; 103, 33, 61-3]]></description>
          <styleUrl>#busStopStyle</styleUrl>
          <Point>
            <coordinates>106.650757,10.862273,0</coordinates>
          </Point>
        </Placemark>
        <Placemark>
          <name>[Q12 078] Cao su Vina</name>
          <description><![CDATA[&lt;b&gt;Trạm:&lt;/b&gt; Cao su Vina&lt;br/&gt;&lt;b&gt;Mã trạm:&lt;/b&gt; Q12 078&lt;br/&gt;&lt;b&gt;Địa chỉ:&lt;/b&gt; 67/3A Quốc lộ 1A&lt;br/&gt;&lt;b&gt;Khu vực:&lt;/b&gt; None, Quận 12&lt;br/&gt;&lt;b&gt;Các tuyến qua trạm:&lt;/b&gt; 33, 60-1, 61-3, 62]]></description>
          <styleUrl>#busStopStyle</styleUrl>
          <Point>
            <coordinates>106.648536,10.861767,0</coordinates>
          </Point>
        </Placemark>
        <Placemark>
          <name>[Q12 079] Cây xăng Trung Tín</name>
          <description><![CDATA[&lt;b&gt;Trạm:&lt;/b&gt; Cây xăng Trung Tín&lt;br/&gt;&lt;b&gt;Mã trạm:&lt;/b&gt; Q12 079&lt;br/&gt;&lt;b&gt;Địa chỉ:&lt;/b&gt; 1828 Quốc lộ 1A&lt;br/&gt;&lt;b&gt;Khu vực:&lt;/b&gt; None, Quận 12&lt;br/&gt;&lt;b&gt;Các tuyến qua trạm:&lt;/b&gt; 33, 60-1, 61-3, 62]]></description>
          <styleUrl>#busStopStyle</styleUrl>
          <Point>
            <coordinates>106.645682,10.860302,0</coordinates>
          </Point>
        </Placemark>
        <Placemark>
          <name>[Q12 080] Trạm điện Hóc Môn</name>
          <description><![CDATA[&lt;b&gt;Trạm:&lt;/b&gt; Trạm điện Hóc Môn&lt;br/&gt;&lt;b&gt;Mã trạm:&lt;/b&gt; Q12 080&lt;br/&gt;&lt;b&gt;Địa chỉ:&lt;/b&gt; 1956 Quốc lộ 1A&lt;br/&gt;&lt;b&gt;Khu vực:&lt;/b&gt; None, Quận 12&lt;br/&gt;&lt;b&gt;Các tuyến qua trạm:&lt;/b&gt; 33, 60-1, 61-3, 62]]></description>
          <styleUrl>#busStopStyle</styleUrl>
          <Point>
            <coordinates>106.640918,10.857668,0</coordinates>
          </Point>
        </Placemark>
        <Placemark>
          <name>[Q12 081] Ngã tư Đình</name>
          <description><![CDATA[&lt;b&gt;Trạm:&lt;/b&gt; Ngã tư Đình&lt;br/&gt;&lt;b&gt;Mã trạm:&lt;/b&gt; Q12 081&lt;br/&gt;&lt;b&gt;Địa chỉ:&lt;/b&gt; 44D Quốc lộ 1A&lt;br/&gt;&lt;b&gt;Khu vực:&lt;/b&gt; None, Quận 12&lt;br/&gt;&lt;b&gt;Các tuyến qua trạm:&lt;/b&gt; 33, 60-1, 61-3, 62]]></description>
          <styleUrl>#busStopStyle</styleUrl>
          <Point>
            <coordinates>106.638172,10.856256,0</coordinates>
          </Point>
        </Placemark>
        <Placemark>
          <name>[Q12 083] Trường Nguyễn Du</name>
          <description><![CDATA[&lt;b&gt;Trạm:&lt;/b&gt; Trường Nguyễn Du&lt;br/&gt;&lt;b&gt;Mã trạm:&lt;/b&gt; Q12 083&lt;br/&gt;&lt;b&gt;Địa chỉ:&lt;/b&gt; Đối diện Trường Nguyễn Du Quốc lộ 1A&lt;br/&gt;&lt;b&gt;Khu vực:&lt;/b&gt; None, Quận 12&lt;br/&gt;&lt;b&gt;Các tuyến qua trạm:&lt;/b&gt; 33, 60-1, 61-3, 62]]></description>
          <styleUrl>#busStopStyle</styleUrl>
          <Point>
            <coordinates>106.632469,10.853048,0</coordinates>
          </Point>
        </Placemark>
        <Placemark>
          <name>[Q12 084] Công viên Phần mềm Quang Trung</name>
          <description><![CDATA[&lt;b&gt;Trạm:&lt;/b&gt; Công viên Phần mềm Quang Trung&lt;br/&gt;&lt;b&gt;Mã trạm:&lt;/b&gt; Q12 084&lt;br/&gt;&lt;b&gt;Địa chỉ:&lt;/b&gt; Công viên phần mềm Quang Trung Quốc lộ 1A&lt;br/&gt;&lt;b&gt;Khu vực:&lt;/b&gt; None, Quận 12&lt;br/&gt;&lt;b&gt;Các tuyến qua trạm:&lt;/b&gt; 33, 61-3, 62]]></description>
          <styleUrl>#busStopStyle</styleUrl>
          <Point>
            <coordinates>106.630935,10.852242,0</coordinates>
          </Point>
        </Placemark>
        <Placemark>
          <name>[Q12 085] Chung cư Thái An</name>
          <description><![CDATA[&lt;b&gt;Trạm:&lt;/b&gt; Chung cư Thái An&lt;br/&gt;&lt;b&gt;Mã trạm:&lt;/b&gt; Q12 085&lt;br/&gt;&lt;b&gt;Địa chỉ:&lt;/b&gt; Chung cư Thái An Quốc lộ 1A&lt;br/&gt;&lt;b&gt;Khu vực:&lt;/b&gt; None, Quận 12&lt;br/&gt;&lt;b&gt;Các tuyến qua trạm:&lt;/b&gt; 33, 60-1, 61-3]]></description>
          <styleUrl>#busStopStyle</styleUrl>
          <Point>
            <coordinates>106.624348,10.84907,0</coordinates>
          </Point>
        </Placemark>
        <Placemark>
          <name>[Q12 086] Trạm đăng kiểm</name>
          <description><![CDATA[&lt;b&gt;Trạm:&lt;/b&gt; Trạm đăng kiểm&lt;br/&gt;&lt;b&gt;Mã trạm:&lt;/b&gt; Q12 086&lt;br/&gt;&lt;b&gt;Địa chỉ:&lt;/b&gt; Trạm đăng kiểm Quốc lộ 1A&lt;br/&gt;&lt;b&gt;Khu vực:&lt;/b&gt; None, Quận 12&lt;br/&gt;&lt;b&gt;Các tuyến qua trạm:&lt;/b&gt; 33, 60-1, 61-3]]></description>
          <styleUrl>#busStopStyle</styleUrl>
          <Point>
            <coordinates>106.621059,10.8475,0</coordinates>
          </Point>
        </Placemark>
        <Placemark>
          <name>[Q12 087] Bãi xe Tây Nam</name>
          <description><![CDATA[&lt;b&gt;Trạm:&lt;/b&gt; Bãi xe Tây Nam&lt;br/&gt;&lt;b&gt;Mã trạm:&lt;/b&gt; Q12 087&lt;br/&gt;&lt;b&gt;Địa chỉ:&lt;/b&gt; Đối diện Bãi xe Tây Nam Quốc lộ 1A&lt;br/&gt;&lt;b&gt;Khu vực:&lt;/b&gt; None, Quận 12&lt;br/&gt;&lt;b&gt;Các tuyến qua trạm:&lt;/b&gt; 33, 61-3]]></description>
          <styleUrl>#busStopStyle</styleUrl>
          <Point>
            <coordinates>106.618758,10.845935,0</coordinates>
          </Point>
        </Placemark>
        <Placemark>
          <name>[Q12 088] Cầu vượt An Sương</name>
          <description><![CDATA[&lt;b&gt;Trạm:&lt;/b&gt; Cầu vượt An Sương&lt;br/&gt;&lt;b&gt;Mã trạm:&lt;/b&gt; Q12 088&lt;br/&gt;&lt;b&gt;Địa chỉ:&lt;/b&gt; Xưởng Z735 Quốc lộ 1A&lt;br/&gt;&lt;b&gt;Khu vực:&lt;/b&gt; None, Quận 12&lt;br/&gt;&lt;b&gt;Các tuyến qua trạm:&lt;/b&gt; 33, 60-1, 61-3]]></description>
          <styleUrl>#busStopStyle</styleUrl>
          <Point>
            <coordinates>106.616081,10.843623,0</coordinates>
          </Point>
        </Placemark>
        <Placemark>
          <name>[Q12 122] Bến xe An Sương</name>
          <description><![CDATA[&lt;b&gt;Trạm:&lt;/b&gt; Bến xe An Sương&lt;br/&gt;&lt;b&gt;Mã trạm:&lt;/b&gt; Q12 122&lt;br/&gt;&lt;b&gt;Địa chỉ:&lt;/b&gt; F42 Quốc lộ 22&lt;br/&gt;&lt;b&gt;Khu vực:&lt;/b&gt; None, Quận 12&lt;br/&gt;&lt;b&gt;Các tuyến qua trạm:&lt;/b&gt; 04, 104, 122, 145, 33, 61-3]]></description>
          <styleUrl>#busStopStyle</styleUrl>
          <Point>
            <coordinates>106.613517,10.845803,0</coordinates>
          </Point>
        </Placemark>
        <Placemark>
          <name>[HHM 058] Bến xe An Sương</name>
          <description><![CDATA[&lt;b&gt;Trạm:&lt;/b&gt; Bến xe An Sương&lt;br/&gt;&lt;b&gt;Mã trạm:&lt;/b&gt; HHM 058&lt;br/&gt;&lt;b&gt;Địa chỉ:&lt;/b&gt; 1B Quốc lộ 22&lt;br/&gt;&lt;b&gt;Khu vực:&lt;/b&gt; Xã Bà Điểm, Huyện Hóc Môn&lt;br/&gt;&lt;b&gt;Các tuyến qua trạm:&lt;/b&gt; 04, 104, 122, 13, 145, 151, 33, 41, 61-3, 62-5, 65, 71, 74, 85, 94]]></description>
          <styleUrl>#busStopStyle</styleUrl>
          <Point>
            <coordinates>106.613522,10.845187,0</coordinates>
          </Point>
        </Placemark>
        <Placemark>
          <name>[BX41] Bến xe An Sương</name>
          <description><![CDATA[&lt;b&gt;Trạm:&lt;/b&gt; Bến xe An Sương&lt;br/&gt;&lt;b&gt;Mã trạm:&lt;/b&gt; BX41&lt;br/&gt;&lt;b&gt;Địa chỉ:&lt;/b&gt; Bến xe An Sương Quốc lộ 22&lt;br/&gt;&lt;b&gt;Khu vực:&lt;/b&gt; None, Quận 12&lt;br/&gt;&lt;b&gt;Các tuyến qua trạm:&lt;/b&gt; 04, 104, 122, 151, 27, 33, 41, 61-3, 62-5, 65, 71, 74, 85]]></description>
          <styleUrl>#busStopStyle</styleUrl>
          <Point>
            <coordinates>106.61337280273438,10.843737602233887,0</coordinates>
          </Point>
        </Placemark>
      </Folder>
    </Folder>
    <Folder>
      <name>Lượt về: Bến xe An Sương → Bến xe khách Bình Dương (31.66 km)</name>
      <Placemark>
        <name>B 61-3 - Đường đi Lượt về</name>
        <description><![CDATA[&lt;b&gt;Tuyến:&lt;/b&gt; B 61-3 - Thủ Dầu Một - Bến xe An Sương&lt;br/&gt;&lt;b&gt;Lượt:&lt;/b&gt; Lượt về&lt;br/&gt;&lt;b&gt;Cự ly:&lt;/b&gt; 31.66 km&lt;br/&gt;&lt;b&gt;Thời gian hành trình:&lt;/b&gt; 75 phút&lt;br/&gt;&lt;b&gt;Thời gian hoạt động:&lt;/b&gt; 6:00 - 16:30]]></description>
        <styleUrl>#routeLineStyle</styleUrl>
        <LineString>
          <tessellate>1</tessellate>
          <coordinates>106.6133728,10.8437376,0 106.61352539,10.84354877,0 106.6136322,10.84366417,0 106.6135788,10.84382725,0 106.61361694,10.84400177,0 106.61398315,10.84427547,0 106.61449432,10.84352493,0 106.61500549,10.84277344,0 106.61505127,10.84249496,0 106.61531067,10.84233665,0 106.61556244,10.84245205,0 106.61565399,10.84259987,0 106.61565399,10.84276867,0 106.61669922,10.84370613,0 106.61773682,10.84464931,0 106.61780548,10.84461784,0 106.61780548,10.84461784,0 106.61780548,10.84461784,0 106.61773682,10.84469128,0 106.61867523,10.84554482,0 106.61962128,10.84629822,0 106.62044525,10.84692574,0 106.62147522,10.84745216,0 106.62150574,10.84741783,0 106.62150574,10.84741783,0 106.62150574,10.84741783,0 106.62149048,10.84746838,0 106.62316895,10.84826946,0 106.62482452,10.84902287,0 106.62490082,10.84890079,0 106.62490082,10.84890079,0 106.62484741,10.84902763,0 106.62615967,10.84963894,0 106.62747192,10.85025024,0 106.62757111,10.85007095,0 106.62757111,10.85007095,0 106.62757111,10.85007095,0 106.62757111,10.85007095,0 106.62757111,10.85007095,0 106.62749481,10.85024452,0 106.62870026,10.85081768,0 106.62992859,10.85140419,0 106.63111115,10.85201645,0 106.63230896,10.85262585,0 106.63234711,10.85258293,0 106.63234711,10.85258293,0 106.63234711,10.85258293,0 106.63234711,10.85258293,0 106.63234711,10.85258293,0 106.63233185,10.85264206,0 106.6346283,10.85387516,0 106.6346817,10.85380554,0 106.6346817,10.85380554,0 106.6346817,10.85380554,0 106.63462067,10.85388565,0 106.63593292,10.85459995,0 106.63724518,10.8553133,0 106.63852692,10.85600853,0 106.63980865,10.85670376,0 106.63983154,10.85666656,0 106.63983154,10.85666656,0 106.63983154,10.85666656,0 106.63980103,10.85671997,0 106.64185333,10.85785007,0 106.64417267,10.85910034,0 106.6442337,10.85895348,0 106.6442337,10.85895348,0 106.64417267,10.85908508,0 106.64594269,10.86004448,0 106.64775085,10.86104488,0 106.64778137,10.86096954,0 106.64777374,10.86102962,0 106.64784241,10.86104965,0 106.64851379,10.86139965,0 106.64910889,10.86168957,0 106.64945984,10.86180019,0 106.64978027,10.86188984,0 106.65019226,10.86194992,0 106.6506424,10.86196041,0 106.65119934,10.86194038,0 106.65119934,10.86188126,0 106.65118408,10.86194038,0 106.65213776,10.86188793,0 106.6526413,10.86190414,0 106.6533432,10.86188793,0 106.6540451,10.86187172,0 106.65405273,10.86180782,0 106.65406036,10.86186028,0 106.65550995,10.8617897,0 106.65712738,10.86172009,0 106.65712738,10.86165142,0 106.65712738,10.86165142,0 106.65712738,10.86165142,0 106.65712738,10.86165142,0 106.65712738,10.86172009,0 106.65968323,10.8616066,0 106.66223907,10.86149311,0 106.6622467,10.8613348,0 106.6622467,10.8613348,0 106.6622467,10.8613348,0 106.6622467,10.8613348,0 106.6622467,10.8613348,0 106.66223907,10.86149311,0 106.66435242,10.86153221,0 106.66645813,10.86157227,0 106.66645813,10.86150265,0 106.66645813,10.86150265,0 106.66644287,10.86163998,0 106.66763306,10.861619,0 106.67015076,10.86163998,0 106.67188263,10.86166954,0 106.67188263,10.86157703,0 106.67188263,10.86157703,0 106.67188263,10.86157703,0 106.67188263,10.86157703,0 106.67189789,10.8616724,0 106.673172,10.86169052,0 106.67445374,10.86170864,0 106.67444611,10.861619,0 106.67444611,10.861619,0 106.67444611,10.861619,0 106.67444611,10.861619,0 106.67444611,10.861619,0 106.67444611,10.86169338,0 106.675354,10.86165905,0 106.6762619,10.86162472,0 106.6771698,10.86157703,0 106.6780777,10.86152935,0 106.6780777,10.86147213,0 106.6780777,10.86147213,0 106.6780777,10.86147213,0 106.6780777,10.86155033,0 106.68005371,10.86143494,0 106.68200684,10.86127186,0 106.68200684,10.86117077,0 106.68200684,10.86117077,0 106.68200684,10.86117077,0 106.68199921,10.86127663,0 106.68382263,10.86116886,0 106.68564606,10.8610611,0 106.6866684,10.86099243,0 106.68665314,10.86089706,0 106.68665314,10.86089706,0 106.68667603,10.86098671,0 106.68792725,10.860919,0 106.68917084,10.86085033,0 106.68917847,10.8607502,0 106.68917847,10.8607502,0 106.68917847,10.8607502,0 106.68917847,10.86081028,0 106.69232941,10.86060238,0 106.69232941,10.86038589,0 106.69232941,10.86038589,0 106.69233704,10.86059189,0 106.69449615,10.86046028,0 106.69451141,10.86036491,0 106.69451141,10.86036491,0 106.69451141,10.86036491,0 106.69450378,10.86046505,0 106.69556427,10.86038685,0 106.69665527,10.86029148,0 106.69867706,10.8600359,0 106.70069885,10.85978031,0 106.70069885,10.85967541,0 106.70069885,10.85967541,0 106.70069885,10.85967541,0 106.70071411,10.85977554,0 106.7033844,10.85944366,0 106.70604706,10.85911179,0 106.70604706,10.85901737,0 106.70604706,10.85901737,0 106.70604706,10.85901737,0 106.70606232,10.85909081,0 106.70748138,10.85891151,0 106.70890045,10.85873222,0 106.70891571,10.85861588,0 106.70891571,10.85861588,0 106.70891571,10.85861588,0 106.70891571,10.85861588,0 106.70908356,10.85873032,0 106.70955658,10.85861969,0 106.70992279,10.85857964,0 106.7104187,10.8585701,0 106.71083069,10.85861969,0 106.71150208,10.85875988,0 106.7122345,10.85908031,0 106.71299744,10.85949612,0 106.71346283,10.85972309,0 106.71350098,10.85965919,0 106.71350098,10.85965919,0 106.71350098,10.85965919,0 106.71344757,10.85976505,0 106.71459961,10.86034966,0 106.71668243,10.86146164,0 106.71798706,10.86211491,0 106.71958923,10.86291981,0 106.72042847,10.8633604,0 106.72045135,10.86331463,0 106.72045135,10.86331463,0 106.72042847,10.8633604,0 106.72113037,10.86373997,0 106.72338104,10.86483002,0 106.72367859,10.86493969,0 106.72384644,10.86493015,0 106.72399139,10.86491966,0 106.72412872,10.86499977,0 106.72418213,10.86509991,0 106.72419739,10.86526012,0 106.72412872,10.86542988,0 106.72402954,10.86555958,0 106.72399139,10.86561012,0 106.72386932,10.86563969,0 106.72371674,10.86573029,0 106.72363281,10.86583996,0 106.72353363,10.8660202,0 106.72312164,10.86664009,0 106.72312164,10.86664009,0 106.72286224,10.8669796,0 106.72264099,10.8671999,0 106.72225189,10.86750031,0 106.72155762,10.86781979,0 106.72135925,10.86789036,0 106.72109222,10.86795044,0 106.72090149,10.86798954,0 106.72036743,10.86800957,0 106.7190094,10.86800003,0 106.71843719,10.86798,0 106.71795654,10.86800957,0 106.71796417,10.86803341,0 106.71796417,10.86803341,0 106.71715546,10.868083,0 106.71398163,10.86924744,0 106.71356201,10.86950016,0 106.71305084,10.86972141,0 106.71240997,10.86991692,0 106.71170807,10.8700695,0 106.71097565,10.87015915,0 106.71017456,10.87024879,0 106.70941162,10.87032795,0 106.70869446,10.87044334,0 106.70748138,10.87070656,0 106.70709229,10.87079144,0 106.70705414,10.87047958,0 106.70705414,10.87047958,0 106.70705414,10.87047958,0 106.70711517,10.87078571,0 106.70609283,10.87099648,0 106.70507813,10.87120724,0 106.70452881,10.87151814,0 106.70371246,10.87221336,0 106.70279694,10.87327766,0 106.70191956,10.87431526,0 106.70196533,10.87435436,0 106.70196533,10.87435436,0 106.70192719,10.87431526,0 106.70124054,10.87516403,0 106.70059967,10.87601757,0 106.70009613,10.8769598,0 106.69962311,10.87820339,0 106.69919586,10.87946224,0 106.69919586,10.87946224,0 106.69874573,10.88065338,0 106.69835663,10.88184929,0 106.69824982,10.88273907,0 106.69841003,10.88366604,0 106.69856262,10.88408756,0 106.69875336,10.88448811,0 106.69879913,10.88446999,0 106.69879913,10.88446999,0 106.69906616,10.8850832,0 106.69937134,10.88575745,0 106.69963074,10.88627434,0 106.69966888,10.88659573,0 106.69994354,10.88708019,0 106.70046997,10.88774395,0 106.70101929,10.888381,0 106.70211792,10.88953972,0 106.70219421,10.88950539,0 106.70219421,10.88950539,0 106.70214081,10.88956642,0 106.70307159,10.89049339,0 106.70350647,10.8909359,0 106.70391846,10.8913784,0 106.70455933,10.89212608,0 106.70568848,10.8934803,0 106.70681763,10.89479733,0 106.7068634,10.89477921,0 106.7068634,10.89477921,0 106.70732117,10.89540291,0 106.70783997,10.89600849,0 106.70884705,10.89719391,0 106.71032715,10.89900112,0 106.71073914,10.89958763,0 106.71073914,10.89958763,0 106.71118164,10.90031815,0 106.71162415,10.90104485,0 106.71204376,10.90178776,0 106.71235657,10.90256691,0 106.71244049,10.90252972,0 106.71244049,10.90252972,0 106.7123642,10.9025774,0 106.71252441,10.90309906,0 106.71263885,10.90362072,0 106.71271515,10.90464211,0 106.71278381,10.90570164,0 106.71285248,10.90676022,0 106.71290588,10.90779781,0 106.71296692,10.90884113,0 106.71302032,10.90988064,0 106.71308136,10.9109211,0 106.7131958,10.91302586,0 106.71331024,10.91512966,0 106.71344757,10.91723156,0 106.71350098,10.91827965,0 106.71353912,10.91933346,0 106.71365356,10.91932392,0 106.71365356,10.91932392,0 106.71354675,10.91932774,0 106.7135849,10.92019176,0 106.71361542,10.92106056,0 106.71343231,10.92233562,0 106.71311951,10.92380524,0 106.71270752,10.92526913,0 106.71228027,10.92674732,0 106.71186066,10.92822456,0 106.71149445,10.92970943,0 106.71112061,10.93119526,0 106.71118927,10.93121624,0 106.71118927,10.93121624,0 106.71118927,10.93121624,0 106.71118927,10.93121624,0 106.71112061,10.93119526,0 106.71091461,10.93210602,0 106.71070099,10.93301773,0 106.71048737,10.93392849,0 106.71027374,10.93485069,0 106.71035767,10.93487072,0 106.71035767,10.93487072,0 106.71035767,10.93487072,0 106.71035767,10.93487072,0 106.71035767,10.93487072,0 106.71027374,10.93486118,0 106.71004486,10.93558216,0 106.70986176,10.93629837,0 106.70967865,10.93708611,0 106.70948792,10.93787384,0 106.70955658,10.93787861,0 106.70955658,10.93787861,0 106.70955658,10.93787861,0 106.70955658,10.93787861,0 106.70948792,10.93785763,0 106.7092514,10.93890095,0 106.70899963,10.93993855,0 106.70874786,10.94097042,0 106.70849609,10.94199753,0 106.7085495,10.94201946,0 106.7085495,10.94201946,0 106.7085495,10.94201946,0 106.70850372,10.94200325,0 106.70832062,10.94280052,0 106.70813751,10.94359875,0 106.70794678,10.94439888,0 106.70775604,10.94519997,0 106.70757294,10.94598961,0 106.7073822,10.9467802,0 106.7071991,10.94756985,0 106.70700836,10.94836044,0 106.70716095,10.94839287,0 106.70716095,10.94839287,0 106.70701599,10.94834423,0 106.70683289,10.94911861,0 106.70620728,10.95060921,0 106.70539093,10.9519043,0 106.70448303,10.95295238,0 106.70358276,10.95384502,0 106.7026825,10.95473766,0 106.7027359,10.95477009,0 106.7027359,10.95477009,0 106.70269775,10.95472717,0 106.7021637,10.95526505,0 106.70224762,10.95532799,0 106.70224762,10.95532799,0 106.70224762,10.95532799,0 106.70219421,10.95524883,0 106.70156097,10.95587254,0 106.70093536,10.95649719,0 106.70030212,10.9571209,0 106.69967651,10.9577446,0 106.69967651,10.9577446,0 106.69967651,10.9577446,0 106.69965363,10.95772457,0 106.69851685,10.95879364,0 106.69774628,10.95942497,0 106.69626617,10.96035767,0 106.69524384,10.96085262,0 106.6942215,10.96134758,0 106.69320679,10.96184254,0 106.69218445,10.96233273,0 106.69218445,10.96233273,0 106.69119263,10.96278,0 106.69019318,10.96322727,0 106.68923187,10.96368027,0 106.68826294,10.96413326,0 106.68828583,10.96418095,0 106.68828583,10.96418095,0 106.68825531,10.96413326,0 106.68685913,10.96478367,0 106.68545532,10.96543407,0 106.68408966,10.96608734,0 106.68271637,10.96674538,0 106.68273163,10.96679306,0 106.68273163,10.96679306,0 106.68250275,10.96693516,0 106.68250275,10.96693516,0 106.68226624,10.967062,0 106.68226624,10.967062,0 106.68223572,10.96698284,0 106.68145752,10.96737003,0 106.68067932,10.96775723,0 106.67995453,10.9681673,0 106.67922211,10.96857834,0 106.67926788,10.96862125,0 106.67926788,10.96862125,0 106.67923737,10.96855736,0 106.67828369,10.96910763,0 106.67733002,10.9696579,0 106.67736053,10.969697,0 106.67736053,10.969697,0 106.67730713,10.96963692,0 106.67636108,10.97018719,0 106.67541504,10.97073746,0 106.67440796,10.97122478,0 106.67340851,10.97171211,0 106.67343903,10.97174931,0 106.67343903,10.97174931,0 106.67343903,10.97174931,0 106.67340851,10.97171688,0 106.67251587,10.9721756,0 106.67253876,10.97221756,0 106.67253876,10.97221756,0 106.67253876,10.97221756,0 106.67253876,10.97221756,0 106.6725235,10.9721756,0 106.67189026,10.97250175,0 106.67166901,10.97270203,0 106.67163849,10.97279167,0 106.67152405,10.97282314,0 106.67141724,10.97269154,0 106.67144012,10.97255993,0 106.6710434,10.9715538,0 106.67093658,10.9716053,0 106.67093658,10.9716053,0 106.67093658,10.9716053,0 106.67100525,10.97157001,0 106.67077637,10.97097969,0 106.67054749,10.97039032,0 106.67041016,10.97044277,0 106.67041016,10.97044277,0 106.67053986,10.97040081,0 106.67019653,10.96953964,0 106.66984558,10.96867847,0 106.66950226,10.96781731,0 106.66915131,10.96695614,0 106.66900635,10.96700954,0 106.66900635,10.96700954,0 106.66915894,10.96694088,0 106.66886902,10.96617699,0 106.6686554,10.96560287,0 106.6685257,10.96564007,0 106.6685257,10.96564007,0</coordinates>
        </LineString>
      </Placemark>
      <Folder>
        <name>Trạm dừng (60 trạm)</name>
        <Placemark>
          <name>[BX41] Bến xe An Sương</name>
          <description><![CDATA[&lt;b&gt;Trạm:&lt;/b&gt; Bến xe An Sương&lt;br/&gt;&lt;b&gt;Mã trạm:&lt;/b&gt; BX41&lt;br/&gt;&lt;b&gt;Địa chỉ:&lt;/b&gt; Bến xe An Sương Quốc lộ 22&lt;br/&gt;&lt;b&gt;Khu vực:&lt;/b&gt; None, Quận 12&lt;br/&gt;&lt;b&gt;Các tuyến qua trạm:&lt;/b&gt; 04, 104, 122, 151, 27, 33, 41, 61-3, 62-5, 65, 71, 74, 85]]></description>
          <styleUrl>#busStopStyle</styleUrl>
          <Point>
            <coordinates>106.61337280273438,10.843737602233887,0</coordinates>
          </Point>
        </Placemark>
        <Placemark>
          <name>[Q12 095] Cầu vượt An Sương</name>
          <description><![CDATA[&lt;b&gt;Trạm:&lt;/b&gt; Cầu vượt An Sương&lt;br/&gt;&lt;b&gt;Mã trạm:&lt;/b&gt; Q12 095&lt;br/&gt;&lt;b&gt;Địa chỉ:&lt;/b&gt; 2571-2575 (17A-4/8A) Quốc lộ 1A&lt;br/&gt;&lt;b&gt;Khu vực:&lt;/b&gt; None, Quận 12&lt;br/&gt;&lt;b&gt;Các tuyến qua trạm:&lt;/b&gt; 33, 60-1, 61-3]]></description>
          <styleUrl>#busStopStyle</styleUrl>
          <Point>
            <coordinates>106.617803,10.844618,0</coordinates>
          </Point>
        </Placemark>
        <Placemark>
          <name>[Q12 097] Trạm đăng kiểm</name>
          <description><![CDATA[&lt;b&gt;Trạm:&lt;/b&gt; Trạm đăng kiểm&lt;br/&gt;&lt;b&gt;Mã trạm:&lt;/b&gt; Q12 097&lt;br/&gt;&lt;b&gt;Địa chỉ:&lt;/b&gt; Đối diện trạm đăng kiểm Quốc lộ 1A&lt;br/&gt;&lt;b&gt;Khu vực:&lt;/b&gt; None, Quận 12&lt;br/&gt;&lt;b&gt;Các tuyến qua trạm:&lt;/b&gt; 33, 60-1, 61-3]]></description>
          <styleUrl>#busStopStyle</styleUrl>
          <Point>
            <coordinates>106.621506,10.847418,0</coordinates>
          </Point>
        </Placemark>
        <Placemark>
          <name>[Q12 098] Chung cư Thái An</name>
          <description><![CDATA[&lt;b&gt;Trạm:&lt;/b&gt; Chung cư Thái An&lt;br/&gt;&lt;b&gt;Mã trạm:&lt;/b&gt; Q12 098&lt;br/&gt;&lt;b&gt;Địa chỉ:&lt;/b&gt; B336 Quốc lộ 1A&lt;br/&gt;&lt;b&gt;Khu vực:&lt;/b&gt; None, Quận 12&lt;br/&gt;&lt;b&gt;Các tuyến qua trạm:&lt;/b&gt; 33, 61-3]]></description>
          <styleUrl>#busStopStyle</styleUrl>
          <Point>
            <coordinates>106.6249,10.848901,0</coordinates>
          </Point>
        </Placemark>
        <Placemark>
          <name>[Q12 099] Đài phát thanh Quán Tre</name>
          <description><![CDATA[&lt;b&gt;Trạm:&lt;/b&gt; Đài phát thanh Quán Tre&lt;br/&gt;&lt;b&gt;Mã trạm:&lt;/b&gt; Q12 099&lt;br/&gt;&lt;b&gt;Địa chỉ:&lt;/b&gt; Đài phát thanh quán tre Quốc lộ 1A&lt;br/&gt;&lt;b&gt;Khu vực:&lt;/b&gt; None, Quận 12&lt;br/&gt;&lt;b&gt;Các tuyến qua trạm:&lt;/b&gt; 33, 60-1, 61-3]]></description>
          <styleUrl>#busStopStyle</styleUrl>
          <Point>
            <coordinates>106.627572,10.850071,0</coordinates>
          </Point>
        </Placemark>
        <Placemark>
          <name>[Q12 100] Trường Nguyễn Du</name>
          <description><![CDATA[&lt;b&gt;Trạm:&lt;/b&gt; Trường Nguyễn Du&lt;br/&gt;&lt;b&gt;Mã trạm:&lt;/b&gt; Q12 100&lt;br/&gt;&lt;b&gt;Địa chỉ:&lt;/b&gt; Trường Nguyễn Du Quốc lộ 1A&lt;br/&gt;&lt;b&gt;Khu vực:&lt;/b&gt; None, Quận 12&lt;br/&gt;&lt;b&gt;Các tuyến qua trạm:&lt;/b&gt; 33, 60-1, 61-3, 62]]></description>
          <styleUrl>#busStopStyle</styleUrl>
          <Point>
            <coordinates>106.632347,10.852583,0</coordinates>
          </Point>
        </Placemark>
        <Placemark>
          <name>[Q12 101] Bảo vệ Nam Long Hải</name>
          <description><![CDATA[&lt;b&gt;Trạm:&lt;/b&gt; Bảo vệ Nam Long Hải&lt;br/&gt;&lt;b&gt;Mã trạm:&lt;/b&gt; Q12 101&lt;br/&gt;&lt;b&gt;Địa chỉ:&lt;/b&gt; 103/4B Quốc lộ 1A&lt;br/&gt;&lt;b&gt;Khu vực:&lt;/b&gt; None, Quận 12&lt;br/&gt;&lt;b&gt;Các tuyến qua trạm:&lt;/b&gt; 33, 61-3, 62]]></description>
          <styleUrl>#busStopStyle</styleUrl>
          <Point>
            <coordinates>106.634679,10.853806,0</coordinates>
          </Point>
        </Placemark>
        <Placemark>
          <name>[Q12 102] Ngã tư Đình</name>
          <description><![CDATA[&lt;b&gt;Trạm:&lt;/b&gt; Ngã tư Đình&lt;br/&gt;&lt;b&gt;Mã trạm:&lt;/b&gt; Q12 102&lt;br/&gt;&lt;b&gt;Địa chỉ:&lt;/b&gt; 1781 Quốc lộ 1A&lt;br/&gt;&lt;b&gt;Khu vực:&lt;/b&gt; None, Quận 12&lt;br/&gt;&lt;b&gt;Các tuyến qua trạm:&lt;/b&gt; 33, 60-1, 61-3, 62]]></description>
          <styleUrl>#busStopStyle</styleUrl>
          <Point>
            <coordinates>106.639832,10.856667,0</coordinates>
          </Point>
        </Placemark>
        <Placemark>
          <name>[Q12 103] Cây xăng Năng lượng</name>
          <description><![CDATA[&lt;b&gt;Trạm:&lt;/b&gt; Cây xăng Năng lượng&lt;br/&gt;&lt;b&gt;Mã trạm:&lt;/b&gt; Q12 103&lt;br/&gt;&lt;b&gt;Địa chỉ:&lt;/b&gt; Kế cây xăng Năng lượng Quốc lộ 1A&lt;br/&gt;&lt;b&gt;Khu vực:&lt;/b&gt; None, Quận 12&lt;br/&gt;&lt;b&gt;Các tuyến qua trạm:&lt;/b&gt; 33, 60-1, 61-3, 62]]></description>
          <styleUrl>#busStopStyle</styleUrl>
          <Point>
            <coordinates>106.644233,10.858953,0</coordinates>
          </Point>
        </Placemark>
        <Placemark>
          <name>[Q12 104] Cao su Vina</name>
          <description><![CDATA[&lt;b&gt;Trạm:&lt;/b&gt; Cao su Vina&lt;br/&gt;&lt;b&gt;Mã trạm:&lt;/b&gt; Q12 104&lt;br/&gt;&lt;b&gt;Địa chỉ:&lt;/b&gt; 1721 Quốc lộ 1A&lt;br/&gt;&lt;b&gt;Khu vực:&lt;/b&gt; None, Quận 12&lt;br/&gt;&lt;b&gt;Các tuyến qua trạm:&lt;/b&gt; 33, 60-1, 61-3, 62]]></description>
          <styleUrl>#busStopStyle</styleUrl>
          <Point>
            <coordinates>106.647781,10.86097,0</coordinates>
          </Point>
        </Placemark>
        <Placemark>
          <name>[Q12 105] Ngã tư Tân Thới Hiệp</name>
          <description><![CDATA[&lt;b&gt;Trạm:&lt;/b&gt; Ngã tư Tân Thới Hiệp&lt;br/&gt;&lt;b&gt;Mã trạm:&lt;/b&gt; Q12 105&lt;br/&gt;&lt;b&gt;Địa chỉ:&lt;/b&gt; 79/1 Quốc lộ 1A&lt;br/&gt;&lt;b&gt;Khu vực:&lt;/b&gt; None, Quận 12&lt;br/&gt;&lt;b&gt;Các tuyến qua trạm:&lt;/b&gt; 103, 33, 60-1, 61-3]]></description>
          <styleUrl>#busStopStyle</styleUrl>
          <Point>
            <coordinates>106.651199,10.861881,0</coordinates>
          </Point>
        </Placemark>
        <Placemark>
          <name>[Q12 106] UBND Quận 12</name>
          <description><![CDATA[&lt;b&gt;Trạm:&lt;/b&gt; UBND Quận 12&lt;br/&gt;&lt;b&gt;Mã trạm:&lt;/b&gt; Q12 106&lt;br/&gt;&lt;b&gt;Địa chỉ:&lt;/b&gt; 1251 Quốc lộ 1A&lt;br/&gt;&lt;b&gt;Khu vực:&lt;/b&gt; None, Quận 12&lt;br/&gt;&lt;b&gt;Các tuyến qua trạm:&lt;/b&gt; 103, 33, 60-1, 61-3]]></description>
          <styleUrl>#busStopStyle</styleUrl>
          <Point>
            <coordinates>106.654053,10.861808,0</coordinates>
          </Point>
        </Placemark>
        <Placemark>
          <name>[Q12 107] Bãi xe Tri Ân</name>
          <description><![CDATA[&lt;b&gt;Trạm:&lt;/b&gt; Bãi xe Tri Ân&lt;br/&gt;&lt;b&gt;Mã trạm:&lt;/b&gt; Q12 107&lt;br/&gt;&lt;b&gt;Địa chỉ:&lt;/b&gt; 1797 Quốc lộ 1A&lt;br/&gt;&lt;b&gt;Khu vực:&lt;/b&gt; None, Quận 12&lt;br/&gt;&lt;b&gt;Các tuyến qua trạm:&lt;/b&gt; 103, 146, 33, 60-1, 61-3]]></description>
          <styleUrl>#busStopStyle</styleUrl>
          <Point>
            <coordinates>106.657127,10.861651,0</coordinates>
          </Point>
        </Placemark>
        <Placemark>
          <name>[Q12 108] Cầu Bến Cát</name>
          <description><![CDATA[&lt;b&gt;Trạm:&lt;/b&gt; Cầu Bến Cát&lt;br/&gt;&lt;b&gt;Mã trạm:&lt;/b&gt; Q12 108&lt;br/&gt;&lt;b&gt;Địa chỉ:&lt;/b&gt; 973 Quốc lộ 1A&lt;br/&gt;&lt;b&gt;Khu vực:&lt;/b&gt; None, Quận 12&lt;br/&gt;&lt;b&gt;Các tuyến qua trạm:&lt;/b&gt; 103, 146, 33, 60-1, 61-3]]></description>
          <styleUrl>#busStopStyle</styleUrl>
          <Point>
            <coordinates>106.662247,10.861335,0</coordinates>
          </Point>
        </Placemark>
        <Placemark>
          <name>[Q12 109] Gò Sao</name>
          <description><![CDATA[&lt;b&gt;Trạm:&lt;/b&gt; Gò Sao&lt;br/&gt;&lt;b&gt;Mã trạm:&lt;/b&gt; Q12 109&lt;br/&gt;&lt;b&gt;Địa chỉ:&lt;/b&gt; 109 Quốc lộ 1A&lt;br/&gt;&lt;b&gt;Khu vực:&lt;/b&gt; None, Quận 12&lt;br/&gt;&lt;b&gt;Các tuyến qua trạm:&lt;/b&gt; 103, 146, 33, 60-1, 61-3]]></description>
          <styleUrl>#busStopStyle</styleUrl>
          <Point>
            <coordinates>106.666458,10.861503,0</coordinates>
          </Point>
        </Placemark>
        <Placemark>
          <name>[Q12 110] Cây xăng Thạnh Xuân</name>
          <description><![CDATA[&lt;b&gt;Trạm:&lt;/b&gt; Cây xăng Thạnh Xuân&lt;br/&gt;&lt;b&gt;Mã trạm:&lt;/b&gt; Q12 110&lt;br/&gt;&lt;b&gt;Địa chỉ:&lt;/b&gt; Cây xăng Thạnh Xuân Quốc lộ 1A&lt;br/&gt;&lt;b&gt;Khu vực:&lt;/b&gt; None, Quận 12&lt;br/&gt;&lt;b&gt;Các tuyến qua trạm:&lt;/b&gt; 103, 161, 32, 33, 59, 60-1, 61-3]]></description>
          <styleUrl>#busStopStyle</styleUrl>
          <Point>
            <coordinates>106.671882,10.861577,0</coordinates>
          </Point>
        </Placemark>
        <Placemark>
          <name>[Q12 111] Cầu Cả Bốn</name>
          <description><![CDATA[&lt;b&gt;Trạm:&lt;/b&gt; Cầu Cả Bốn&lt;br/&gt;&lt;b&gt;Mã trạm:&lt;/b&gt; Q12 111&lt;br/&gt;&lt;b&gt;Địa chỉ:&lt;/b&gt; 109 Quốc lộ 1A&lt;br/&gt;&lt;b&gt;Khu vực:&lt;/b&gt; None, Quận 12&lt;br/&gt;&lt;b&gt;Các tuyến qua trạm:&lt;/b&gt; 103, 161, 32, 33, 59, 61-3]]></description>
          <styleUrl>#busStopStyle</styleUrl>
          <Point>
            <coordinates>106.674446,10.861619,0</coordinates>
          </Point>
        </Placemark>
        <Placemark>
          <name>[Q12 112] Bến xe Ngã tư Ga</name>
          <description><![CDATA[&lt;b&gt;Trạm:&lt;/b&gt; Bến xe Ngã tư Ga&lt;br/&gt;&lt;b&gt;Mã trạm:&lt;/b&gt; Q12 112&lt;br/&gt;&lt;b&gt;Địa chỉ:&lt;/b&gt; Đối diện Bx Ngã tư Ga Quốc lộ 1A&lt;br/&gt;&lt;b&gt;Khu vực:&lt;/b&gt; None, Quận 12&lt;br/&gt;&lt;b&gt;Các tuyến qua trạm:&lt;/b&gt; 103, 161, 32, 33, 59, 60-1, 61-3]]></description>
          <styleUrl>#busStopStyle</styleUrl>
          <Point>
            <coordinates>106.678078,10.861472,0</coordinates>
          </Point>
        </Placemark>
        <Placemark>
          <name>[Q12 113] Cầu Ga nhỏ</name>
          <description><![CDATA[&lt;b&gt;Trạm:&lt;/b&gt; Cầu Ga nhỏ&lt;br/&gt;&lt;b&gt;Mã trạm:&lt;/b&gt; Q12 113&lt;br/&gt;&lt;b&gt;Địa chỉ:&lt;/b&gt; 30 Quốc lộ 1A&lt;br/&gt;&lt;b&gt;Khu vực:&lt;/b&gt; None, Quận 12&lt;br/&gt;&lt;b&gt;Các tuyến qua trạm:&lt;/b&gt; 33, 60-1, 61-3]]></description>
          <styleUrl>#busStopStyle</styleUrl>
          <Point>
            <coordinates>106.68201,10.861171,0</coordinates>
          </Point>
        </Placemark>
        <Placemark>
          <name>[Q12 114] An Phú Đông</name>
          <description><![CDATA[&lt;b&gt;Trạm:&lt;/b&gt; An Phú Đông&lt;br/&gt;&lt;b&gt;Mã trạm:&lt;/b&gt; Q12 114&lt;br/&gt;&lt;b&gt;Địa chỉ:&lt;/b&gt; 365 - 501 Quốc lộ 1A&lt;br/&gt;&lt;b&gt;Khu vực:&lt;/b&gt; None, Quận 12&lt;br/&gt;&lt;b&gt;Các tuyến qua trạm:&lt;/b&gt; 33, 60-1, 61-3]]></description>
          <styleUrl>#busStopStyle</styleUrl>
          <Point>
            <coordinates>106.686655,10.860897,0</coordinates>
          </Point>
        </Placemark>
        <Placemark>
          <name>[Q12 115] Công ty Vĩnh Hưng</name>
          <description><![CDATA[&lt;b&gt;Trạm:&lt;/b&gt; Công ty Vĩnh Hưng&lt;br/&gt;&lt;b&gt;Mã trạm:&lt;/b&gt; Q12 115&lt;br/&gt;&lt;b&gt;Địa chỉ:&lt;/b&gt; 273/1B Quốc lộ 1A&lt;br/&gt;&lt;b&gt;Khu vực:&lt;/b&gt; None, Quận 12&lt;br/&gt;&lt;b&gt;Các tuyến qua trạm:&lt;/b&gt; 33, 61-3]]></description>
          <styleUrl>#busStopStyle</styleUrl>
          <Point>
            <coordinates>106.689178,10.86075,0</coordinates>
          </Point>
        </Placemark>
        <Placemark>
          <name>[Q12 116] Đài liệt sĩ An Phú Đông</name>
          <description><![CDATA[&lt;b&gt;Trạm:&lt;/b&gt; Đài liệt sĩ An Phú Đông&lt;br/&gt;&lt;b&gt;Mã trạm:&lt;/b&gt; Q12 116&lt;br/&gt;&lt;b&gt;Địa chỉ:&lt;/b&gt; C32/16 Quốc lộ 1A&lt;br/&gt;&lt;b&gt;Khu vực:&lt;/b&gt; None, Quận 12&lt;br/&gt;&lt;b&gt;Các tuyến qua trạm:&lt;/b&gt; 33, 60-1, 61-3]]></description>
          <styleUrl>#busStopStyle</styleUrl>
          <Point>
            <coordinates>106.692331,10.860386,0</coordinates>
          </Point>
        </Placemark>
        <Placemark>
          <name>[Q12 117] ĐH Nguyễn Tất Thành</name>
          <description><![CDATA[&lt;b&gt;Trạm:&lt;/b&gt; ĐH Nguyễn Tất Thành&lt;br/&gt;&lt;b&gt;Mã trạm:&lt;/b&gt; Q12 117&lt;br/&gt;&lt;b&gt;Địa chỉ:&lt;/b&gt; 331 Quốc lộ 1A&lt;br/&gt;&lt;b&gt;Khu vực:&lt;/b&gt; None, Quận 12&lt;br/&gt;&lt;b&gt;Các tuyến qua trạm:&lt;/b&gt; 33, 61-3]]></description>
          <styleUrl>#busStopStyle</styleUrl>
          <Point>
            <coordinates>106.694514,10.860365,0</coordinates>
          </Point>
        </Placemark>
        <Placemark>
          <name>[Q12 118] Công ty đá Ngọc Ngân</name>
          <description><![CDATA[&lt;b&gt;Trạm:&lt;/b&gt; Công ty đá Ngọc Ngân&lt;br/&gt;&lt;b&gt;Mã trạm:&lt;/b&gt; Q12 118&lt;br/&gt;&lt;b&gt;Địa chỉ:&lt;/b&gt; 1126/3A  Quốc lộ 1A&lt;br/&gt;&lt;b&gt;Khu vực:&lt;/b&gt; None, Quận 12&lt;br/&gt;&lt;b&gt;Các tuyến qua trạm:&lt;/b&gt; 33, 60-1, 61-3]]></description>
          <styleUrl>#busStopStyle</styleUrl>
          <Point>
            <coordinates>106.700699,10.859675,0</coordinates>
          </Point>
        </Placemark>
        <Placemark>
          <name>[Q12 119] Tu viện Khánh An</name>
          <description><![CDATA[&lt;b&gt;Trạm:&lt;/b&gt; Tu viện Khánh An&lt;br/&gt;&lt;b&gt;Mã trạm:&lt;/b&gt; Q12 119&lt;br/&gt;&lt;b&gt;Địa chỉ:&lt;/b&gt; 107 Quốc lộ 1A&lt;br/&gt;&lt;b&gt;Khu vực:&lt;/b&gt; None, Quận 12&lt;br/&gt;&lt;b&gt;Các tuyến qua trạm:&lt;/b&gt; 33, 60-1, 61-3]]></description>
          <styleUrl>#busStopStyle</styleUrl>
          <Point>
            <coordinates>106.706048,10.859017,0</coordinates>
          </Point>
        </Placemark>
        <Placemark>
          <name>[Q12 120] Bãi đậu xe kho hàng</name>
          <description><![CDATA[&lt;b&gt;Trạm:&lt;/b&gt; Bãi đậu xe kho hàng&lt;br/&gt;&lt;b&gt;Mã trạm:&lt;/b&gt; Q12 120&lt;br/&gt;&lt;b&gt;Địa chỉ:&lt;/b&gt; 1500/3C Quốc lộ 1A&lt;br/&gt;&lt;b&gt;Khu vực:&lt;/b&gt; None, Quận 12&lt;br/&gt;&lt;b&gt;Các tuyến qua trạm:&lt;/b&gt; 33, 61-3]]></description>
          <styleUrl>#busStopStyle</styleUrl>
          <Point>
            <coordinates>106.708912,10.858616,0</coordinates>
          </Point>
        </Placemark>
        <Placemark>
          <name>[Q12 121] Aone</name>
          <description><![CDATA[&lt;b&gt;Trạm:&lt;/b&gt; Aone&lt;br/&gt;&lt;b&gt;Mã trạm:&lt;/b&gt; Q12 121&lt;br/&gt;&lt;b&gt;Địa chỉ:&lt;/b&gt; Aone Quốc lộ 1A&lt;br/&gt;&lt;b&gt;Khu vực:&lt;/b&gt; None, Quận 12&lt;br/&gt;&lt;b&gt;Các tuyến qua trạm:&lt;/b&gt; 33, 60-1, 61-3]]></description>
          <styleUrl>#busStopStyle</styleUrl>
          <Point>
            <coordinates>106.713504,10.859659,0</coordinates>
          </Point>
        </Placemark>
        <Placemark>
          <name>[QTD 158] Ngã 4 Bình Phước</name>
          <description><![CDATA[&lt;b&gt;Trạm:&lt;/b&gt; Ngã 4 Bình Phước&lt;br/&gt;&lt;b&gt;Mã trạm:&lt;/b&gt; QTD 158&lt;br/&gt;&lt;b&gt;Địa chỉ:&lt;/b&gt; 30 (33/8) Quốc lộ 1&lt;br/&gt;&lt;b&gt;Khu vực:&lt;/b&gt; Phường Hiệp Bình Phước, TP. Thủ Đức - KV3&lt;br/&gt;&lt;b&gt;Các tuyến qua trạm:&lt;/b&gt; 33, 60-1, 61-3]]></description>
          <styleUrl>#busStopStyle</styleUrl>
          <Point>
            <coordinates>106.720456,10.863258,0</coordinates>
          </Point>
        </Placemark>
        <Placemark>
          <name>[QTD 210] Xây dựng Ngọc Đào</name>
          <description><![CDATA[&lt;b&gt;Trạm:&lt;/b&gt; Xây dựng Ngọc Đào&lt;br/&gt;&lt;b&gt;Mã trạm:&lt;/b&gt; QTD 210&lt;br/&gt;&lt;b&gt;Địa chỉ:&lt;/b&gt; 858 Quốc lộ 13&lt;br/&gt;&lt;b&gt;Khu vực:&lt;/b&gt; Phường Hiệp Bình Phước, TP. Thủ Đức - KV3&lt;br/&gt;&lt;b&gt;Các tuyến qua trạm:&lt;/b&gt; 171, 61-3, 61-8]]></description>
          <styleUrl>#busStopStyle</styleUrl>
          <Point>
            <coordinates>106.723175,10.866679,0</coordinates>
          </Point>
        </Placemark>
        <Placemark>
          <name>[QTD 211] Cầu Vĩnh Bình</name>
          <description><![CDATA[&lt;b&gt;Trạm:&lt;/b&gt; Cầu Vĩnh Bình&lt;br/&gt;&lt;b&gt;Mã trạm:&lt;/b&gt; QTD 211&lt;br/&gt;&lt;b&gt;Địa chỉ:&lt;/b&gt; 922 Quốc lộ 13&lt;br/&gt;&lt;b&gt;Khu vực:&lt;/b&gt; Phường Hiệp Bình Phước, TP. Thủ Đức - KV3&lt;br/&gt;&lt;b&gt;Các tuyến qua trạm:&lt;/b&gt; 171, 61-3, 61-8]]></description>
          <styleUrl>#busStopStyle</styleUrl>
          <Point>
            <coordinates>106.717964,10.868033,0</coordinates>
          </Point>
        </Placemark>
        <Placemark>
          <name>[BD-0967] Khu phố văn hóa Vĩnh Phú - Gò Đậu -&gt; Cổng chào Bình Dương</name>
          <description><![CDATA[&lt;b&gt;Trạm:&lt;/b&gt; Khu phố văn hóa Vĩnh Phú - Gò Đậu -&gt; Cổng chào Bình Dương&lt;br/&gt;&lt;b&gt;Mã trạm:&lt;/b&gt; BD-0967&lt;br/&gt;&lt;b&gt;Địa chỉ:&lt;/b&gt; Khu phố văn hóa Vĩnh Phú - Gò Đậu -&gt; Cổng chào Bình Dương Quốc lộ 13&lt;br/&gt;&lt;b&gt;Khu vực:&lt;/b&gt; None, Bình Dương&lt;br/&gt;&lt;b&gt;Các tuyến qua trạm:&lt;/b&gt; 171, 61-3]]></description>
          <styleUrl>#busStopStyle</styleUrl>
          <Point>
            <coordinates>106.707051,10.87048,0</coordinates>
          </Point>
        </Placemark>
        <Placemark>
          <name>[BD-0986] Vạn Lộc Phát Palace</name>
          <description><![CDATA[&lt;b&gt;Trạm:&lt;/b&gt; Vạn Lộc Phát Palace&lt;br/&gt;&lt;b&gt;Mã trạm:&lt;/b&gt; BD-0986&lt;br/&gt;&lt;b&gt;Địa chỉ:&lt;/b&gt; Vạn Lộc Phát Palace Quốc lộ 13&lt;br/&gt;&lt;b&gt;Khu vực:&lt;/b&gt; None, Bình Dương&lt;br/&gt;&lt;b&gt;Các tuyến qua trạm:&lt;/b&gt; 171, 61-3, 61-8]]></description>
          <styleUrl>#busStopStyle</styleUrl>
          <Point>
            <coordinates>106.701969,10.874354,0</coordinates>
          </Point>
        </Placemark>
        <Placemark>
          <name>[BD-0987] INOX Sao Phương Nam</name>
          <description><![CDATA[&lt;b&gt;Trạm:&lt;/b&gt; INOX Sao Phương Nam&lt;br/&gt;&lt;b&gt;Mã trạm:&lt;/b&gt; BD-0987&lt;br/&gt;&lt;b&gt;Địa chỉ:&lt;/b&gt; 27/2 Quốc lộ 13&lt;br/&gt;&lt;b&gt;Khu vực:&lt;/b&gt; None, Bình Dương&lt;br/&gt;&lt;b&gt;Các tuyến qua trạm:&lt;/b&gt; 171, 61-3, 61-8]]></description>
          <styleUrl>#busStopStyle</styleUrl>
          <Point>
            <coordinates>106.699193,10.879462,0</coordinates>
          </Point>
        </Placemark>
        <Placemark>
          <name>[BD-0988] Gốm sứ Minh Sang</name>
          <description><![CDATA[&lt;b&gt;Trạm:&lt;/b&gt; Gốm sứ Minh Sang&lt;br/&gt;&lt;b&gt;Mã trạm:&lt;/b&gt; BD-0988&lt;br/&gt;&lt;b&gt;Địa chỉ:&lt;/b&gt; 6/11 Quốc lộ 13&lt;br/&gt;&lt;b&gt;Khu vực:&lt;/b&gt; None, Bình Dương&lt;br/&gt;&lt;b&gt;Các tuyến qua trạm:&lt;/b&gt; 171, 61-3, 61-8]]></description>
          <styleUrl>#busStopStyle</styleUrl>
          <Point>
            <coordinates>106.698799,10.88447,0</coordinates>
          </Point>
        </Placemark>
        <Placemark>
          <name>[BD-0989] Đối diện Công ty Việt Nhật</name>
          <description><![CDATA[&lt;b&gt;Trạm:&lt;/b&gt; Đối diện Công ty Việt Nhật&lt;br/&gt;&lt;b&gt;Mã trạm:&lt;/b&gt; BD-0989&lt;br/&gt;&lt;b&gt;Địa chỉ:&lt;/b&gt; 40C (cột điện 68) Quốc lộ 13&lt;br/&gt;&lt;b&gt;Khu vực:&lt;/b&gt; None, Bình Dương&lt;br/&gt;&lt;b&gt;Các tuyến qua trạm:&lt;/b&gt; 171, 61-3, 61-8]]></description>
          <styleUrl>#busStopStyle</styleUrl>
          <Point>
            <coordinates>106.702194,10.889505,0</coordinates>
          </Point>
        </Placemark>
        <Placemark>
          <name>[BD-0990] VLXD Quốc tế HUIZHAN</name>
          <description><![CDATA[&lt;b&gt;Trạm:&lt;/b&gt; VLXD Quốc tế HUIZHAN&lt;br/&gt;&lt;b&gt;Mã trạm:&lt;/b&gt; BD-0990&lt;br/&gt;&lt;b&gt;Địa chỉ:&lt;/b&gt; 365 (cột điện 54) Quốc lộ 13&lt;br/&gt;&lt;b&gt;Khu vực:&lt;/b&gt; None, Bình Dương&lt;br/&gt;&lt;b&gt;Các tuyến qua trạm:&lt;/b&gt; 171, 61-3, 61-8]]></description>
          <styleUrl>#busStopStyle</styleUrl>
          <Point>
            <coordinates>106.706862,10.894779,0</coordinates>
          </Point>
        </Placemark>
        <Placemark>
          <name>[BD-0991] VLXD Hùng Cường</name>
          <description><![CDATA[&lt;b&gt;Trạm:&lt;/b&gt; VLXD Hùng Cường&lt;br/&gt;&lt;b&gt;Mã trạm:&lt;/b&gt; BD-0991&lt;br/&gt;&lt;b&gt;Địa chỉ:&lt;/b&gt; 132C Quốc lộ 13&lt;br/&gt;&lt;b&gt;Khu vực:&lt;/b&gt; None, Bình Dương&lt;br/&gt;&lt;b&gt;Các tuyến qua trạm:&lt;/b&gt; 171, 61-3, 61-8]]></description>
          <styleUrl>#busStopStyle</styleUrl>
          <Point>
            <coordinates>106.710738,10.899588,0</coordinates>
          </Point>
        </Placemark>
        <Placemark>
          <name>[BD-0969] Đối diện Lotte  - Cổng chào Bình Dương -&gt; Gò Đậu</name>
          <description><![CDATA[&lt;b&gt;Trạm:&lt;/b&gt; Đối diện Lotte  - Cổng chào Bình Dương -&gt; Gò Đậu&lt;br/&gt;&lt;b&gt;Mã trạm:&lt;/b&gt; BD-0969&lt;br/&gt;&lt;b&gt;Địa chỉ:&lt;/b&gt; Đối diện Lotte  - Cổng chào Bình Dương -&gt; Gò Đậu Quốc lộ 13&lt;br/&gt;&lt;b&gt;Khu vực:&lt;/b&gt; None, Bình Dương&lt;br/&gt;&lt;b&gt;Các tuyến qua trạm:&lt;/b&gt; 171, 61-3]]></description>
          <styleUrl>#busStopStyle</styleUrl>
          <Point>
            <coordinates>106.712437,10.90253,0</coordinates>
          </Point>
        </Placemark>
        <Placemark>
          <name>[BD-0992] Cửa hàng Apollo Thiên Phú</name>
          <description><![CDATA[&lt;b&gt;Trạm:&lt;/b&gt; Cửa hàng Apollo Thiên Phú&lt;br/&gt;&lt;b&gt;Mã trạm:&lt;/b&gt; BD-0992&lt;br/&gt;&lt;b&gt;Địa chỉ:&lt;/b&gt; Cột điện 45B Quốc lộ 13&lt;br/&gt;&lt;b&gt;Khu vực:&lt;/b&gt; None, Bình Dương&lt;br/&gt;&lt;b&gt;Các tuyến qua trạm:&lt;/b&gt; 171, 61-3]]></description>
          <styleUrl>#busStopStyle</styleUrl>
          <Point>
            <coordinates>106.713651,10.919324,0</coordinates>
          </Point>
        </Placemark>
        <Placemark>
          <name>[BD-0702] Siêu thị Aeon - Cổng chào Bình Dương -&gt; Gò Đậu</name>
          <description><![CDATA[&lt;b&gt;Trạm:&lt;/b&gt; Siêu thị Aeon - Cổng chào Bình Dương -&gt; Gò Đậu&lt;br/&gt;&lt;b&gt;Mã trạm:&lt;/b&gt; BD-0702&lt;br/&gt;&lt;b&gt;Địa chỉ:&lt;/b&gt; Siêu thị Aeon - Cổng chào Bình Dương -&gt; Gò Đậu Quốc lộ 13&lt;br/&gt;&lt;b&gt;Khu vực:&lt;/b&gt; None, Bình Dương&lt;br/&gt;&lt;b&gt;Các tuyến qua trạm:&lt;/b&gt; 171, 61-3]]></description>
          <styleUrl>#busStopStyle</styleUrl>
          <Point>
            <coordinates>106.711187,10.931216,0</coordinates>
          </Point>
        </Placemark>
        <Placemark>
          <name>[BD-0971] Nước uống thiên nhiên 999 - Cổng chào Bình Dương -&gt; Gò Đậu</name>
          <description><![CDATA[&lt;b&gt;Trạm:&lt;/b&gt; Nước uống thiên nhiên 999 - Cổng chào Bình Dương -&gt; Gò Đậu&lt;br/&gt;&lt;b&gt;Mã trạm:&lt;/b&gt; BD-0971&lt;br/&gt;&lt;b&gt;Địa chỉ:&lt;/b&gt; Nước uống thiên nhiên 999 - Cổng chào Bình Dương -&gt; Gò Đậu Quốc lộ 13&lt;br/&gt;&lt;b&gt;Khu vực:&lt;/b&gt; None, Bình Dương&lt;br/&gt;&lt;b&gt;Các tuyến qua trạm:&lt;/b&gt; 171, 61-3]]></description>
          <styleUrl>#busStopStyle</styleUrl>
          <Point>
            <coordinates>106.710355,10.934871,0</coordinates>
          </Point>
        </Placemark>
        <Placemark>
          <name>[BD-0963] Media - Gò Đậu -&gt; Cổng chào Bình Dương</name>
          <description><![CDATA[&lt;b&gt;Trạm:&lt;/b&gt; Media - Gò Đậu -&gt; Cổng chào Bình Dương&lt;br/&gt;&lt;b&gt;Mã trạm:&lt;/b&gt; BD-0963&lt;br/&gt;&lt;b&gt;Địa chỉ:&lt;/b&gt; Media - Gò Đậu -&gt; Cổng chào Bình Dương Quốc lộ 13&lt;br/&gt;&lt;b&gt;Khu vực:&lt;/b&gt; None, Bình Dương&lt;br/&gt;&lt;b&gt;Các tuyến qua trạm:&lt;/b&gt; 171, 61-3]]></description>
          <styleUrl>#busStopStyle</styleUrl>
          <Point>
            <coordinates>106.709556,10.937879,0</coordinates>
          </Point>
        </Placemark>
        <Placemark>
          <name>[BD-0698] Gần cây xăng Tín Phong 27/2 QL13 - Gò Đậu -&gt; Cổng chào Bình Dương</name>
          <description><![CDATA[&lt;b&gt;Trạm:&lt;/b&gt; Gần cây xăng Tín Phong 27/2 QL13 - Gò Đậu -&gt; Cổng chào Bình Dương&lt;br/&gt;&lt;b&gt;Mã trạm:&lt;/b&gt; BD-0698&lt;br/&gt;&lt;b&gt;Địa chỉ:&lt;/b&gt; Gần cây xăng Tín Phong 27/2 QL13 - Gò Đậu -&gt; Cổng chào Bình Dương Quốc lộ 13&lt;br/&gt;&lt;b&gt;Khu vực:&lt;/b&gt; None, Bình Dương&lt;br/&gt;&lt;b&gt;Các tuyến qua trạm:&lt;/b&gt; 171, 61-3]]></description>
          <styleUrl>#busStopStyle</styleUrl>
          <Point>
            <coordinates>106.708553,10.942019,0</coordinates>
          </Point>
        </Placemark>
        <Placemark>
          <name>[BD-0993] Trường Cao đẳng nghề Việt Nam Singapore</name>
          <description><![CDATA[&lt;b&gt;Trạm:&lt;/b&gt; Trường Cao đẳng nghề Việt Nam Singapore&lt;br/&gt;&lt;b&gt;Mã trạm:&lt;/b&gt; BD-0993&lt;br/&gt;&lt;b&gt;Địa chỉ:&lt;/b&gt; Trường Cao đẳng nghề Việt Nam Singapore (Cột điện 115B) Quốc lộ 13&lt;br/&gt;&lt;b&gt;Khu vực:&lt;/b&gt; None, Bình Dương&lt;br/&gt;&lt;b&gt;Các tuyến qua trạm:&lt;/b&gt; 171, 61-3]]></description>
          <styleUrl>#busStopStyle</styleUrl>
          <Point>
            <coordinates>106.707163,10.948393,0</coordinates>
          </Point>
        </Placemark>
        <Placemark>
          <name>[BD-0994] Bưu điện Thuận Giao</name>
          <description><![CDATA[&lt;b&gt;Trạm:&lt;/b&gt; Bưu điện Thuận Giao&lt;br/&gt;&lt;b&gt;Mã trạm:&lt;/b&gt; BD-0994&lt;br/&gt;&lt;b&gt;Địa chỉ:&lt;/b&gt; Cột điện 137 Quốc lộ 13&lt;br/&gt;&lt;b&gt;Khu vực:&lt;/b&gt; None, Bình Dương&lt;br/&gt;&lt;b&gt;Các tuyến qua trạm:&lt;/b&gt; 171, 61-3]]></description>
          <styleUrl>#busStopStyle</styleUrl>
          <Point>
            <coordinates>106.702738,10.95477,0</coordinates>
          </Point>
        </Placemark>
        <Placemark>
          <name>[BD-0961] Phụ tùng Ngọc Quang 1/176 - Gò Đậu -&gt; Cổng chào Bình Dương</name>
          <description><![CDATA[&lt;b&gt;Trạm:&lt;/b&gt; Phụ tùng Ngọc Quang 1/176 - Gò Đậu -&gt; Cổng chào Bình Dương&lt;br/&gt;&lt;b&gt;Mã trạm:&lt;/b&gt; BD-0961&lt;br/&gt;&lt;b&gt;Địa chỉ:&lt;/b&gt; Phụ tùng Ngọc Quang 1/176 - Gò Đậu -&gt; Cổng chào Bình Dương Quốc lộ 13&lt;br/&gt;&lt;b&gt;Khu vực:&lt;/b&gt; None, Bình Dương&lt;br/&gt;&lt;b&gt;Các tuyến qua trạm:&lt;/b&gt; 171, 61-3]]></description>
          <styleUrl>#busStopStyle</styleUrl>
          <Point>
            <coordinates>106.702244,10.955328,0</coordinates>
          </Point>
        </Placemark>
        <Placemark>
          <name>[BD-0697] Nhà sách Nguyễn Văn Cừ số 243/1 QL13 - Gò Đậu -&gt; Cổng chào Bình Dương</name>
          <description><![CDATA[&lt;b&gt;Trạm:&lt;/b&gt; Nhà sách Nguyễn Văn Cừ số 243/1 QL13 - Gò Đậu -&gt; Cổng chào Bình Dương&lt;br/&gt;&lt;b&gt;Mã trạm:&lt;/b&gt; BD-0697&lt;br/&gt;&lt;b&gt;Địa chỉ:&lt;/b&gt; Nhà sách Nguyễn Văn Cừ số 243/1 QL13 - Gò Đậu -&gt; Cổng chào Bình Dương Quốc lộ 13&lt;br/&gt;&lt;b&gt;Khu vực:&lt;/b&gt; None, Bình Dương&lt;br/&gt;&lt;b&gt;Các tuyến qua trạm:&lt;/b&gt; 171, 61-3]]></description>
          <styleUrl>#busStopStyle</styleUrl>
          <Point>
            <coordinates>106.69968,10.957745,0</coordinates>
          </Point>
        </Placemark>
        <Placemark>
          <name>[BD-0995] Đối diện Thiên Hải Auto</name>
          <description><![CDATA[&lt;b&gt;Trạm:&lt;/b&gt; Đối diện Thiên Hải Auto&lt;br/&gt;&lt;b&gt;Mã trạm:&lt;/b&gt; BD-0995&lt;br/&gt;&lt;b&gt;Địa chỉ:&lt;/b&gt; Cột điện 170-VHU-HLA Quốc lộ 13&lt;br/&gt;&lt;b&gt;Khu vực:&lt;/b&gt; None, Bình Dương&lt;br/&gt;&lt;b&gt;Các tuyến qua trạm:&lt;/b&gt; 171, 61-3]]></description>
          <styleUrl>#busStopStyle</styleUrl>
          <Point>
            <coordinates>106.692184,10.962333,0</coordinates>
          </Point>
        </Placemark>
        <Placemark>
          <name>[BD-0703] Đối diện meca mataket ( metro cũ) - Cổng chào Bình Dương -&gt; Gò Đậu</name>
          <description><![CDATA[&lt;b&gt;Trạm:&lt;/b&gt; Đối diện meca mataket ( metro cũ) - Cổng chào Bình Dương -&gt; Gò Đậu&lt;br/&gt;&lt;b&gt;Mã trạm:&lt;/b&gt; BD-0703&lt;br/&gt;&lt;b&gt;Địa chỉ:&lt;/b&gt; Đối diện meca mataket ( metro cũ) - Cổng chào Bình Dương -&gt; Gò Đậu Quốc lộ 13&lt;br/&gt;&lt;b&gt;Khu vực:&lt;/b&gt; None, Bình Dương&lt;br/&gt;&lt;b&gt;Các tuyến qua trạm:&lt;/b&gt; 171, 61-3]]></description>
          <styleUrl>#busStopStyle</styleUrl>
          <Point>
            <coordinates>106.688286,10.964181,0</coordinates>
          </Point>
        </Placemark>
        <Placemark>
          <name>[BD-0972] Huyndai BD - Cổng chào Bình Dương -&gt; Gò Đậu</name>
          <description><![CDATA[&lt;b&gt;Trạm:&lt;/b&gt; Huyndai BD - Cổng chào Bình Dương -&gt; Gò Đậu&lt;br/&gt;&lt;b&gt;Mã trạm:&lt;/b&gt; BD-0972&lt;br/&gt;&lt;b&gt;Địa chỉ:&lt;/b&gt; Huyndai BD - Cổng chào Bình Dương -&gt; Gò Đậu Quốc lộ 13&lt;br/&gt;&lt;b&gt;Khu vực:&lt;/b&gt; None, Bình Dương&lt;br/&gt;&lt;b&gt;Các tuyến qua trạm:&lt;/b&gt; 171, 61-3]]></description>
          <styleUrl>#busStopStyle</styleUrl>
          <Point>
            <coordinates>106.682734,10.966793,0</coordinates>
          </Point>
        </Placemark>
        <Placemark>
          <name>[BD-0951] Công ty Đại Hồng Phát</name>
          <description><![CDATA[&lt;b&gt;Trạm:&lt;/b&gt; Công ty Đại Hồng Phát&lt;br/&gt;&lt;b&gt;Mã trạm:&lt;/b&gt; BD-0951&lt;br/&gt;&lt;b&gt;Địa chỉ:&lt;/b&gt; Công ty Đại Hồng Phát Quốc lộ 13&lt;br/&gt;&lt;b&gt;Khu vực:&lt;/b&gt; None, Bình Dương&lt;br/&gt;&lt;b&gt;Các tuyến qua trạm:&lt;/b&gt; 171, 61-3]]></description>
          <styleUrl>#busStopStyle</styleUrl>
          <Point>
            <coordinates>106.682503,10.966935,0</coordinates>
          </Point>
        </Placemark>
        <Placemark>
          <name>[BD-0695] Công ty TNHH thiết bị kho bãi ( ngã 4 địa chất) 91 QL13 - Gò Đậu -&gt; Cổng chào Bình Dương</name>
          <description><![CDATA[&lt;b&gt;Trạm:&lt;/b&gt; Công ty TNHH thiết bị kho bãi ( ngã 4 địa chất) 91 QL13 - Gò Đậu -&gt; Cổng chào Bình Dương&lt;br/&gt;&lt;b&gt;Mã trạm:&lt;/b&gt; BD-0695&lt;br/&gt;&lt;b&gt;Địa chỉ:&lt;/b&gt; Công ty TNHH thiết bị kho bãi ( ngã 4 địa chất) 91 QL13 - Gò Đậu -&gt; Cổng chào Bình Dương Quốc lộ 13&lt;br/&gt;&lt;b&gt;Khu vực:&lt;/b&gt; None, Bình Dương&lt;br/&gt;&lt;b&gt;Các tuyến qua trạm:&lt;/b&gt; 171, 61-3]]></description>
          <styleUrl>#busStopStyle</styleUrl>
          <Point>
            <coordinates>106.682267,10.967062,0</coordinates>
          </Point>
        </Placemark>
        <Placemark>
          <name>[BD-0650] Sàn gỗ tự nhiên Thịnh Phát</name>
          <description><![CDATA[&lt;b&gt;Trạm:&lt;/b&gt; Sàn gỗ tự nhiên Thịnh Phát&lt;br/&gt;&lt;b&gt;Mã trạm:&lt;/b&gt; BD-0650&lt;br/&gt;&lt;b&gt;Địa chỉ:&lt;/b&gt; Sàn gỗ tự nhiên Thịnh Phát Quốc lộ 13&lt;br/&gt;&lt;b&gt;Khu vực:&lt;/b&gt; None, Bình Dương&lt;br/&gt;&lt;b&gt;Các tuyến qua trạm:&lt;/b&gt; 171, 61-3]]></description>
          <styleUrl>#busStopStyle</styleUrl>
          <Point>
            <coordinates>106.679268,10.968621,0</coordinates>
          </Point>
        </Placemark>
        <Placemark>
          <name>[BD-0655] Ngân hàng   techcombank</name>
          <description><![CDATA[&lt;b&gt;Trạm:&lt;/b&gt; Ngân hàng   techcombank&lt;br/&gt;&lt;b&gt;Mã trạm:&lt;/b&gt; BD-0655&lt;br/&gt;&lt;b&gt;Địa chỉ:&lt;/b&gt; Ngân hàng techcombank Đại lộ Bình Dương&lt;br/&gt;&lt;b&gt;Khu vực:&lt;/b&gt; None, Bình Dương&lt;br/&gt;&lt;b&gt;Các tuyến qua trạm:&lt;/b&gt; 171, 61-3]]></description>
          <styleUrl>#busStopStyle</styleUrl>
          <Point>
            <coordinates>106.677357,10.969697,0</coordinates>
          </Point>
        </Placemark>
        <Placemark>
          <name>[BD-0960] Sân banh Gò Đậu - Gò Đậu -&gt; Cổng chào Bình Dương</name>
          <description><![CDATA[&lt;b&gt;Trạm:&lt;/b&gt; Sân banh Gò Đậu - Gò Đậu -&gt; Cổng chào Bình Dương&lt;br/&gt;&lt;b&gt;Mã trạm:&lt;/b&gt; BD-0960&lt;br/&gt;&lt;b&gt;Địa chỉ:&lt;/b&gt; Sân banh Gò Đậu - Gò Đậu -&gt; Cổng chào Bình Dương Quốc lộ 13&lt;br/&gt;&lt;b&gt;Khu vực:&lt;/b&gt; None, Bình Dương&lt;br/&gt;&lt;b&gt;Các tuyến qua trạm:&lt;/b&gt; 171, 61-3]]></description>
          <styleUrl>#busStopStyle</styleUrl>
          <Point>
            <coordinates>106.673437,10.971749,0</coordinates>
          </Point>
        </Placemark>
        <Placemark>
          <name>[BD-0651] Đài truyền hình Bình Dương</name>
          <description><![CDATA[&lt;b&gt;Trạm:&lt;/b&gt; Đài truyền hình Bình Dương&lt;br/&gt;&lt;b&gt;Mã trạm:&lt;/b&gt; BD-0651&lt;br/&gt;&lt;b&gt;Địa chỉ:&lt;/b&gt; Đài truyền hình Bình Dương Quốc lộ 13&lt;br/&gt;&lt;b&gt;Khu vực:&lt;/b&gt; None, Bình Dương&lt;br/&gt;&lt;b&gt;Các tuyến qua trạm:&lt;/b&gt; 171, 61-3]]></description>
          <styleUrl>#busStopStyle</styleUrl>
          <Point>
            <coordinates>106.672536,10.972218,0</coordinates>
          </Point>
        </Placemark>
        <Placemark>
          <name>[BD-0632] Ô tô Quang công ( cửa hàng vi tính Hiếu nghĩa)</name>
          <description><![CDATA[&lt;b&gt;Trạm:&lt;/b&gt; Ô tô Quang công ( cửa hàng vi tính Hiếu nghĩa)&lt;br/&gt;&lt;b&gt;Mã trạm:&lt;/b&gt; BD-0632&lt;br/&gt;&lt;b&gt;Địa chỉ:&lt;/b&gt; số 214, đường 30/4, Phường Thủ Dầu Một đường 30/4&lt;br/&gt;&lt;b&gt;Khu vực:&lt;/b&gt; None, Bình Dương&lt;br/&gt;&lt;b&gt;Các tuyến qua trạm:&lt;/b&gt; 60-15, 61-3, 61-37, 61-38, 61-39, 61-51, 61-52]]></description>
          <styleUrl>#busStopStyle</styleUrl>
          <Point>
            <coordinates>106.670938,10.971605,0</coordinates>
          </Point>
        </Placemark>
        <Placemark>
          <name>[BD-0014] Sân vận động Gò Đậu - Bình Dương</name>
          <description><![CDATA[&lt;b&gt;Trạm:&lt;/b&gt; Sân vận động Gò Đậu - Bình Dương&lt;br/&gt;&lt;b&gt;Mã trạm:&lt;/b&gt; BD-0014&lt;br/&gt;&lt;b&gt;Địa chỉ:&lt;/b&gt; số 256, đường 30/4, Phường Thủ Dầu Một đường 30/4&lt;br/&gt;&lt;b&gt;Khu vực:&lt;/b&gt; None, Bình Dương&lt;br/&gt;&lt;b&gt;Các tuyến qua trạm:&lt;/b&gt; 60-15, 60-18, 61-3, 61-37, 61-38, 61-39, 61-51, 61-52, 61-53]]></description>
          <styleUrl>#busStopStyle</styleUrl>
          <Point>
            <coordinates>106.670407,10.970443,0</coordinates>
          </Point>
        </Placemark>
        <Placemark>
          <name>[BD-0016] Bến xe khách tỉnh Bình Dương(Trung tâm gdtx bình dương)</name>
          <description><![CDATA[&lt;b&gt;Trạm:&lt;/b&gt; Bến xe khách tỉnh Bình Dương(Trung tâm gdtx bình dương)&lt;br/&gt;&lt;b&gt;Mã trạm:&lt;/b&gt; BD-0016&lt;br/&gt;&lt;b&gt;Địa chỉ:&lt;/b&gt; đường 30/4, Phường Thủ Dầu Một đường 30/4&lt;br/&gt;&lt;b&gt;Khu vực:&lt;/b&gt; None, Bình Dương&lt;br/&gt;&lt;b&gt;Các tuyến qua trạm:&lt;/b&gt; 60-15, 60-18, 61-3, 61-37, 61-38, 61-39, 61-51, 61-52, 61-53]]></description>
          <styleUrl>#busStopStyle</styleUrl>
          <Point>
            <coordinates>106.669003,10.96701,0</coordinates>
          </Point>
        </Placemark>
        <Placemark>
          <name>[BXLT Thu Dau Mot] Bến xe khách Bình Dương</name>
          <description><![CDATA[&lt;b&gt;Trạm:&lt;/b&gt; Bến xe khách Bình Dương&lt;br/&gt;&lt;b&gt;Mã trạm:&lt;/b&gt; BXLT Thu Dau Mot&lt;br/&gt;&lt;b&gt;Địa chỉ:&lt;/b&gt; Bến xe khách Bình Dương Đường 30 tháng 4&lt;br/&gt;&lt;b&gt;Khu vực:&lt;/b&gt; None, Ngoại thành&lt;br/&gt;&lt;b&gt;Các tuyến qua trạm:&lt;/b&gt; 60-15, 61-2, 61-3, 61-4, 61-8, 61-9]]></description>
          <styleUrl>#busStopStyle</styleUrl>
          <Point>
            <coordinates>106.668524,10.96564,0</coordinates>
          </Point>
        </Placemark>
      </Folder>
    </Folder>
  </Document>
</kml>