<?xml version="1.0" encoding="UTF-8"?>
<kml xmlns="http://www.opengis.net/kml/2.2">
  <Document>
    <name>Tuyến MIT-2S (Khảo sát ống nét đứt)</name>
    <Style id="mit2sStyle">
      <LineStyle>
        <color>ff0055ff</color>
        <width>6</width>
      </LineStyle>
    </Style>
    <Placemark>
      <name>Lộ trình MIT-2S (32.23 km)</name>
      <styleUrl>#mit2sStyle</styleUrl>
      <LineString>
        <tessellate>1</tessellate>
        <coordinates>106.411765,11.013861,0 106.411837,11.013827,0 106.412253,11.013612,0 106.412442,11.013507,0 106.412684,11.013362,0 106.412916,11.013202,0 106.413037,11.013113,0 106.413388,11.012823,0 106.413885,11.012392,0 106.414197,11.012122,0 106.414469,11.011886,0 106.414626,11.01172,0 106.414881,11.011491,0 106.415126,11.011272,0 106.415387,11.011027,0 106.415531,11.010898,0 106.41563,11.010812,0 106.416196,11.010302,0 106.416717,11.009813,0 106.416967,11.009605,0 106.417262,11.009389,0 106.417453,11.009275,0 106.417611,11.009188,0 106.417685,11.009143,0 106.41809,11.008896,0 106.418416,11.008761,0 106.418765,11.008617,0 106.419456,11.008379,0 106.420048,11.008205,0 106.420825,11.007942,0 106.422147,11.007529,0 106.423429,11.00714,0 106.4238,11.007014,0 106.42391,11.006983,0 106.424199,11.006902,0 106.426283,11.006234,0 106.42714,11.005963,0 106.427341,11.0059,0 106.428283,11.005603,0 106.429592,11.005192,0 106.429678,11.005165,0 106.430986,11.004758,0 106.431488,11.004602,0 106.432733,11.004197,0 106.432895,11.004143,0 106.43366,11.003897,0 106.434323,11.003674,0 106.434528,11.003602,0 106.434855,11.003477,0 106.435464,11.003213,0 106.435653,11.003104,0 106.436755,11.002502,0 106.437603,11.002067,0 106.438471,11.001596,0 106.440478,11.00052,0 106.441611,10.999882,0 106.44188,10.999705,0 106.442141,10.999509,0 106.442338,10.999349,0 106.442522,10.999196,0 106.442778,10.998944,0 106.443074,10.998636,0 106.443428,10.998243,0 106.443488,10.998176,0 106.443512,10.998149,0 106.443931,10.997689,0 106.445277,10.996219,0 106.446281,10.995083,0 106.446406,10.994943,0 106.446781,10.994534,0 106.447323,10.993944,0 106.447896,10.993316,0 106.448027,10.993169,0 106.448695,10.992434,0 106.449357,10.991715,0 106.45005,10.990971,0 106.450694,10.990245,0 106.451142,10.989744,0 106.451185,10.989692,0 106.451655,10.989183,0 106.451769,10.989094,0 106.452511,10.988514,0 106.453796,10.987664,0 106.453995,10.987528,0 106.454114,10.987446,0 106.456334,10.986006,0 106.456417,10.985945,0 106.456906,10.985629,0 106.457283,10.985384,0 106.458075,10.984856,0 106.458476,10.984594,0 106.458997,10.984257,0 106.461409,10.982682,0 106.462126,10.9822,0 106.46374,10.981185,0 106.466199,10.979777,0 106.466588,10.979552,0 106.467077,10.979298,0 106.468759,10.978368,0 106.470191,10.977575,0 106.470643,10.977325,0 106.470685,10.977301,0 106.470813,10.97723,0 106.470982,10.977138,0 106.471144,10.97706,0 106.471177,10.977036,0 106.471427,10.976896,0 106.472064,10.976541,0 106.472508,10.976292,0 106.473914,10.975492,0 106.474417,10.97523,0 106.474682,10.975079,0 106.474904,10.974968,0 106.47526,10.974777,0 106.47532,10.974747,0 106.475636,10.974594,0 106.476236,10.9743,0 106.476647,10.974111,0 106.476709,10.974083,0 106.476895,10.973999,0 106.47701,10.97394,0 106.477094,10.973897,0 106.478284,10.973332,0 106.478332,10.973308,0 106.479447,10.972804,0 106.480151,10.972458,0 106.480485,10.97222,0 106.480858,10.971924,0 106.48089,10.971897,0 106.481227,10.971605,0 106.481281,10.971558,0 106.481311,10.971531,0 106.481405,10.971449,0 106.481459,10.971395,0 106.481753,10.971143,0 106.482351,10.97063,0 106.482719,10.970364,0 106.483203,10.970015,0 106.483734,10.969681,0 106.484038,10.969497,0 106.48441,10.969264,0 106.48479,10.96902,0 106.485133,10.968819,0 106.485479,10.96863,0 106.485873,10.968428,0 106.486289,10.968225,0 106.486606,10.968084,0 106.487038,10.967903,0 106.487673,10.967659,0 106.487891,10.967579,0 106.488481,10.96736,0 106.488498,10.967353,0 106.488843,10.967219,0 106.488906,10.9672,0 106.490056,10.96676,0 106.492337,10.965862,0 106.492679,10.965738,0 106.493664,10.965353,0 106.494113,10.965178,0 106.494553,10.96501,0 106.494976,10.964825,0 106.495345,10.964662,0 106.495631,10.964525,0 106.495675,10.964502,0 106.495772,10.964452,0 106.495926,10.964367,0 106.496344,10.964124,0 106.496768,10.963877,0 106.496995,10.963747,0 106.497246,10.963603,0 106.497734,10.963322,0 106.49879,10.962713,0 106.499786,10.962132,0 106.500604,10.96166,0 106.502298,10.960696,0 106.502479,10.960604,0 106.502989,10.960346,0 106.503807,10.959931,0 106.504143,10.959757,0 106.505854,10.958875,0 106.507697,10.957944,0 106.507771,10.957905,0 106.507806,10.957888,0 106.508762,10.9574,0 106.509766,10.956869,0 106.509991,10.956747,0 106.510159,10.956656,0 106.510653,10.956377,0 106.511021,10.956138,0 106.512,10.95548,0 106.512739,10.954977,0 106.512856,10.954897,0 106.515605,10.953029,0 106.517755,10.95157,0 106.517974,10.951421,0 106.518654,10.950953,0 106.520048,10.949995,0 106.520409,10.949746,0 106.521779,10.948818,0 106.521966,10.948692,0 106.523529,10.947613,0 106.523638,10.947538,0 106.524733,10.946823,0 106.524959,10.946683,0 106.525072,10.946626,0 106.525344,10.946476,0 106.52622,10.946048,0 106.526673,10.945822,0 106.527048,10.945648,0 106.527235,10.945561,0 106.529238,10.944593,0 106.530419,10.944029,0 106.531288,10.943605,0 106.53338,10.942589,0 106.533734,10.942428,0 106.535767,10.941435,0 106.535973,10.941331,0 106.537414,10.94064,0 106.538428,10.94015,0 106.538743,10.939992,0 106.540231,10.939274,0 106.540812,10.93901,0 106.540972,10.938932,0 106.541128,10.938859,0 106.541445,10.938713,0 106.542343,10.938251,0 106.54328,10.937797,0 106.544026,10.937444,0 106.54613,10.936426,0 106.548449,10.935299,0 106.548924,10.935069,0 106.549577,10.934748,0 106.549677,10.934699,0 106.549905,10.934581,0 106.550108,10.934456,0 106.550169,10.934418,0 106.550249,10.934371,0 106.550444,10.934257,0 106.550702,10.934099,0 106.550917,10.933951,0 106.551115,10.933804,0 106.551308,10.933635,0 106.551491,10.933466,0 106.551877,10.933071,0 106.552067,10.932858,0 106.55296,10.931888,0 106.553044,10.931795,0 106.554027,10.930717,0 106.554381,10.930333,0 106.55456,10.930132,0 106.5548,10.929853,0 106.555064,10.929523,0 106.555121,10.929447,0 106.555358,10.929132,0 106.555988,10.928239,0 106.556598,10.927376,0 106.556731,10.927183,0 106.556815,10.927064,0 106.556865,10.926991,0 106.557635,10.925896,0 106.557832,10.925596,0 106.55874,10.924299,0 106.559292,10.923525,0 106.559377,10.923405,0 106.559614,10.923051,0 106.559983,10.922499,0 106.560487,10.921752,0 106.560916,10.921136,0 106.56147,10.920341,0 106.56176,10.919912,0 106.562374,10.91907,0 106.562484,10.918921,0 106.563711,10.917185,0 106.563889,10.916923,0 106.564338,10.916251,0 106.568466,10.910369,0 106.569994,10.908182,0 106.570165,10.90798,0 106.570216,10.907938,0 106.570267,10.907891,0 106.570328,10.90782,0 106.570385,10.907751,0 106.570441,10.907659,0 106.570481,10.907591,0 106.570521,10.907525,0 106.570559,10.907454,0 106.570586,10.907393,0 106.57061,10.90733,0 106.570709,10.907146,0 106.572348,10.904819,0 106.575532,10.900297,0 106.5756,10.900199,0 106.58078,10.892762,0 106.580937,10.892543,0 106.581304,10.892012,0 106.582916,10.889722,0 106.583225,10.889287,0 106.583783,10.888494,0 106.584548,10.887393,0 106.586773,10.884207,0 106.586987,10.883895,0 106.586997,10.88388,0 106.588349,10.881951,0 106.589578,10.880233,0 106.591185,10.877942,0 106.591329,10.877739,0 106.59149,10.877512,0 106.591959,10.876863,0 106.592881,10.875546,0 106.593253,10.875001,0 106.59439,10.873406,0 106.594563,10.87316,0 106.596435,10.870544,0 106.59659,10.87033,0 106.596918,10.869831,0 106.597147,10.869523,0 106.599115,10.866753,0 106.600608,10.86466,0 106.601577,10.863284,0 106.602853,10.86148,0 106.603031,10.861233,0 106.603961,10.859913,0 106.604827,10.858704,0 106.6051,10.858326,0 106.605221,10.858166,0 106.606148,10.856855,0 106.607053,10.855477,0 106.607205,10.855254,0 106.607346,10.854994,0 106.609221,10.852074,0 106.609482,10.851655,0 106.610144,10.850652,0 106.610241,10.850496,0 106.610909,10.849463,0 106.612289,10.847302,0 106.612355,10.847199,0 106.612396,10.847135,0 106.61325,10.845834,0 106.613373,10.845558,0 106.613498,10.845316,0 106.613538,10.845239,0 106.613689,10.844974,0 106.614081,10.844351,0 106.614235,10.844243,0 106.614519,10.84385,0 106.614652,10.84366,0 106.615032,10.843144,0 106.615157,10.842948,0 106.615107,10.842915,0 106.615048,10.842841,0 106.615014,10.842754,0 106.615006,10.842697,0 106.615008,10.84264,0 106.615033,10.842554,0 106.615082,10.842477,0 106.615151,10.842417,0 106.615234,10.842378,0 106.616006,10.841136,0 106.616131,10.840938,0 106.61639,10.840579,0 106.616527,10.840479,0 106.616618,10.840393,0 106.617421,10.839157,0 106.619781,10.835503,0 106.621226,10.833285,0 106.622606,10.831133,0 106.624421,10.828311,0 106.624691,10.827894,0 106.624775,10.827761,0 106.624861,10.827644,0 106.625018,10.82743,0 106.625176,10.827227,0 106.625291,10.827315,0 106.625132,10.827516,0 106.624928,10.8278,0 106.624834,10.827939,0</coordinates>
      </LineString>
    </Placemark>
  </Document>
</kml>