<?xml version="1.0" encoding="UTF-8"?>
<kml xmlns="http://www.opengis.net/kml/2.2">
  <Document>
    <name>B 65 - Bến Thành - Cách Mạng Tháng Tám - Bến xe An Sương</name>
    <description>Lộ trình tuyến xe buýt B 65 (4:45 - 20:45)</description>
    <Style id="routeLineStyle">
      <LineStyle>
        <color>e600B3FF</color>
        <width>4</width>
      </LineStyle>
    </Style>
    <Style id="busStopStyle">
      <IconStyle>
        <scale>0.8</scale>
        <Icon>
          <href>http://maps.google.com/mapfiles/kml/shapes/bus.png</href>
        </Icon>
      </IconStyle>
    </Style>
    <Folder>
      <name>Lượt đi: Bến xe buýt Sài Gòn → Bến xe An Sương (17.73 km)</name>
      <Placemark>
        <name>B 65 - Đường đi Lượt đi</name>
        <description><![CDATA[&lt;b&gt;Tuyến:&lt;/b&gt; B 65 - Bến Thành - Cách Mạng Tháng Tám - Bến xe An Sương&lt;br/&gt;&lt;b&gt;Lượt:&lt;/b&gt; Lượt đi&lt;br/&gt;&lt;b&gt;Cự ly:&lt;/b&gt; 17.73 km&lt;br/&gt;&lt;b&gt;Thời gian hành trình:&lt;/b&gt; 70 phút&lt;br/&gt;&lt;b&gt;Thời gian hoạt động:&lt;/b&gt; 4:45 - 20:45]]></description>
        <styleUrl>#routeLineStyle</styleUrl>
        <LineString>
          <tessellate>1</tessellate>
          <coordinates>106.68936157,10.76767635,0 106.68936157,10.76767635,0 106.68955994,10.76718521,0 106.69024658,10.76744652,0 106.69093323,10.76770687,0 106.69094086,10.76766968,0 106.69094086,10.76766968,0 106.69094086,10.76766968,0 106.69091797,10.76771259,0 106.69160461,10.7679863,0 106.69229889,10.76826096,0 106.69299316,10.76853752,0 106.69367981,10.76881409,0 106.6937027,10.76878834,0 106.6937027,10.76878834,0 106.69367218,10.76882458,0 106.69461823,10.76919365,0 106.6955719,10.76956272,0 106.69558716,10.76950359,0 106.69558716,10.76950359,0 106.69558716,10.76950359,0 106.69558716,10.76950359,0 106.69558716,10.76950359,0 106.69555664,10.7695837,0 106.69616699,10.76980495,0 106.69650269,10.76918793,0 106.69697571,10.76972294,0 106.69745636,10.77025795,0 106.69792938,10.77079296,0 106.69841003,10.77132797,0 106.69879913,10.77117729,0 106.69918823,10.77102757,0 106.69997406,10.77100563,0 106.70075989,10.77098465,0 106.70075989,10.77098465,0 106.70075989,10.77098465,0 106.70075989,10.77098465,0 106.70349121,10.77080059,0 106.70341492,10.77095318,0 106.70185089,10.77104282,0 106.70185089,10.77104282,0 106.6995163,10.77104282,0 106.6995163,10.77104282,0 106.69923401,10.77105331,0 106.69856262,10.77134895,0 106.69789886,10.77167034,0 106.69662476,10.77118587,0 106.69581604,10.77121162,0 106.69582367,10.77128983,0 106.69582367,10.77128983,0 106.69582367,10.77128983,0 106.69582367,10.77128983,0 106.69582367,10.77128983,0 106.69581604,10.77120686,0 106.69464111,10.77128029,0 106.69345856,10.77135372,0 106.69321442,10.77159119,0 106.69197845,10.77227402,0 106.69075012,10.77295589,0 106.69081116,10.77304554,0 106.69081116,10.77304554,0 106.69081116,10.77304554,0 106.69081116,10.77304554,0 106.69081116,10.77304554,0 106.69081116,10.77304554,0 106.69081116,10.77304554,0 106.69081116,10.77304554,0 106.69075012,10.77296162,0 106.69028473,10.77321434,0 106.68981934,10.77346802,0 106.68935394,10.77372074,0 106.68888855,10.77397346,0 106.68894958,10.77406788,0 106.68894958,10.77406788,0 106.68894958,10.77406788,0 106.68894958,10.77406788,0 106.68894958,10.77406788,0 106.6888504,10.77396774,0 106.68775177,10.77455807,0 106.68666077,10.77514839,0 106.68553925,10.77576733,0 106.6844101,10.77638721,0 106.6844635,10.77646065,0 106.6844635,10.77646065,0 106.6844635,10.77646065,0 106.6844635,10.77646065,0 106.68442535,10.77638721,0 106.68341064,10.77692127,0 106.68240356,10.77745628,0 106.68245697,10.77752972,0 106.68245697,10.77752972,0 106.68245697,10.77752972,0 106.68245697,10.77752972,0 106.68245697,10.77752972,0 106.68245697,10.77752972,0 106.68241119,10.77746201,0 106.68191528,10.7777462,0 106.68193817,10.77789974,0 106.68190765,10.77797031,0 106.68184662,10.77803993,0 106.68177795,10.77807999,0 106.68166351,10.77810955,0 106.68153381,10.77807999,0 106.6813736,10.77798367,0 106.68045044,10.77846336,0 106.68048096,10.77851582,0 106.68048096,10.77851582,0 106.68048096,10.77851582,0 106.68048096,10.77851582,0 106.68044281,10.77846813,0 106.67941284,10.77901936,0 106.67838287,10.77956963,0 106.67734528,10.78012085,0 106.67631531,10.78067112,0 106.67634583,10.78070259,0 106.67634583,10.78070259,0 106.67634583,10.78070259,0 106.67634583,10.78070259,0 106.67630768,10.78067112,0 106.67549896,10.78110886,0 106.67469025,10.78154564,0 106.67474365,10.78162956,0 106.67474365,10.78162956,0 106.67474365,10.78162956,0 106.67474365,10.78162956,0 106.67468262,10.78155136,0 106.67314911,10.78238869,0 106.67317963,10.78245544,0 106.67314911,10.78236771,0 106.67317963,10.78245544,0 106.67314911,10.78238869,0 106.67153931,10.78325081,0 106.6699295,10.78411198,0 106.66994476,10.78414631,0 106.66994476,10.78414631,0 106.66994476,10.78414631,0 106.66994476,10.78414631,0 106.66994476,10.78414631,0 106.66994476,10.78414631,0 106.6699295,10.78410721,0 106.66915894,10.78452492,0 106.66838837,10.78494263,0 106.66764069,10.78534126,0 106.66690063,10.78574085,0 106.66693115,10.78581429,0 106.66693115,10.78581429,0 106.66693115,10.78581429,0 106.66693115,10.78581429,0 106.66693115,10.78581429,0 106.66693115,10.78581429,0 106.66693115,10.78581429,0 106.66693115,10.78581429,0 106.66690063,10.78573036,0 106.66608429,10.78616238,0 106.6652832,10.78658962,0 106.66448975,10.78701591,0 106.66368866,10.78744316,0 106.66372681,10.78748608,0 106.66372681,10.78748608,0 106.66372681,10.78748608,0 106.66372681,10.78748608,0 106.66372681,10.78748608,0 106.66372681,10.78748608,0 106.66372681,10.78748608,0 106.66370392,10.78743172,0 106.66313171,10.78773594,0 106.66255188,10.78804111,0 106.66197968,10.78834534,0 106.66140747,10.78864956,0 106.66145325,10.78869247,0 106.66145325,10.78869247,0 106.66145325,10.78869247,0 106.66145325,10.78869247,0 106.66143036,10.78864956,0 106.66053772,10.78911304,0 106.65964508,10.78957653,0 106.65969086,10.78962994,0 106.65969086,10.78962994,0 106.65969086,10.78962994,0 106.65969086,10.78962994,0 106.65966034,10.78957653,0 106.65879059,10.79003429,0 106.65792847,10.7904911,0 106.65705872,10.79094887,0 106.65618896,10.79140568,0 106.65621948,10.79144764,0 106.65621948,10.79144764,0 106.65621948,10.79144764,0 106.65621948,10.79144764,0 106.65619659,10.79139996,0 106.654953,10.79208279,0 106.65370941,10.79276466,0 106.65355682,10.79301834,0 106.65431976,10.79390335,0 106.655159,10.7947731,0 106.65519714,10.7947197,0 106.65519714,10.7947197,0 106.65514374,10.79476738,0 106.65575409,10.79538918,0 106.65522766,10.79596329,0 106.65465546,10.79650116,0 106.65409851,10.79598427,0 106.65406799,10.79603195,0 106.65406799,10.79603195,0 106.65410614,10.79598999,0 106.65316772,10.79510975,0 106.65221405,10.79421902,0 106.65218353,10.79425621,0 106.65218353,10.79425621,0 106.65218353,10.79425621,0 106.65222931,10.79422474,0 106.65180206,10.79379272,0 106.65115356,10.79415131,0 106.65119171,10.79418182,0 106.65119171,10.79418182,0 106.65119171,10.79418182,0 106.65119171,10.79418182,0 106.65116119,10.79413986,0 106.64953613,10.79500484,0 106.64957428,10.79506779,0 106.64957428,10.79506779,0 106.64957428,10.79506779,0 106.64957428,10.79506779,0 106.64953613,10.79500484,0 106.64862061,10.79549217,0 106.64769745,10.7959795,0 106.64774323,10.79605293,0 106.64774323,10.79605293,0 106.64774323,10.79605293,0 106.64774323,10.79605293,0 106.64769745,10.79599476,0 106.64687347,10.79642963,0 106.64605713,10.79686451,0 106.64523315,10.79729939,0 106.64440918,10.79773426,0 106.64445496,10.79779243,0 106.64445496,10.79779243,0 106.64445496,10.79779243,0 106.64445496,10.79779243,0 106.64445496,10.79779243,0 106.64441681,10.79774475,0 106.64356232,10.79820442,0 106.64271545,10.79866409,0 106.64186096,10.79912376,0 106.64100647,10.79958344,0 106.64103699,10.79964161,0 106.64103699,10.79964161,0 106.64103699,10.79964161,0 106.64103699,10.79964161,0 106.64103699,10.79964161,0 106.64100647,10.79958916,0 106.64019775,10.80001545,0 106.63939667,10.8004427,0 106.63859558,10.80086899,0 106.63779449,10.80129623,0 106.63782501,10.8013649,0 106.63782501,10.8013649,0 106.63782501,10.8013649,0 106.63782501,10.8013649,0 106.63778687,10.80128002,0 106.63672638,10.8018446,0 106.63645172,10.80234146,0 106.6361084,10.80288029,0 106.63582611,10.80379581,0 106.63554382,10.80471039,0 106.63562775,10.80473232,0 106.63562775,10.80473232,0 106.63562775,10.80473232,0 106.63555145,10.80471611,0 106.6353302,10.80545139,0 106.63510895,10.80618572,0 106.63518524,10.80620193,0 106.63518524,10.80620193,0 106.63511658,10.80618095,0 106.6349411,10.80672932,0 106.63486481,10.80726147,0 106.63486481,10.80756664,0 106.63455963,10.80828857,0 106.63463593,10.80831432,0 106.63463593,10.80831432,0 106.63463593,10.80831432,0 106.63453674,10.80828857,0 106.63423157,10.80925274,0 106.63395691,10.81023788,0 106.63365173,10.81122112,0 106.63334656,10.81220436,0 106.63334656,10.81220436,0 106.63334656,10.81220436,0 106.63334656,10.81220436,0 106.63284302,10.81374741,0 106.63240051,10.81526852,0 106.63193512,10.81680012,0 106.6314621,10.81833172,0 106.6314621,10.81833172,0 106.6314621,10.81833172,0 106.6314621,10.81833172,0 106.63121033,10.81916523,0 106.63095856,10.81999969,0 106.63070679,10.82083321,0 106.63045502,10.82166672,0 106.6301651,10.82242012,0 106.63025665,10.82245159,0 106.63025665,10.82245159,0 106.63025665,10.82245159,0 106.63025665,10.82245159,0 106.63014984,10.82243061,0 106.62980652,10.82309532,0 106.6292572,10.82365322,0 106.62804413,10.82470703,0 106.62689209,10.82580853,0 106.62576294,10.82689381,0 106.6258316,10.82695675,0 106.6258316,10.82695675,0 106.6258316,10.82695675,0 106.62575531,10.82691002,0 106.62539673,10.82731533,0 106.62508392,10.82772064,0 106.62480164,10.82815266,0 106.62451935,10.82858467,0 106.62459564,10.82862663,0 106.62459564,10.82862663,0 106.62448883,10.8285799,0 106.62399292,10.82936001,0 106.62349701,10.83013916,0 106.6230011,10.83090878,0 106.62250519,10.83167839,0 106.62201691,10.83244228,0 106.621521,10.83320618,0 106.62102509,10.83397007,0 106.62052917,10.83473396,0 106.6206131,10.83478069,0 106.6206131,10.83478069,0 106.62052155,10.83473873,0 106.61995697,10.83561897,0 106.61940002,10.83649921,0 106.61885071,10.83733177,0 106.61830139,10.8381691,0 106.61840057,10.83822155,0 106.61840057,10.83822155,0 106.61840057,10.83822155,0 106.61828613,10.8381424,0 106.6179657,10.83863163,0 106.61765289,10.83911991,0 106.61734009,10.83960915,0 106.61701965,10.84009743,0 106.61670685,10.84059238,0 106.61639404,10.84108829,0 106.61608887,10.84158611,0 106.61577606,10.84208393,0 106.61547089,10.84256554,0 106.61516571,10.8430481,0 106.61483765,10.84353256,0 106.61450958,10.84401703,0 106.61421204,10.84451294,0 106.61390686,10.8450079,0 106.61360931,10.84550285,0 106.61330414,10.84599876,0 106.61335754,10.846035,0 106.61335754,10.846035,0 106.61335754,10.846035,0 106.61330414,10.84600925,0 106.61289215,10.84664917,0 106.61248016,10.84728909,0 106.61235046,10.84721565,0 106.61266327,10.84670925,0 106.61296844,10.8462038,0 106.61328125,10.84571934,0 106.61358643,10.84523392,0 106.61352539,10.84518719,0 106.61352539,10.84518719,0 106.61352539,10.84518719,0 106.61402893,10.84436512,0 106.61326599,10.84382725,0 106.6133728,10.8437376,0</coordinates>
        </LineString>
      </Placemark>
      <Folder>
        <name>Trạm dừng (44 trạm)</name>
        <Placemark>
          <name>[BX 01] Bến xe buýt Sài Gòn</name>
          <description><![CDATA[&lt;b&gt;Trạm:&lt;/b&gt; Bến xe buýt Sài Gòn&lt;br/&gt;&lt;b&gt;Mã trạm:&lt;/b&gt; BX 01&lt;br/&gt;&lt;b&gt;Địa chỉ:&lt;/b&gt; BẾN XE BUÝT SÀI GÒN Lê Lai&lt;br/&gt;&lt;b&gt;Khu vực:&lt;/b&gt; Phường Phạm Ngũ Lão, Quận 1&lt;br/&gt;&lt;b&gt;Các tuyến qua trạm:&lt;/b&gt; 03, 04, 102, 109, 13, 140, 171, 172, 18, 19, 20, 27, 28, 34, 36, 39, 52, 65, 69, 72, 75, 86, 88, 93, D4, DL01, DL02, DL03, DL04, DL05, DL06]]></description>
          <styleUrl>#busStopStyle</styleUrl>
          <Point>
            <coordinates>106.689362,10.767676,0</coordinates>
          </Point>
        </Placemark>
        <Placemark>
          <name>[Q1 190] Khách sạn Viễn Đông</name>
          <description><![CDATA[&lt;b&gt;Trạm:&lt;/b&gt; Khách sạn Viễn Đông&lt;br/&gt;&lt;b&gt;Mã trạm:&lt;/b&gt; Q1 190&lt;br/&gt;&lt;b&gt;Địa chỉ:&lt;/b&gt; 277-279-275Y Phạm Ngũ Lão&lt;br/&gt;&lt;b&gt;Khu vực:&lt;/b&gt; Phường Phạm Ngũ Lão, Quận 1&lt;br/&gt;&lt;b&gt;Các tuyến qua trạm:&lt;/b&gt; 03, 04, 102, 109, 13, 140, 156V, 171, 172, 18, 19, 20, 28, 34, 36, 39, 46, 52, 65, 69, 72, 72-2B, 75, 86, 88, 93, D4, DL01, DL02, DL03]]></description>
          <styleUrl>#busStopStyle</styleUrl>
          <Point>
            <coordinates>106.690941,10.76767,0</coordinates>
          </Point>
        </Placemark>
        <Placemark>
          <name>[Q1 191] Sân khấu Sen Hồng</name>
          <description><![CDATA[&lt;b&gt;Trạm:&lt;/b&gt; Sân khấu Sen Hồng&lt;br/&gt;&lt;b&gt;Mã trạm:&lt;/b&gt; Q1 191&lt;br/&gt;&lt;b&gt;Địa chỉ:&lt;/b&gt; 187 Phạm Ngũ Lão&lt;br/&gt;&lt;b&gt;Khu vực:&lt;/b&gt; Phường Phạm Ngũ Lão, Quận 1&lt;br/&gt;&lt;b&gt;Các tuyến qua trạm:&lt;/b&gt; 03, 04, 102, 109, 13, 140, 156V, 171, 172, 18, 19, 20, 28, 34, 36, 39, 46, 52, 65, 69, 72, 72-2B, 93, D4, DL01, DL02, DL03, DL05, DL06]]></description>
          <styleUrl>#busStopStyle</styleUrl>
          <Point>
            <coordinates>106.693699,10.768788,0</coordinates>
          </Point>
        </Placemark>
        <Placemark>
          <name>[Q1 192] Trường Emst Thalmann</name>
          <description><![CDATA[&lt;b&gt;Trạm:&lt;/b&gt; Trường Emst Thalmann&lt;br/&gt;&lt;b&gt;Mã trạm:&lt;/b&gt; Q1 192&lt;br/&gt;&lt;b&gt;Địa chỉ:&lt;/b&gt; Trường Emst Thalmann Phạm Ngũ Lão&lt;br/&gt;&lt;b&gt;Khu vực:&lt;/b&gt; Phường Phạm Ngũ Lão, Quận 1&lt;br/&gt;&lt;b&gt;Các tuyến qua trạm:&lt;/b&gt; 03, 04, 109, 13, 156V, 171, 172, 18, 19, 20, 28, 34, 36, 39, 52, 65, 69, 72-2B, 93, D4, DL01, DL02, DL03]]></description>
          <styleUrl>#busStopStyle</styleUrl>
          <Point>
            <coordinates>106.695587,10.769504,0</coordinates>
          </Point>
        </Placemark>
        <Placemark>
          <name>[Q1 178] Trạm Trung chuyển trên đường Hàm Nghi</name>
          <description><![CDATA[&lt;b&gt;Trạm:&lt;/b&gt; Trạm Trung chuyển trên đường Hàm Nghi&lt;br/&gt;&lt;b&gt;Mã trạm:&lt;/b&gt; Q1 178&lt;br/&gt;&lt;b&gt;Địa chỉ:&lt;/b&gt; Hàm nghi 3 Hàm Nghi&lt;br/&gt;&lt;b&gt;Khu vực:&lt;/b&gt; Phường Nguyễn Thái Bình, Quận 1&lt;br/&gt;&lt;b&gt;Các tuyến qua trạm:&lt;/b&gt; 18, 31, 36, 44, 65]]></description>
          <styleUrl>#busStopStyle</styleUrl>
          <Point>
            <coordinates>106.700758,10.770985,0</coordinates>
          </Point>
        </Placemark>
        <Placemark>
          <name>[Q1 194] Trường Cao Thắng</name>
          <description><![CDATA[&lt;b&gt;Trạm:&lt;/b&gt; Trường Cao Thắng&lt;br/&gt;&lt;b&gt;Mã trạm:&lt;/b&gt; Q1 194&lt;br/&gt;&lt;b&gt;Địa chỉ:&lt;/b&gt; Trường Cao Thắng Hàm Nghi&lt;br/&gt;&lt;b&gt;Khu vực:&lt;/b&gt; Phường Bến Nghé, Quận 1&lt;br/&gt;&lt;b&gt;Các tuyến qua trạm:&lt;/b&gt; 01, 03, 102, 172, 19, 20, 34, 38, 39, 45, 56, 65, 72-2B, 75, 86, 88, D4]]></description>
          <styleUrl>#busStopStyle</styleUrl>
          <Point>
            <coordinates>106.701853,10.771043,0</coordinates>
          </Point>
        </Placemark>
        <Placemark>
          <name>[Q1 102] Trạm Trung chuyển trên đường Hàm Nghi</name>
          <description><![CDATA[&lt;b&gt;Trạm:&lt;/b&gt; Trạm Trung chuyển trên đường Hàm Nghi&lt;br/&gt;&lt;b&gt;Mã trạm:&lt;/b&gt; Q1 102&lt;br/&gt;&lt;b&gt;Địa chỉ:&lt;/b&gt; Hàm Nghi 4 Hàm Nghi&lt;br/&gt;&lt;b&gt;Khu vực:&lt;/b&gt; Phường Bến Thành, Quận 1&lt;br/&gt;&lt;b&gt;Các tuyến qua trạm:&lt;/b&gt; 01, 102, 44, 65, 86]]></description>
          <styleUrl>#busStopStyle</styleUrl>
          <Point>
            <coordinates>106.699514,10.771043,0</coordinates>
          </Point>
        </Placemark>
        <Placemark>
          <name>[Q1 040] Khách sạn New world</name>
          <description><![CDATA[&lt;b&gt;Trạm:&lt;/b&gt; Khách sạn New world&lt;br/&gt;&lt;b&gt;Mã trạm:&lt;/b&gt; Q1 040&lt;br/&gt;&lt;b&gt;Địa chỉ:&lt;/b&gt; 40 Phạm Hồng Thái&lt;br/&gt;&lt;b&gt;Khu vực:&lt;/b&gt; Phường Bến Thành, Quận 1&lt;br/&gt;&lt;b&gt;Các tuyến qua trạm:&lt;/b&gt; 13, 152, 31, 38, 56, 65]]></description>
          <styleUrl>#busStopStyle</styleUrl>
          <Point>
            <coordinates>106.695824,10.77129,0</coordinates>
          </Point>
        </Placemark>
        <Placemark>
          <name>[Q1 003] Trống Đồng</name>
          <description><![CDATA[&lt;b&gt;Trạm:&lt;/b&gt; Trống Đồng&lt;br/&gt;&lt;b&gt;Mã trạm:&lt;/b&gt; Q1 003&lt;br/&gt;&lt;b&gt;Địa chỉ:&lt;/b&gt; Đối diện số 89 Cách Mạng Tháng Tám&lt;br/&gt;&lt;b&gt;Khu vực:&lt;/b&gt; None, Quận 1&lt;br/&gt;&lt;b&gt;Các tuyến qua trạm:&lt;/b&gt; 13, 28, 38, 65, 69]]></description>
          <styleUrl>#busStopStyle</styleUrl>
          <Point>
            <coordinates>106.690813,10.773046,0</coordinates>
          </Point>
        </Placemark>
        <Placemark>
          <name>[Q3 006] Võ Văn Tần</name>
          <description><![CDATA[&lt;b&gt;Trạm:&lt;/b&gt; Võ Văn Tần&lt;br/&gt;&lt;b&gt;Mã trạm:&lt;/b&gt; Q3 006&lt;br/&gt;&lt;b&gt;Địa chỉ:&lt;/b&gt; 40 - 42 Cách Mạng Tháng Tám&lt;br/&gt;&lt;b&gt;Khu vực:&lt;/b&gt; Phường 06, Quận 3&lt;br/&gt;&lt;b&gt;Các tuyến qua trạm:&lt;/b&gt; 13, 65, 69]]></description>
          <styleUrl>#busStopStyle</styleUrl>
          <Point>
            <coordinates>106.688946,10.774068,0</coordinates>
          </Point>
        </Placemark>
        <Placemark>
          <name>[Q3 007] Bệnh viện Mắt - Bình Dân - Da Liễu</name>
          <description><![CDATA[&lt;b&gt;Trạm:&lt;/b&gt; Bệnh viện Mắt - Bình Dân - Da Liễu&lt;br/&gt;&lt;b&gt;Mã trạm:&lt;/b&gt; Q3 007&lt;br/&gt;&lt;b&gt;Địa chỉ:&lt;/b&gt; 108 Cách Mạng Tháng Tám&lt;br/&gt;&lt;b&gt;Khu vực:&lt;/b&gt; None, Quận 3&lt;br/&gt;&lt;b&gt;Các tuyến qua trạm:&lt;/b&gt; 13, 65]]></description>
          <styleUrl>#busStopStyle</styleUrl>
          <Point>
            <coordinates>106.684467,10.776461,0</coordinates>
          </Point>
        </Placemark>
        <Placemark>
          <name>[Q3 008] Công trường Dân Chủ</name>
          <description><![CDATA[&lt;b&gt;Trạm:&lt;/b&gt; Công trường Dân Chủ&lt;br/&gt;&lt;b&gt;Mã trạm:&lt;/b&gt; Q3 008&lt;br/&gt;&lt;b&gt;Địa chỉ:&lt;/b&gt; 126 Cách Mạng Tháng Tám&lt;br/&gt;&lt;b&gt;Khu vực:&lt;/b&gt; None, Quận 3&lt;br/&gt;&lt;b&gt;Các tuyến qua trạm:&lt;/b&gt; 13, 65]]></description>
          <styleUrl>#busStopStyle</styleUrl>
          <Point>
            <coordinates>106.682455,10.77753,0</coordinates>
          </Point>
        </Placemark>
        <Placemark>
          <name>[Q3 009] Công trường Dân Chủ</name>
          <description><![CDATA[&lt;b&gt;Trạm:&lt;/b&gt; Công trường Dân Chủ&lt;br/&gt;&lt;b&gt;Mã trạm:&lt;/b&gt; Q3 009&lt;br/&gt;&lt;b&gt;Địa chỉ:&lt;/b&gt; 132C - 132D Cách Mạng Tháng Tám&lt;br/&gt;&lt;b&gt;Khu vực:&lt;/b&gt; Phường 10, Quận 3&lt;br/&gt;&lt;b&gt;Các tuyến qua trạm:&lt;/b&gt; 13, 30, 65]]></description>
          <styleUrl>#busStopStyle</styleUrl>
          <Point>
            <coordinates>106.680481,10.778516,0</coordinates>
          </Point>
        </Placemark>
        <Placemark>
          <name>[Q3 010] Ngã Ba Chí Hòa</name>
          <description><![CDATA[&lt;b&gt;Trạm:&lt;/b&gt; Ngã Ba Chí Hòa&lt;br/&gt;&lt;b&gt;Mã trạm:&lt;/b&gt; Q3 010&lt;br/&gt;&lt;b&gt;Địa chỉ:&lt;/b&gt; 276 Bis Cách Mạng Tháng Tám&lt;br/&gt;&lt;b&gt;Khu vực:&lt;/b&gt; Phường 10, Quận 3&lt;br/&gt;&lt;b&gt;Các tuyến qua trạm:&lt;/b&gt; 13, 30, 65]]></description>
          <styleUrl>#busStopStyle</styleUrl>
          <Point>
            <coordinates>106.67315,10.78237,0</coordinates>
          </Point>
        </Placemark>
        <Placemark>
          <name>[Q3 011] Chùa Bửu Đà</name>
          <description><![CDATA[&lt;b&gt;Trạm:&lt;/b&gt; Chùa Bửu Đà&lt;br/&gt;&lt;b&gt;Mã trạm:&lt;/b&gt; Q3 011&lt;br/&gt;&lt;b&gt;Địa chỉ:&lt;/b&gt; 338 - 340 Cách Mạng Tháng Tám&lt;br/&gt;&lt;b&gt;Khu vực:&lt;/b&gt; Phường 10, Quận 3&lt;br/&gt;&lt;b&gt;Các tuyến qua trạm:&lt;/b&gt; 13, 30, 65]]></description>
          <styleUrl>#busStopStyle</styleUrl>
          <Point>
            <coordinates>106.674741,10.78163,0</coordinates>
          </Point>
        </Placemark>
        <Placemark>
          <name>[Q3 012] Rạp hát Thanh Vân</name>
          <description><![CDATA[&lt;b&gt;Trạm:&lt;/b&gt; Rạp hát Thanh Vân&lt;br/&gt;&lt;b&gt;Mã trạm:&lt;/b&gt; Q3 012&lt;br/&gt;&lt;b&gt;Địa chỉ:&lt;/b&gt; 366 Cách Mạng Tháng Tám&lt;br/&gt;&lt;b&gt;Khu vực:&lt;/b&gt; Phường 10, Quận 3&lt;br/&gt;&lt;b&gt;Các tuyến qua trạm:&lt;/b&gt; 13, 30, 65]]></description>
          <styleUrl>#busStopStyle</styleUrl>
          <Point>
            <coordinates>106.673148,10.782368,0</coordinates>
          </Point>
        </Placemark>
        <Placemark>
          <name>[Q3 013] Chợ Hòa Hưng</name>
          <description><![CDATA[&lt;b&gt;Trạm:&lt;/b&gt; Chợ Hòa Hưng&lt;br/&gt;&lt;b&gt;Mã trạm:&lt;/b&gt; Q3 013&lt;br/&gt;&lt;b&gt;Địa chỉ:&lt;/b&gt; 442 Cách Mạng Tháng Tám&lt;br/&gt;&lt;b&gt;Khu vực:&lt;/b&gt; None, Quận 3&lt;br/&gt;&lt;b&gt;Các tuyến qua trạm:&lt;/b&gt; 13, 30, 65]]></description>
          <styleUrl>#busStopStyle</styleUrl>
          <Point>
            <coordinates>106.669945,10.784146,0</coordinates>
          </Point>
        </Placemark>
        <Placemark>
          <name>[Q3 014] Công viên Lê Thị Riêng</name>
          <description><![CDATA[&lt;b&gt;Trạm:&lt;/b&gt; Công viên Lê Thị Riêng&lt;br/&gt;&lt;b&gt;Mã trạm:&lt;/b&gt; Q3 014&lt;br/&gt;&lt;b&gt;Địa chỉ:&lt;/b&gt; 542 Cách Mạng Tháng Tám&lt;br/&gt;&lt;b&gt;Khu vực:&lt;/b&gt; Phường 11, Quận 3&lt;br/&gt;&lt;b&gt;Các tuyến qua trạm:&lt;/b&gt; 13, 30, 65]]></description>
          <styleUrl>#busStopStyle</styleUrl>
          <Point>
            <coordinates>106.66693,10.785814,0</coordinates>
          </Point>
        </Placemark>
        <Placemark>
          <name>[QTB 054] Bắc Hải</name>
          <description><![CDATA[&lt;b&gt;Trạm:&lt;/b&gt; Bắc Hải&lt;br/&gt;&lt;b&gt;Mã trạm:&lt;/b&gt; QTB 054&lt;br/&gt;&lt;b&gt;Địa chỉ:&lt;/b&gt; 690 Cách Mạng Tháng Tám&lt;br/&gt;&lt;b&gt;Khu vực:&lt;/b&gt; None, Quận Tân Bình&lt;br/&gt;&lt;b&gt;Các tuyến qua trạm:&lt;/b&gt; 103, 13, 30, 65]]></description>
          <styleUrl>#busStopStyle</styleUrl>
          <Point>
            <coordinates>106.663727,10.787486,0</coordinates>
          </Point>
        </Placemark>
        <Placemark>
          <name>[QTB 055] Ngã ba Bành Văn Trân</name>
          <description><![CDATA[&lt;b&gt;Trạm:&lt;/b&gt; Ngã ba Bành Văn Trân&lt;br/&gt;&lt;b&gt;Mã trạm:&lt;/b&gt; QTB 055&lt;br/&gt;&lt;b&gt;Địa chỉ:&lt;/b&gt; 814 Cách Mạng Tháng Tám&lt;br/&gt;&lt;b&gt;Khu vực:&lt;/b&gt; None, Quận Tân Bình&lt;br/&gt;&lt;b&gt;Các tuyến qua trạm:&lt;/b&gt; 103, 13, 30, 65]]></description>
          <styleUrl>#busStopStyle</styleUrl>
          <Point>
            <coordinates>106.661453,10.788692,0</coordinates>
          </Point>
        </Placemark>
        <Placemark>
          <name>[QTB 056] Ông Tạ</name>
          <description><![CDATA[&lt;b&gt;Trạm:&lt;/b&gt; Ông Tạ&lt;br/&gt;&lt;b&gt;Mã trạm:&lt;/b&gt; QTB 056&lt;br/&gt;&lt;b&gt;Địa chỉ:&lt;/b&gt; 962 Cách Mạng Tháng Tám&lt;br/&gt;&lt;b&gt;Khu vực:&lt;/b&gt; None, Quận Tân Bình&lt;br/&gt;&lt;b&gt;Các tuyến qua trạm:&lt;/b&gt; 103, 13, 30, 65]]></description>
          <styleUrl>#busStopStyle</styleUrl>
          <Point>
            <coordinates>106.659694,10.78963,0</coordinates>
          </Point>
        </Placemark>
        <Placemark>
          <name>[QTB 057] Cư xá Tự Do</name>
          <description><![CDATA[&lt;b&gt;Trạm:&lt;/b&gt; Cư xá Tự Do&lt;br/&gt;&lt;b&gt;Mã trạm:&lt;/b&gt; QTB 057&lt;br/&gt;&lt;b&gt;Địa chỉ:&lt;/b&gt; 1130 Cách Mạng Tháng Tám&lt;br/&gt;&lt;b&gt;Khu vực:&lt;/b&gt; None, Quận Tân Bình&lt;br/&gt;&lt;b&gt;Các tuyến qua trạm:&lt;/b&gt; 103, 13, 30, 65]]></description>
          <styleUrl>#busStopStyle</styleUrl>
          <Point>
            <coordinates>106.656218,10.791448,0</coordinates>
          </Point>
        </Placemark>
        <Placemark>
          <name>[QTB 034] Bệnh viện Quận Tân Bình</name>
          <description><![CDATA[&lt;b&gt;Trạm:&lt;/b&gt; Bệnh viện Quận Tân Bình&lt;br/&gt;&lt;b&gt;Mã trạm:&lt;/b&gt; QTB 034&lt;br/&gt;&lt;b&gt;Địa chỉ:&lt;/b&gt; 605 Hoàng Văn Thụ&lt;br/&gt;&lt;b&gt;Khu vực:&lt;/b&gt; None, Quận Tân Bình&lt;br/&gt;&lt;b&gt;Các tuyến qua trạm:&lt;/b&gt; 08, 103, 13, 145, 148, 30, 50, 59, 63-1, 64, 65, 94]]></description>
          <styleUrl>#busStopStyle</styleUrl>
          <Point>
            <coordinates>106.655198,10.79472,0</coordinates>
          </Point>
        </Placemark>
        <Placemark>
          <name>[QTB 065] Trường Phạm Ngũ Lão</name>
          <description><![CDATA[&lt;b&gt;Trạm:&lt;/b&gt; Trường Phạm Ngũ Lão&lt;br/&gt;&lt;b&gt;Mã trạm:&lt;/b&gt; QTB 065&lt;br/&gt;&lt;b&gt;Địa chỉ:&lt;/b&gt; 149 (E62) Xuân Hồng&lt;br/&gt;&lt;b&gt;Khu vực:&lt;/b&gt; None, Quận Tân Bình&lt;br/&gt;&lt;b&gt;Các tuyến qua trạm:&lt;/b&gt; 08, 103, 13, 145, 148, 30, 50, 59, 64, 65, 94]]></description>
          <styleUrl>#busStopStyle</styleUrl>
          <Point>
            <coordinates>106.654066,10.796032,0</coordinates>
          </Point>
        </Placemark>
        <Placemark>
          <name>[QTB 066] Cây xăng Đôi</name>
          <description><![CDATA[&lt;b&gt;Trạm:&lt;/b&gt; Cây xăng Đôi&lt;br/&gt;&lt;b&gt;Mã trạm:&lt;/b&gt; QTB 066&lt;br/&gt;&lt;b&gt;Địa chỉ:&lt;/b&gt; 23 Xuân Hồng&lt;br/&gt;&lt;b&gt;Khu vực:&lt;/b&gt; None, Quận Tân Bình&lt;br/&gt;&lt;b&gt;Các tuyến qua trạm:&lt;/b&gt; 08, 103, 13, 145, 148, 30, 50, 59, 64, 65, 94]]></description>
          <styleUrl>#busStopStyle</styleUrl>
          <Point>
            <coordinates>106.652184,10.794256,0</coordinates>
          </Point>
        </Placemark>
        <Placemark>
          <name>[QTB 067] Ngã tư Bảy Hiền</name>
          <description><![CDATA[&lt;b&gt;Trạm:&lt;/b&gt; Ngã tư Bảy Hiền&lt;br/&gt;&lt;b&gt;Mã trạm:&lt;/b&gt; QTB 067&lt;br/&gt;&lt;b&gt;Địa chỉ:&lt;/b&gt; 106 Trường Chinh&lt;br/&gt;&lt;b&gt;Khu vực:&lt;/b&gt; None, Quận Tân Bình&lt;br/&gt;&lt;b&gt;Các tuyến qua trạm:&lt;/b&gt; 13, 30, 64, 65, 94]]></description>
          <styleUrl>#busStopStyle</styleUrl>
          <Point>
            <coordinates>106.651191,10.794182,0</coordinates>
          </Point>
        </Placemark>
        <Placemark>
          <name>[QTB 068] Nhà Thờ Đắc Lộ</name>
          <description><![CDATA[&lt;b&gt;Trạm:&lt;/b&gt; Nhà Thờ Đắc Lộ&lt;br/&gt;&lt;b&gt;Mã trạm:&lt;/b&gt; QTB 068&lt;br/&gt;&lt;b&gt;Địa chỉ:&lt;/b&gt; 150 Trường Chinh&lt;br/&gt;&lt;b&gt;Khu vực:&lt;/b&gt; None, Quận Tân Bình&lt;br/&gt;&lt;b&gt;Các tuyến qua trạm:&lt;/b&gt; 13, 30, 64, 65, 94]]></description>
          <styleUrl>#busStopStyle</styleUrl>
          <Point>
            <coordinates>106.649576,10.795068,0</coordinates>
          </Point>
        </Placemark>
        <Placemark>
          <name>[QTB 069] Ngã ba Hoàng Hoa Thám</name>
          <description><![CDATA[&lt;b&gt;Trạm:&lt;/b&gt; Ngã ba Hoàng Hoa Thám&lt;br/&gt;&lt;b&gt;Mã trạm:&lt;/b&gt; QTB 069&lt;br/&gt;&lt;b&gt;Địa chỉ:&lt;/b&gt; 162T Trường Chinh&lt;br/&gt;&lt;b&gt;Khu vực:&lt;/b&gt; None, Quận Tân Bình&lt;br/&gt;&lt;b&gt;Các tuyến qua trạm:&lt;/b&gt; 13, 30, 64, 65, 94]]></description>
          <styleUrl>#busStopStyle</styleUrl>
          <Point>
            <coordinates>106.647747,10.796053,0</coordinates>
          </Point>
        </Placemark>
        <Placemark>
          <name>[QTB 070] Ngã ba Bình Giã</name>
          <description><![CDATA[&lt;b&gt;Trạm:&lt;/b&gt; Ngã ba Bình Giã&lt;br/&gt;&lt;b&gt;Mã trạm:&lt;/b&gt; QTB 070&lt;br/&gt;&lt;b&gt;Địa chỉ:&lt;/b&gt; 298 Trường Chinh&lt;br/&gt;&lt;b&gt;Khu vực:&lt;/b&gt; None, Quận Tân Bình&lt;br/&gt;&lt;b&gt;Các tuyến qua trạm:&lt;/b&gt; 13, 30, 65, 94]]></description>
          <styleUrl>#busStopStyle</styleUrl>
          <Point>
            <coordinates>106.644453,10.797792,0</coordinates>
          </Point>
        </Placemark>
        <Placemark>
          <name>[QTB 071] Ngã ba Ấp Bắc</name>
          <description><![CDATA[&lt;b&gt;Trạm:&lt;/b&gt; Ngã ba Ấp Bắc&lt;br/&gt;&lt;b&gt;Mã trạm:&lt;/b&gt; QTB 071&lt;br/&gt;&lt;b&gt;Địa chỉ:&lt;/b&gt; 366A Trường Chinh&lt;br/&gt;&lt;b&gt;Khu vực:&lt;/b&gt; None, Quận Tân Bình&lt;br/&gt;&lt;b&gt;Các tuyến qua trạm:&lt;/b&gt; 13, 23, 65, 94]]></description>
          <styleUrl>#busStopStyle</styleUrl>
          <Point>
            <coordinates>106.641036,10.799642,0</coordinates>
          </Point>
        </Placemark>
        <Placemark>
          <name>[QTB 072] Chợ Võ Thành Trang</name>
          <description><![CDATA[&lt;b&gt;Trạm:&lt;/b&gt; Chợ Võ Thành Trang&lt;br/&gt;&lt;b&gt;Mã trạm:&lt;/b&gt; QTB 072&lt;br/&gt;&lt;b&gt;Địa chỉ:&lt;/b&gt; 510 Trường Chinh&lt;br/&gt;&lt;b&gt;Khu vực:&lt;/b&gt; None, Quận Tân Bình&lt;br/&gt;&lt;b&gt;Các tuyến qua trạm:&lt;/b&gt; 13, 23, 65, 94]]></description>
          <styleUrl>#busStopStyle</styleUrl>
          <Point>
            <coordinates>106.637823,10.801365,0</coordinates>
          </Point>
        </Placemark>
        <Placemark>
          <name>[QTB 073] Ngã tư Tân Kỳ Tân Quý</name>
          <description><![CDATA[&lt;b&gt;Trạm:&lt;/b&gt; Ngã tư Tân Kỳ Tân Quý&lt;br/&gt;&lt;b&gt;Mã trạm:&lt;/b&gt; QTB 073&lt;br/&gt;&lt;b&gt;Địa chỉ:&lt;/b&gt; 638 Trường Chinh&lt;br/&gt;&lt;b&gt;Khu vực:&lt;/b&gt; None, Quận Tân Bình&lt;br/&gt;&lt;b&gt;Các tuyến qua trạm:&lt;/b&gt; 13, 23, 27, 62, 65, 94]]></description>
          <styleUrl>#busStopStyle</styleUrl>
          <Point>
            <coordinates>106.635629,10.804732,0</coordinates>
          </Point>
        </Placemark>
        <Placemark>
          <name>[QTB 074] Siêu thị Big C</name>
          <description><![CDATA[&lt;b&gt;Trạm:&lt;/b&gt; Siêu thị Big C&lt;br/&gt;&lt;b&gt;Mã trạm:&lt;/b&gt; QTB 074&lt;br/&gt;&lt;b&gt;Địa chỉ:&lt;/b&gt; 680 Trường Chinh&lt;br/&gt;&lt;b&gt;Khu vực:&lt;/b&gt; None, Quận Tân Bình&lt;br/&gt;&lt;b&gt;Các tuyến qua trạm:&lt;/b&gt; 13, 23, 27, 62, 65, 94]]></description>
          <styleUrl>#busStopStyle</styleUrl>
          <Point>
            <coordinates>106.635184,10.806202,0</coordinates>
          </Point>
        </Placemark>
        <Placemark>
          <name>[QTB 075] Mũi tàu Cộng Hòa</name>
          <description><![CDATA[&lt;b&gt;Trạm:&lt;/b&gt; Mũi tàu Cộng Hòa&lt;br/&gt;&lt;b&gt;Mã trạm:&lt;/b&gt; QTB 075&lt;br/&gt;&lt;b&gt;Địa chỉ:&lt;/b&gt; 19B1 Trường Chinh&lt;br/&gt;&lt;b&gt;Khu vực:&lt;/b&gt; None, Quận Tân Bình&lt;br/&gt;&lt;b&gt;Các tuyến qua trạm:&lt;/b&gt; 04, 104, 13, 145, 16, 23, 27, 28, 62, 63-1, 65, 94]]></description>
          <styleUrl>#busStopStyle</styleUrl>
          <Point>
            <coordinates>106.634638,10.808314,0</coordinates>
          </Point>
        </Placemark>
        <Placemark>
          <name>[QTB 076] Ngã ba Chế Lan Viên</name>
          <description><![CDATA[&lt;b&gt;Trạm:&lt;/b&gt; Ngã ba Chế Lan Viên&lt;br/&gt;&lt;b&gt;Mã trạm:&lt;/b&gt; QTB 076&lt;br/&gt;&lt;b&gt;Địa chỉ:&lt;/b&gt; Đối diện đường Chế Lan Viên Trường Chinh&lt;br/&gt;&lt;b&gt;Khu vực:&lt;/b&gt; None, Quận Tân Bình&lt;br/&gt;&lt;b&gt;Các tuyến qua trạm:&lt;/b&gt; 04, 104, 13, 145, 23, 27, 28, 62, 65, 94]]></description>
          <styleUrl>#busStopStyle</styleUrl>
          <Point>
            <coordinates>106.633349,10.812204,0</coordinates>
          </Point>
        </Placemark>
        <Placemark>
          <name>[QTB 078] UBND Phường 15</name>
          <description><![CDATA[&lt;b&gt;Trạm:&lt;/b&gt; UBND Phường 15&lt;br/&gt;&lt;b&gt;Mã trạm:&lt;/b&gt; QTB 078&lt;br/&gt;&lt;b&gt;Địa chỉ:&lt;/b&gt; 850 Trường Chinh&lt;br/&gt;&lt;b&gt;Khu vực:&lt;/b&gt; None, Quận Tân Bình&lt;br/&gt;&lt;b&gt;Các tuyến qua trạm:&lt;/b&gt; 04, 104, 13, 145, 23, 27, 62, 65, 94]]></description>
          <styleUrl>#busStopStyle</styleUrl>
          <Point>
            <coordinates>106.631461,10.818332,0</coordinates>
          </Point>
        </Placemark>
        <Placemark>
          <name>[QTB 079] Khu Công Nghiệp Tân Bình</name>
          <description><![CDATA[&lt;b&gt;Trạm:&lt;/b&gt; Khu Công Nghiệp Tân Bình&lt;br/&gt;&lt;b&gt;Mã trạm:&lt;/b&gt; QTB 079&lt;br/&gt;&lt;b&gt;Địa chỉ:&lt;/b&gt; 932 Trường Chinh&lt;br/&gt;&lt;b&gt;Khu vực:&lt;/b&gt; None, Quận Tân Bình&lt;br/&gt;&lt;b&gt;Các tuyến qua trạm:&lt;/b&gt; 04, 104, 13, 145, 23, 27, 32, 41, 62, 65, 94]]></description>
          <styleUrl>#busStopStyle</styleUrl>
          <Point>
            <coordinates>106.630254,10.822452,0</coordinates>
          </Point>
        </Placemark>
        <Placemark>
          <name>[Q12 128] Cầu Tham Lương - Siêu thị Thiên Hòa</name>
          <description><![CDATA[&lt;b&gt;Trạm:&lt;/b&gt; Cầu Tham Lương - Siêu thị Thiên Hòa&lt;br/&gt;&lt;b&gt;Mã trạm:&lt;/b&gt; Q12 128&lt;br/&gt;&lt;b&gt;Địa chỉ:&lt;/b&gt; 60A-B (1/17A) Trường Chinh&lt;br/&gt;&lt;b&gt;Khu vực:&lt;/b&gt; None, Quận 12&lt;br/&gt;&lt;b&gt;Các tuyến qua trạm:&lt;/b&gt; 04, 104, 13, 145, 23, 27, 41, 62, 65, 94]]></description>
          <styleUrl>#busStopStyle</styleUrl>
          <Point>
            <coordinates>106.625828,10.826957,0</coordinates>
          </Point>
        </Placemark>
        <Placemark>
          <name>[Q12 129] Chùa Vĩnh Phước</name>
          <description><![CDATA[&lt;b&gt;Trạm:&lt;/b&gt; Chùa Vĩnh Phước&lt;br/&gt;&lt;b&gt;Mã trạm:&lt;/b&gt; Q12 129&lt;br/&gt;&lt;b&gt;Địa chỉ:&lt;/b&gt; 110 (189/4) Trường Chinh&lt;br/&gt;&lt;b&gt;Khu vực:&lt;/b&gt; None, Quận 12&lt;br/&gt;&lt;b&gt;Các tuyến qua trạm:&lt;/b&gt; 04, 104, 13, 145, 27, 41, 65, 94]]></description>
          <styleUrl>#busStopStyle</styleUrl>
          <Point>
            <coordinates>106.624594,10.828627,0</coordinates>
          </Point>
        </Placemark>
        <Placemark>
          <name>[Q12 132] Chùa Lạc Quang</name>
          <description><![CDATA[&lt;b&gt;Trạm:&lt;/b&gt; Chùa Lạc Quang&lt;br/&gt;&lt;b&gt;Mã trạm:&lt;/b&gt; Q12 132&lt;br/&gt;&lt;b&gt;Địa chỉ:&lt;/b&gt; 408 Trường Chinh&lt;br/&gt;&lt;b&gt;Khu vực:&lt;/b&gt; None, Quận 12&lt;br/&gt;&lt;b&gt;Các tuyến qua trạm:&lt;/b&gt; 04, 104, 13, 145, 27, 41, 65, 94]]></description>
          <styleUrl>#busStopStyle</styleUrl>
          <Point>
            <coordinates>106.620614,10.834781,0</coordinates>
          </Point>
        </Placemark>
        <Placemark>
          <name>[Q12 131] Bitis</name>
          <description><![CDATA[&lt;b&gt;Trạm:&lt;/b&gt; Bitis&lt;br/&gt;&lt;b&gt;Mã trạm:&lt;/b&gt; Q12 131&lt;br/&gt;&lt;b&gt;Địa chỉ:&lt;/b&gt; 590 (640) Trường Chinh&lt;br/&gt;&lt;b&gt;Khu vực:&lt;/b&gt; None, Quận 12&lt;br/&gt;&lt;b&gt;Các tuyến qua trạm:&lt;/b&gt; 04, 104, 13, 145, 27, 41, 65, 94]]></description>
          <styleUrl>#busStopStyle</styleUrl>
          <Point>
            <coordinates>106.618398,10.838222,0</coordinates>
          </Point>
        </Placemark>
        <Placemark>
          <name>[Q12 123] Bến xe An Sương</name>
          <description><![CDATA[&lt;b&gt;Trạm:&lt;/b&gt; Bến xe An Sương&lt;br/&gt;&lt;b&gt;Mã trạm:&lt;/b&gt; Q12 123&lt;br/&gt;&lt;b&gt;Địa chỉ:&lt;/b&gt; 142 Quốc lộ 22&lt;br/&gt;&lt;b&gt;Khu vực:&lt;/b&gt; None, Quận 12&lt;br/&gt;&lt;b&gt;Các tuyến qua trạm:&lt;/b&gt; 151, 27, 41, 65, 71]]></description>
          <styleUrl>#busStopStyle</styleUrl>
          <Point>
            <coordinates>106.613361,10.846035,0</coordinates>
          </Point>
        </Placemark>
        <Placemark>
          <name>[HHM 058] Bến xe An Sương</name>
          <description><![CDATA[&lt;b&gt;Trạm:&lt;/b&gt; Bến xe An Sương&lt;br/&gt;&lt;b&gt;Mã trạm:&lt;/b&gt; HHM 058&lt;br/&gt;&lt;b&gt;Địa chỉ:&lt;/b&gt; 1B Quốc lộ 22&lt;br/&gt;&lt;b&gt;Khu vực:&lt;/b&gt; Xã Bà Điểm, Huyện Hóc Môn&lt;br/&gt;&lt;b&gt;Các tuyến qua trạm:&lt;/b&gt; 04, 104, 122, 13, 145, 151, 33, 41, 61-3, 62-5, 65, 71, 74, 85, 94]]></description>
          <styleUrl>#busStopStyle</styleUrl>
          <Point>
            <coordinates>106.613522,10.845187,0</coordinates>
          </Point>
        </Placemark>
        <Placemark>
          <name>[BX41] Bến xe An Sương</name>
          <description><![CDATA[&lt;b&gt;Trạm:&lt;/b&gt; Bến xe An Sương&lt;br/&gt;&lt;b&gt;Mã trạm:&lt;/b&gt; BX41&lt;br/&gt;&lt;b&gt;Địa chỉ:&lt;/b&gt; Bến xe An Sương Quốc lộ 22&lt;br/&gt;&lt;b&gt;Khu vực:&lt;/b&gt; None, Quận 12&lt;br/&gt;&lt;b&gt;Các tuyến qua trạm:&lt;/b&gt; 04, 104, 122, 151, 27, 33, 41, 61-3, 62-5, 65, 71, 74, 85]]></description>
          <styleUrl>#busStopStyle</styleUrl>
          <Point>
            <coordinates>106.61337280273438,10.843737602233887,0</coordinates>
          </Point>
        </Placemark>
      </Folder>
    </Folder>
    <Folder>
      <name>Lượt về: Bến xe An Sương → Bến xe buýt Sài Gòn (13.85 km)</name>
      <Placemark>
        <name>B 65 - Đường đi Lượt về</name>
        <description><![CDATA[&lt;b&gt;Tuyến:&lt;/b&gt; B 65 - Bến Thành - Cách Mạng Tháng Tám - Bến xe An Sương&lt;br/&gt;&lt;b&gt;Lượt:&lt;/b&gt; Lượt về&lt;br/&gt;&lt;b&gt;Cự ly:&lt;/b&gt; 13.85 km&lt;br/&gt;&lt;b&gt;Thời gian hành trình:&lt;/b&gt; 70 phút&lt;br/&gt;&lt;b&gt;Thời gian hoạt động:&lt;/b&gt; 4:45 - 20:45]]></description>
        <styleUrl>#routeLineStyle</styleUrl>
        <LineString>
          <tessellate>1</tessellate>
          <coordinates>106.6133728,10.8437376,0 106.61418152,10.84418106,0 106.61500549,10.84297943,0 106.61504364,10.84253693,0 106.61533356,10.8422842,0 106.61598206,10.84128857,0 106.61662292,10.84029198,0 106.61704254,10.83962631,0 106.61746216,10.83895969,0 106.61734772,10.83889103,0 106.61734772,10.83889103,0 106.61734772,10.83889103,0 106.61734772,10.83889103,0 106.61746216,10.83895397,0 106.61816406,10.83785248,0 106.6188736,10.83675194,0 106.61959076,10.83565044,0 106.62030792,10.83454895,0 106.62020874,10.83449745,0 106.62020874,10.83449745,0 106.62030029,10.83453846,0 106.62109375,10.83330059,0 106.62188721,10.83206749,0 106.62179565,10.83201981,0 106.62179565,10.83201981,0 106.62179565,10.83201981,0 106.62188721,10.83207321,0 106.62268829,10.83086681,0 106.62348175,10.82966518,0 106.62510681,10.82725239,0 106.62549591,10.82677746,0 106.62594604,10.8263092,0 106.62586212,10.82623959,0 106.62586212,10.82623959,0 106.62586212,10.82623959,0 106.62586212,10.82623959,0 106.62593842,10.8263092,0 106.62645721,10.82582378,0 106.62697601,10.82535553,0 106.62749481,10.8248806,0 106.62801361,10.82440662,0 106.62871552,10.82374573,0 106.62941742,10.82308388,0 106.62971497,10.82274723,0 106.62992096,10.82235718,0 106.62982178,10.82231522,0 106.62982178,10.82231522,0 106.62982178,10.82231522,0 106.62982178,10.82231522,0 106.62982178,10.82231522,0 106.62991333,10.82234097,0 106.63014984,10.82170868,0 106.63034821,10.82108212,0 106.63059235,10.82026005,0 106.63083649,10.8194437,0 106.63061523,10.81938553,0 106.63061523,10.81938553,0 106.63061523,10.81938553,0 106.63061523,10.81938553,0 106.63083649,10.8194437,0 106.63103485,10.81881905,0 106.63123322,10.81819439,0 106.63143158,10.81757069,0 106.63162994,10.81694603,0 106.63181305,10.81632328,0 106.63200378,10.81570053,0 106.63218689,10.81507778,0 106.63237762,10.81445503,0 106.63237762,10.81445503,0 106.63237762,10.81445503,0 106.63259888,10.81373405,0 106.63282013,10.81301308,0 106.63304138,10.8122921,0 106.633255,10.81157112,0 106.63346863,10.81084919,0 106.63368988,10.81012726,0 106.63394165,10.80940533,0 106.63414001,10.8087101,0 106.63401794,10.80868912,0 106.63401794,10.80868912,0 106.63401794,10.80868912,0 106.63414001,10.80871582,0 106.63453674,10.80748463,0 106.63493346999999,10.80625439,0 106.63477325,10.80621243,0 106.63477325,10.80621243,0 106.63495636,10.80626011,0 106.63519287,10.80554581,0 106.63542938,10.8048315,0 106.63526917,10.80480003,0 106.63526917,10.80480003,0 106.63526917,10.80480003,0 106.63526917,10.80480003,0 106.63540649,10.80484295,0 106.63565826,10.80397797,0 106.63605499,10.80287743,0 106.63665009,10.8018074,0 106.6375351,10.80132294,0 106.63751984,10.80127525,0 106.63751984,10.80127525,0 106.63751984,10.80127525,0 106.63751984,10.80127525,0 106.63751984,10.80127525,0 106.63762665,10.80129623,0 106.63925171,10.80043316,0 106.64086914,10.79957008,0 106.6415863,10.79918957,0 106.64155579,10.79911518,0 106.64155579,10.79911518,0 106.64157104,10.79916191,0 106.64429474,10.79771805,0 106.64426422,10.7976656,0 106.64426422,10.7976656,0 106.64426422,10.7976656,0 106.64430237,10.79772377,0 106.64528656,10.79719925,0 106.64626312,10.79667473,0 106.64621735,10.79660606,0 106.64621735,10.79660606,0 106.64621735,10.79660606,0 106.64621735,10.79660606,0 106.64621735,10.79660606,0 106.64624786,10.79669094,0 106.64778137,10.79586887,0 106.64931488,10.79504681,0 106.64926147,10.79497814,0 106.64926147,10.79497814,0 106.64926147,10.79497814,0 106.64926147,10.79497814,0 106.64926147,10.79497814,0 106.64932251,10.79504681,0 106.65037537,10.79448318,0 106.65142059,10.79391861,0 106.65136719,10.79385567,0 106.65136719,10.79385567,0 106.65136719,10.79385567,0 106.65136719,10.79385567,0 106.65136719,10.79385567,0 106.65136719,10.79385567,0 106.65143585,10.79390335,0 106.65278625,10.79318428,0 106.65413666,10.79246426,0 106.65412903,10.79239082,0 106.65412903,10.79239082,0 106.65412903,10.79239082,0 106.65412903,10.79239082,0 106.65412903,10.79239082,0 106.65419006,10.79243279,0 106.65589142,10.79154205,0 106.65588379,10.7914629,0 106.65588379,10.7914629,0 106.65588379,10.7914629,0 106.65588379,10.7914629,0 106.65588379,10.7914629,0 106.65593719,10.7915163,0 106.65720367,10.7908392,0 106.65847778,10.79016209,0 106.65846252,10.7901144,0 106.65846252,10.7901144,0 106.65846252,10.7901144,0 106.65846252,10.7901144,0 106.65849304,10.79016209,0 106.65955353,10.78959274,0 106.66062164,10.7890234,0 106.66170502,10.78845692,0 106.66278839,10.78789043,0 106.66274261,10.78785038,0 106.66274261,10.78785038,0 106.66277313,10.78788567,0 106.66425323,10.78708935,0 106.6657486,10.78629875,0 106.6672287,10.78550911,0 106.66871643,10.78471851,0 106.66868591,10.78467083,0 106.66868591,10.78467083,0 106.66868591,10.78467083,0 106.66874695,10.78472328,0 106.66973877,10.78419209,0 106.67073059,10.78366184,0 106.67173004,10.78313065,0 106.67272186,10.78259945,0 106.67269897,10.7825346,0 106.67269897,10.7825346,0 106.67269897,10.7825346,0 106.67269897,10.7825346,0 106.67269897,10.7825346,0 106.67269897,10.7825346,0 106.67273712,10.7825737,0 106.67389679,10.7819519,0 106.67505646,10.78133011,0 106.67506409,10.78124046,0 106.67506409,10.78124046,0 106.67506409,10.78124046,0 106.67506409,10.78124046,0 106.67510223,10.78128242,0 106.67584229,10.78090286,0 106.67657471,10.7805233,0 106.67657471,10.78043461,0 106.67657471,10.78043461,0 106.67657471,10.78043461,0 106.67657471,10.78043461,0 106.67657471,10.78043461,0 106.67657471,10.78043461,0 106.67657471,10.78043461,0 106.67660522,10.78049755,0 106.67762756,10.77995014,0 106.67865753,10.77940178,0 106.6796875,10.77885342,0 106.68070984,10.77830505,0 106.68070221,10.77820492,0 106.68070221,10.77820492,0 106.68070221,10.77820492,0 106.68070221,10.77820492,0 106.68074036,10.77826786,0 106.68136597,10.7779417,0 106.68145752,10.77763557,0 106.68171692,10.77750969,0 106.68197632,10.77767754,0 106.68251801,10.77733517,0 106.68245697,10.77721882,0 106.68245697,10.77721882,0 106.68253326,10.77734089,0 106.68439484,10.77630234,0 106.68434143,10.7762022,0 106.68434143,10.7762022,0 106.68439484,10.77629185,0 106.68595886,10.77545929,0 106.68682098,10.77501011,0 106.68724823,10.77476883,0 106.68720245,10.77468967,0 106.68720245,10.77468967,0 106.68720245,10.77468967,0 106.68727112,10.77478027,0 106.68940735,10.77361012,0 106.69154358,10.77243996,0 106.6914978,10.77234459,0 106.6914978,10.77234459,0 106.6914978,10.77234459,0 106.6914978,10.77234459,0 106.69152832,10.77241325,0 106.69313049,10.77151775,0 106.69306946,10.7714386,0 106.6930542,10.77134895,0 106.6930542,10.7712698,0 106.69306946,10.77118587,0 106.69271851,10.77093792,0 106.69268036,10.77097034,0 106.69268036,10.77097034,0 106.69268036,10.77097034,0 106.69268036,10.77097034,0 106.69268036,10.77097034,0 106.69268036,10.77097034,0 106.69271851,10.77094269,0 106.69176483,10.77028179,0 106.69081116,10.76961994,0 106.69078827,10.76964569,0 106.69078827,10.76964569,0 106.69078827,10.76964569,0 106.69078827,10.76964569,0 106.69078827,10.76964569,0 106.69078827,10.76964569,0 106.69078827,10.76964569,0 106.69078827,10.76964569,0 106.69080353,10.76962566,0 106.69022369,10.7692194,0 106.68967438,10.76875591,0 106.68994141,10.76844501,0 106.68914795,10.76812935,0 106.68936157,10.76767635,0 106.68936157,10.76767635,0 106.68936157,10.76767635,0 106.68936157,10.76767635,0</coordinates>
        </LineString>
      </Placemark>
      <Folder>
        <name>Trạm dừng (33 trạm)</name>
        <Placemark>
          <name>[BX41] Bến xe An Sương</name>
          <description><![CDATA[&lt;b&gt;Trạm:&lt;/b&gt; Bến xe An Sương&lt;br/&gt;&lt;b&gt;Mã trạm:&lt;/b&gt; BX41&lt;br/&gt;&lt;b&gt;Địa chỉ:&lt;/b&gt; Bến xe An Sương Quốc lộ 22&lt;br/&gt;&lt;b&gt;Khu vực:&lt;/b&gt; None, Quận 12&lt;br/&gt;&lt;b&gt;Các tuyến qua trạm:&lt;/b&gt; 04, 104, 122, 151, 27, 33, 41, 61-3, 62-5, 65, 71, 74, 85]]></description>
          <styleUrl>#busStopStyle</styleUrl>
          <Point>
            <coordinates>106.61337280273438,10.843737602233887,0</coordinates>
          </Point>
        </Placemark>
        <Placemark>
          <name>[Q12 135] Bitis</name>
          <description><![CDATA[&lt;b&gt;Trạm:&lt;/b&gt; Bitis&lt;br/&gt;&lt;b&gt;Mã trạm:&lt;/b&gt; Q12 135&lt;br/&gt;&lt;b&gt;Địa chỉ:&lt;/b&gt; 487 Trường Chinh&lt;br/&gt;&lt;b&gt;Khu vực:&lt;/b&gt; None, Quận 12&lt;br/&gt;&lt;b&gt;Các tuyến qua trạm:&lt;/b&gt; 04, 104, 13, 145, 27, 41, 65, 94]]></description>
          <styleUrl>#busStopStyle</styleUrl>
          <Point>
            <coordinates>106.617347,10.838891,0</coordinates>
          </Point>
        </Placemark>
        <Placemark>
          <name>[Q12 136] Chùa Lạc Quang</name>
          <description><![CDATA[&lt;b&gt;Trạm:&lt;/b&gt; Chùa Lạc Quang&lt;br/&gt;&lt;b&gt;Mã trạm:&lt;/b&gt; Q12 136&lt;br/&gt;&lt;b&gt;Địa chỉ:&lt;/b&gt; 257 Trường Chinh&lt;br/&gt;&lt;b&gt;Khu vực:&lt;/b&gt; None, Quận 12&lt;br/&gt;&lt;b&gt;Các tuyến qua trạm:&lt;/b&gt; 04, 104, 13, 145, 27, 41, 65, 94]]></description>
          <styleUrl>#busStopStyle</styleUrl>
          <Point>
            <coordinates>106.620212,10.834497,0</coordinates>
          </Point>
        </Placemark>
        <Placemark>
          <name>[Q12 137] Chùa Vĩnh Phước</name>
          <description><![CDATA[&lt;b&gt;Trạm:&lt;/b&gt; Chùa Vĩnh Phước&lt;br/&gt;&lt;b&gt;Mã trạm:&lt;/b&gt; Q12 137&lt;br/&gt;&lt;b&gt;Địa chỉ:&lt;/b&gt; Chùa Vĩnh Phước Trường Chinh&lt;br/&gt;&lt;b&gt;Khu vực:&lt;/b&gt; None, Quận 12&lt;br/&gt;&lt;b&gt;Các tuyến qua trạm:&lt;/b&gt; 04, 104, 13, 145, 27, 41, 65, 94]]></description>
          <styleUrl>#busStopStyle</styleUrl>
          <Point>
            <coordinates>106.621794,10.83202,0</coordinates>
          </Point>
        </Placemark>
        <Placemark>
          <name>[Q12 139] Cầu Tham Lương - Siêu thị Thiên Hòa</name>
          <description><![CDATA[&lt;b&gt;Trạm:&lt;/b&gt; Cầu Tham Lương - Siêu thị Thiên Hòa&lt;br/&gt;&lt;b&gt;Mã trạm:&lt;/b&gt; Q12 139&lt;br/&gt;&lt;b&gt;Địa chỉ:&lt;/b&gt; 21 (Kế 2/6B) Trường Chinh&lt;br/&gt;&lt;b&gt;Khu vực:&lt;/b&gt; None, Quận 12&lt;br/&gt;&lt;b&gt;Các tuyến qua trạm:&lt;/b&gt; 04, 104, 13, 145, 23, 27, 41, 62, 65, 94]]></description>
          <styleUrl>#busStopStyle</styleUrl>
          <Point>
            <coordinates>106.62586,10.82624,0</coordinates>
          </Point>
        </Placemark>
        <Placemark>
          <name>[QTP 010] Trạm Dệt Thành Công</name>
          <description><![CDATA[&lt;b&gt;Trạm:&lt;/b&gt; Trạm Dệt Thành Công&lt;br/&gt;&lt;b&gt;Mã trạm:&lt;/b&gt; QTP 010&lt;br/&gt;&lt;b&gt;Địa chỉ:&lt;/b&gt; 8 Trường Chinh&lt;br/&gt;&lt;b&gt;Khu vực:&lt;/b&gt; Phường Tây Thạnh, Quận Tân Phú&lt;br/&gt;&lt;b&gt;Các tuyến qua trạm:&lt;/b&gt; 04, 104, 13, 145, 23, 27, 32, 41, 62, 65, 94]]></description>
          <styleUrl>#busStopStyle</styleUrl>
          <Point>
            <coordinates>106.629825,10.822315,0</coordinates>
          </Point>
        </Placemark>
        <Placemark>
          <name>[QTP 011] Trạm KCN Tân Bình</name>
          <description><![CDATA[&lt;b&gt;Trạm:&lt;/b&gt; Trạm KCN Tân Bình&lt;br/&gt;&lt;b&gt;Mã trạm:&lt;/b&gt; QTP 011&lt;br/&gt;&lt;b&gt;Địa chỉ:&lt;/b&gt; 881 Trường Chinh&lt;br/&gt;&lt;b&gt;Khu vực:&lt;/b&gt; Phường Tây Thạnh, Quận Tân Phú&lt;br/&gt;&lt;b&gt;Các tuyến qua trạm:&lt;/b&gt; 04, 104, 13, 145, 23, 27, 28, 62, 65, 94]]></description>
          <styleUrl>#busStopStyle</styleUrl>
          <Point>
            <coordinates>106.630615,10.819386,0</coordinates>
          </Point>
        </Placemark>
        <Placemark>
          <name>[QTP 012] Ngã 3 Chế Lan Viên</name>
          <description><![CDATA[&lt;b&gt;Trạm:&lt;/b&gt; Ngã 3 Chế Lan Viên&lt;br/&gt;&lt;b&gt;Mã trạm:&lt;/b&gt; QTP 012&lt;br/&gt;&lt;b&gt;Địa chỉ:&lt;/b&gt; 831 (trước showroom o tô) Trường Chinh&lt;br/&gt;&lt;b&gt;Khu vực:&lt;/b&gt; Phường Tây Thạnh, Quận Tân Phú&lt;br/&gt;&lt;b&gt;Các tuyến qua trạm:&lt;/b&gt; 04, 104, 13, 145, 23, 27, 28, 62, 65, 94]]></description>
          <styleUrl>#busStopStyle</styleUrl>
          <Point>
            <coordinates>106.632377,10.814455,0</coordinates>
          </Point>
        </Placemark>
        <Placemark>
          <name>[QTP 014] Trạm Đài Liệt Sỹ</name>
          <description><![CDATA[&lt;b&gt;Trạm:&lt;/b&gt; Trạm Đài Liệt Sỹ&lt;br/&gt;&lt;b&gt;Mã trạm:&lt;/b&gt; QTP 014&lt;br/&gt;&lt;b&gt;Địa chỉ:&lt;/b&gt; 1/3 Trường Chinh&lt;br/&gt;&lt;b&gt;Khu vực:&lt;/b&gt; Phường Tây Thạnh, Quận Tân Phú&lt;br/&gt;&lt;b&gt;Các tuyến qua trạm:&lt;/b&gt; 04, 104, 13, 145, 16, 23, 27, 28, 48, 62, 63-1, 65, 94]]></description>
          <styleUrl>#busStopStyle</styleUrl>
          <Point>
            <coordinates>106.634019,10.808689,0</coordinates>
          </Point>
        </Placemark>
        <Placemark>
          <name>[QTP 015] Siêu thị BigC</name>
          <description><![CDATA[&lt;b&gt;Trạm:&lt;/b&gt; Siêu thị BigC&lt;br/&gt;&lt;b&gt;Mã trạm:&lt;/b&gt; QTP 015&lt;br/&gt;&lt;b&gt;Địa chỉ:&lt;/b&gt; 1/1 Trường Chinh&lt;br/&gt;&lt;b&gt;Khu vực:&lt;/b&gt; Phường Tây Thạnh, Quận Tân Phú&lt;br/&gt;&lt;b&gt;Các tuyến qua trạm:&lt;/b&gt; 13, 23, 27, 48, 62, 65, 94]]></description>
          <styleUrl>#busStopStyle</styleUrl>
          <Point>
            <coordinates>106.634773,10.806212,0</coordinates>
          </Point>
        </Placemark>
        <Placemark>
          <name>[QTP 016] Trạm Tân Kỳ Tân Quý</name>
          <description><![CDATA[&lt;b&gt;Trạm:&lt;/b&gt; Trạm Tân Kỳ Tân Quý&lt;br/&gt;&lt;b&gt;Mã trạm:&lt;/b&gt; QTP 016&lt;br/&gt;&lt;b&gt;Địa chỉ:&lt;/b&gt; 33/24 (659-661) Trường Chinh&lt;br/&gt;&lt;b&gt;Khu vực:&lt;/b&gt; Phường Tây Thạnh, Quận Tân Phú&lt;br/&gt;&lt;b&gt;Các tuyến qua trạm:&lt;/b&gt; 13, 23, 27, 62, 65, 94]]></description>
          <styleUrl>#busStopStyle</styleUrl>
          <Point>
            <coordinates>106.635269,10.8048,0</coordinates>
          </Point>
        </Placemark>
        <Placemark>
          <name>[QTB 080] Chợ Võ Thành Trang</name>
          <description><![CDATA[&lt;b&gt;Trạm:&lt;/b&gt; Chợ Võ Thành Trang&lt;br/&gt;&lt;b&gt;Mã trạm:&lt;/b&gt; QTB 080&lt;br/&gt;&lt;b&gt;Địa chỉ:&lt;/b&gt; 541 Trường Chinh&lt;br/&gt;&lt;b&gt;Khu vực:&lt;/b&gt; None, Quận Tân Bình&lt;br/&gt;&lt;b&gt;Các tuyến qua trạm:&lt;/b&gt; 13, 23, 65, 94]]></description>
          <styleUrl>#busStopStyle</styleUrl>
          <Point>
            <coordinates>106.637517,10.801275,0</coordinates>
          </Point>
        </Placemark>
        <Placemark>
          <name>[QTB 081] Ngã ba Trương Công Định</name>
          <description><![CDATA[&lt;b&gt;Trạm:&lt;/b&gt; Ngã ba Trương Công Định&lt;br/&gt;&lt;b&gt;Mã trạm:&lt;/b&gt; QTB 081&lt;br/&gt;&lt;b&gt;Địa chỉ:&lt;/b&gt; 403 Trường Chinh&lt;br/&gt;&lt;b&gt;Khu vực:&lt;/b&gt; None, Quận Tân Bình&lt;br/&gt;&lt;b&gt;Các tuyến qua trạm:&lt;/b&gt; 13, 23, 65, 94]]></description>
          <styleUrl>#busStopStyle</styleUrl>
          <Point>
            <coordinates>106.641557,10.799115,0</coordinates>
          </Point>
        </Placemark>
        <Placemark>
          <name>[QTB 082] Ngã ba Hồng Đào</name>
          <description><![CDATA[&lt;b&gt;Trạm:&lt;/b&gt; Ngã ba Hồng Đào&lt;br/&gt;&lt;b&gt;Mã trạm:&lt;/b&gt; QTB 082&lt;br/&gt;&lt;b&gt;Địa chỉ:&lt;/b&gt; 351 Trường Chinh&lt;br/&gt;&lt;b&gt;Khu vực:&lt;/b&gt; None, Quận Tân Bình&lt;br/&gt;&lt;b&gt;Các tuyến qua trạm:&lt;/b&gt; 13, 30, 64, 65, 94]]></description>
          <styleUrl>#busStopStyle</styleUrl>
          <Point>
            <coordinates>106.644266,10.797666,0</coordinates>
          </Point>
        </Placemark>
        <Placemark>
          <name>[QTB 083] Ngã ba Hoàng Hoa Thám</name>
          <description><![CDATA[&lt;b&gt;Trạm:&lt;/b&gt; Ngã ba Hoàng Hoa Thám&lt;br/&gt;&lt;b&gt;Mã trạm:&lt;/b&gt; QTB 083&lt;br/&gt;&lt;b&gt;Địa chỉ:&lt;/b&gt; 233 Trường Chinh&lt;br/&gt;&lt;b&gt;Khu vực:&lt;/b&gt; None, Quận Tân Bình&lt;br/&gt;&lt;b&gt;Các tuyến qua trạm:&lt;/b&gt; 13, 30, 64, 65, 94]]></description>
          <styleUrl>#busStopStyle</styleUrl>
          <Point>
            <coordinates>106.646218,10.796606,0</coordinates>
          </Point>
        </Placemark>
        <Placemark>
          <name>[QTB 084] Nhà thờ Đắc Lộ</name>
          <description><![CDATA[&lt;b&gt;Trạm:&lt;/b&gt; Nhà thờ Đắc Lộ&lt;br/&gt;&lt;b&gt;Mã trạm:&lt;/b&gt; QTB 084&lt;br/&gt;&lt;b&gt;Địa chỉ:&lt;/b&gt; 97 (đối diện 160B) Trường Chinh&lt;br/&gt;&lt;b&gt;Khu vực:&lt;/b&gt; None, Quận Tân Bình&lt;br/&gt;&lt;b&gt;Các tuyến qua trạm:&lt;/b&gt; 13, 30, 64, 65, 94]]></description>
          <styleUrl>#busStopStyle</styleUrl>
          <Point>
            <coordinates>106.64926,10.794978,0</coordinates>
          </Point>
        </Placemark>
        <Placemark>
          <name>[QTB 085] Ngã tư Bảy Hiền</name>
          <description><![CDATA[&lt;b&gt;Trạm:&lt;/b&gt; Ngã tư Bảy Hiền&lt;br/&gt;&lt;b&gt;Mã trạm:&lt;/b&gt; QTB 085&lt;br/&gt;&lt;b&gt;Địa chỉ:&lt;/b&gt; 67 Trường Chinh&lt;br/&gt;&lt;b&gt;Khu vực:&lt;/b&gt; None, Quận Tân Bình&lt;br/&gt;&lt;b&gt;Các tuyến qua trạm:&lt;/b&gt; 13, 30, 64, 65, 94]]></description>
          <styleUrl>#busStopStyle</styleUrl>
          <Point>
            <coordinates>106.651368,10.793856,0</coordinates>
          </Point>
        </Placemark>
        <Placemark>
          <name>[QTB 059] Bệnh viện Thống Nhất</name>
          <description><![CDATA[&lt;b&gt;Trạm:&lt;/b&gt; Bệnh viện Thống Nhất&lt;br/&gt;&lt;b&gt;Mã trạm:&lt;/b&gt; QTB 059&lt;br/&gt;&lt;b&gt;Địa chỉ:&lt;/b&gt; 1125 (đối diện 544) Cách Mạng Tháng Tám&lt;br/&gt;&lt;b&gt;Khu vực:&lt;/b&gt; None, Quận Tân Bình&lt;br/&gt;&lt;b&gt;Các tuyến qua trạm:&lt;/b&gt; 103, 13, 30, 65]]></description>
          <styleUrl>#busStopStyle</styleUrl>
          <Point>
            <coordinates>106.654131,10.792391,0</coordinates>
          </Point>
        </Placemark>
        <Placemark>
          <name>[QTB 060] Y tế Phường 4</name>
          <description><![CDATA[&lt;b&gt;Trạm:&lt;/b&gt; Y tế Phường 4&lt;br/&gt;&lt;b&gt;Mã trạm:&lt;/b&gt; QTB 060&lt;br/&gt;&lt;b&gt;Địa chỉ:&lt;/b&gt; 1057 Cách Mạng Tháng Tám&lt;br/&gt;&lt;b&gt;Khu vực:&lt;/b&gt; None, Quận Tân Bình&lt;br/&gt;&lt;b&gt;Các tuyến qua trạm:&lt;/b&gt; 103, 13, 30, 65]]></description>
          <styleUrl>#busStopStyle</styleUrl>
          <Point>
            <coordinates>106.655885,10.791463,0</coordinates>
          </Point>
        </Placemark>
        <Placemark>
          <name>[QTB 061] Hồ Bơi Cộng Hòa</name>
          <description><![CDATA[&lt;b&gt;Trạm:&lt;/b&gt; Hồ Bơi Cộng Hòa&lt;br/&gt;&lt;b&gt;Mã trạm:&lt;/b&gt; QTB 061&lt;br/&gt;&lt;b&gt;Địa chỉ:&lt;/b&gt; 1003 Cách Mạng Tháng Tám&lt;br/&gt;&lt;b&gt;Khu vực:&lt;/b&gt; None, Quận Tân Bình&lt;br/&gt;&lt;b&gt;Các tuyến qua trạm:&lt;/b&gt; 103, 13, 30, 65]]></description>
          <styleUrl>#busStopStyle</styleUrl>
          <Point>
            <coordinates>106.65846,10.790114,0</coordinates>
          </Point>
        </Placemark>
        <Placemark>
          <name>[QTB 063] Ngã ba Bành Văn Trân</name>
          <description><![CDATA[&lt;b&gt;Trạm:&lt;/b&gt; Ngã ba Bành Văn Trân&lt;br/&gt;&lt;b&gt;Mã trạm:&lt;/b&gt; QTB 063&lt;br/&gt;&lt;b&gt;Địa chỉ:&lt;/b&gt; 755-757 (771) Cách Mạng Tháng Tám&lt;br/&gt;&lt;b&gt;Khu vực:&lt;/b&gt; None, Quận Tân Bình&lt;br/&gt;&lt;b&gt;Các tuyến qua trạm:&lt;/b&gt; 103, 13, 30, 65]]></description>
          <styleUrl>#busStopStyle</styleUrl>
          <Point>
            <coordinates>106.66274,10.78785,0</coordinates>
          </Point>
        </Placemark>
        <Placemark>
          <name>[Q10 084] Hội thánh tin lành Hòa Hưng</name>
          <description><![CDATA[&lt;b&gt;Trạm:&lt;/b&gt; Hội thánh tin lành Hòa Hưng&lt;br/&gt;&lt;b&gt;Mã trạm:&lt;/b&gt; Q10 084&lt;br/&gt;&lt;b&gt;Địa chỉ:&lt;/b&gt; 601 Cách Mạng Tháng Tám&lt;br/&gt;&lt;b&gt;Khu vực:&lt;/b&gt; None, Quận 10&lt;br/&gt;&lt;b&gt;Các tuyến qua trạm:&lt;/b&gt; 13, 30, 65]]></description>
          <styleUrl>#busStopStyle</styleUrl>
          <Point>
            <coordinates>106.668684,10.784671,0</coordinates>
          </Point>
        </Placemark>
        <Placemark>
          <name>[Q10 085] Ngã ba Tô Hiến Thành</name>
          <description><![CDATA[&lt;b&gt;Trạm:&lt;/b&gt; Ngã ba Tô Hiến Thành&lt;br/&gt;&lt;b&gt;Mã trạm:&lt;/b&gt; Q10 085&lt;br/&gt;&lt;b&gt;Địa chỉ:&lt;/b&gt; 513 Cách Mạng Tháng Tám&lt;br/&gt;&lt;b&gt;Khu vực:&lt;/b&gt; None, Quận 10&lt;br/&gt;&lt;b&gt;Các tuyến qua trạm:&lt;/b&gt; 13, 30, 65]]></description>
          <styleUrl>#busStopStyle</styleUrl>
          <Point>
            <coordinates>106.672699,10.782535,0</coordinates>
          </Point>
        </Placemark>
        <Placemark>
          <name>[Q10 086] Chùa Bửu Đà</name>
          <description><![CDATA[&lt;b&gt;Trạm:&lt;/b&gt; Chùa Bửu Đà&lt;br/&gt;&lt;b&gt;Mã trạm:&lt;/b&gt; Q10 086&lt;br/&gt;&lt;b&gt;Địa chỉ:&lt;/b&gt; 427 Cách Mạng Tháng Tám&lt;br/&gt;&lt;b&gt;Khu vực:&lt;/b&gt; None, Quận 10&lt;br/&gt;&lt;b&gt;Các tuyến qua trạm:&lt;/b&gt; 13, 30, 65]]></description>
          <styleUrl>#busStopStyle</styleUrl>
          <Point>
            <coordinates>106.675063,10.78124,0</coordinates>
          </Point>
        </Placemark>
        <Placemark>
          <name>[Q10 087]  Ngã ba Hòa Hưng</name>
          <description><![CDATA[&lt;b&gt;Trạm:&lt;/b&gt;  Ngã ba Hòa Hưng&lt;br/&gt;&lt;b&gt;Mã trạm:&lt;/b&gt; Q10 087&lt;br/&gt;&lt;b&gt;Địa chỉ:&lt;/b&gt; 385 Cách Mạng Tháng Tám&lt;br/&gt;&lt;b&gt;Khu vực:&lt;/b&gt; None, Quận 10&lt;br/&gt;&lt;b&gt;Các tuyến qua trạm:&lt;/b&gt; 13, 30, 65]]></description>
          <styleUrl>#busStopStyle</styleUrl>
          <Point>
            <coordinates>106.676575,10.780435,0</coordinates>
          </Point>
        </Placemark>
        <Placemark>
          <name>[Q10 088] Công trường Dân Chủ</name>
          <description><![CDATA[&lt;b&gt;Trạm:&lt;/b&gt; Công trường Dân Chủ&lt;br/&gt;&lt;b&gt;Mã trạm:&lt;/b&gt; Q10 088&lt;br/&gt;&lt;b&gt;Địa chỉ:&lt;/b&gt; Đối diện 132A Cách Mạng Tháng Tám&lt;br/&gt;&lt;b&gt;Khu vực:&lt;/b&gt; None, Quận 10&lt;br/&gt;&lt;b&gt;Các tuyến qua trạm:&lt;/b&gt; 13, 30, 65]]></description>
          <styleUrl>#busStopStyle</styleUrl>
          <Point>
            <coordinates>106.680706,10.778205,0</coordinates>
          </Point>
        </Placemark>
        <Placemark>
          <name>[Q3 015] Công an Quận 3</name>
          <description><![CDATA[&lt;b&gt;Trạm:&lt;/b&gt; Công an Quận 3&lt;br/&gt;&lt;b&gt;Mã trạm:&lt;/b&gt; Q3 015&lt;br/&gt;&lt;b&gt;Địa chỉ:&lt;/b&gt; 243 Cách Mạng Tháng Tám&lt;br/&gt;&lt;b&gt;Khu vực:&lt;/b&gt; None, Quận 3&lt;br/&gt;&lt;b&gt;Các tuyến qua trạm:&lt;/b&gt; 13, 30, 65]]></description>
          <styleUrl>#busStopStyle</styleUrl>
          <Point>
            <coordinates>106.68246,10.777219,0</coordinates>
          </Point>
        </Placemark>
        <Placemark>
          <name>[Q3 016] Bệnh viện Mắt - Bình Dân - Da Liễu</name>
          <description><![CDATA[&lt;b&gt;Trạm:&lt;/b&gt; Bệnh viện Mắt - Bình Dân - Da Liễu&lt;br/&gt;&lt;b&gt;Mã trạm:&lt;/b&gt; Q3 016&lt;br/&gt;&lt;b&gt;Địa chỉ:&lt;/b&gt; 205 Cách Mạng Tháng Tám&lt;br/&gt;&lt;b&gt;Khu vực:&lt;/b&gt; None, Quận 3&lt;br/&gt;&lt;b&gt;Các tuyến qua trạm:&lt;/b&gt; 13, 65]]></description>
          <styleUrl>#busStopStyle</styleUrl>
          <Point>
            <coordinates>106.684338,10.776202,0</coordinates>
          </Point>
        </Placemark>
        <Placemark>
          <name>[Q3 017] Võ Văn Tần</name>
          <description><![CDATA[&lt;b&gt;Trạm:&lt;/b&gt; Võ Văn Tần&lt;br/&gt;&lt;b&gt;Mã trạm:&lt;/b&gt; Q3 017&lt;br/&gt;&lt;b&gt;Địa chỉ:&lt;/b&gt; 179C Cách Mạng Tháng Tám&lt;br/&gt;&lt;b&gt;Khu vực:&lt;/b&gt; None, Quận 3&lt;br/&gt;&lt;b&gt;Các tuyến qua trạm:&lt;/b&gt; 13, 28, 65]]></description>
          <styleUrl>#busStopStyle</styleUrl>
          <Point>
            <coordinates>106.687202,10.77469,0</coordinates>
          </Point>
        </Placemark>
        <Placemark>
          <name>[Q1 004] Trống Đồng</name>
          <description><![CDATA[&lt;b&gt;Trạm:&lt;/b&gt; Trống Đồng&lt;br/&gt;&lt;b&gt;Mã trạm:&lt;/b&gt; Q1 004&lt;br/&gt;&lt;b&gt;Địa chỉ:&lt;/b&gt; 85 Cách Mạng Tháng Tám&lt;br/&gt;&lt;b&gt;Khu vực:&lt;/b&gt; None, Quận 1&lt;br/&gt;&lt;b&gt;Các tuyến qua trạm:&lt;/b&gt; 13, 28, 38, 65, 69]]></description>
          <styleUrl>#busStopStyle</styleUrl>
          <Point>
            <coordinates>106.691499,10.772345,0</coordinates>
          </Point>
        </Placemark>
        <Placemark>
          <name>[Q1 145] Nguyễn Trãi</name>
          <description><![CDATA[&lt;b&gt;Trạm:&lt;/b&gt; Nguyễn Trãi&lt;br/&gt;&lt;b&gt;Mã trạm:&lt;/b&gt; Q1 145&lt;br/&gt;&lt;b&gt;Địa chỉ:&lt;/b&gt; 22 Nguyễn Trãi&lt;br/&gt;&lt;b&gt;Khu vực:&lt;/b&gt; Phường Bến Thành, Quận 1&lt;br/&gt;&lt;b&gt;Các tuyến qua trạm:&lt;/b&gt; 28, 46, 65]]></description>
          <styleUrl>#busStopStyle</styleUrl>
          <Point>
            <coordinates>106.69268,10.77097,0</coordinates>
          </Point>
        </Placemark>
        <Placemark>
          <name>[Q1 146] Tôn Thất Tùng</name>
          <description><![CDATA[&lt;b&gt;Trạm:&lt;/b&gt; Tôn Thất Tùng&lt;br/&gt;&lt;b&gt;Mã trạm:&lt;/b&gt; Q1 146&lt;br/&gt;&lt;b&gt;Địa chỉ:&lt;/b&gt; 136 Nguyễn Trãi&lt;br/&gt;&lt;b&gt;Khu vực:&lt;/b&gt; Phường Bến Thành, Quận 1&lt;br/&gt;&lt;b&gt;Các tuyến qua trạm:&lt;/b&gt; 28, 46, 65]]></description>
          <styleUrl>#busStopStyle</styleUrl>
          <Point>
            <coordinates>106.690788,10.769646,0</coordinates>
          </Point>
        </Placemark>
        <Placemark>
          <name>[BX 01] Bến xe buýt Sài Gòn</name>
          <description><![CDATA[&lt;b&gt;Trạm:&lt;/b&gt; Bến xe buýt Sài Gòn&lt;br/&gt;&lt;b&gt;Mã trạm:&lt;/b&gt; BX 01&lt;br/&gt;&lt;b&gt;Địa chỉ:&lt;/b&gt; BẾN XE BUÝT SÀI GÒN Lê Lai&lt;br/&gt;&lt;b&gt;Khu vực:&lt;/b&gt; Phường Phạm Ngũ Lão, Quận 1&lt;br/&gt;&lt;b&gt;Các tuyến qua trạm:&lt;/b&gt; 03, 04, 102, 109, 13, 140, 171, 172, 18, 19, 20, 27, 28, 34, 36, 39, 52, 65, 69, 72, 75, 86, 88, 93, D4, DL01, DL02, DL03, DL04, DL05, DL06]]></description>
          <styleUrl>#busStopStyle</styleUrl>
          <Point>
            <coordinates>106.689362,10.767676,0</coordinates>
          </Point>
        </Placemark>
      </Folder>
    </Folder>
  </Document>
</kml>