<?xml version="1.0" encoding="UTF-8"?>
<kml xmlns="http://www.opengis.net/kml/2.2">
  <Document>
    <name>B 70-2 - Bến xe Củ Chi - Tòa Thánh - Khu du lịch Núi Bà Đen</name>
    <description>Lộ trình tuyến xe buýt B 70-2 (2:55 - 19:00)</description>
    <Style id="routeLineStyle">
      <LineStyle>
        <color>e61E51F4</color>
        <width>4</width>
      </LineStyle>
    </Style>
    <Style id="busStopStyle">
      <IconStyle>
        <scale>0.8</scale>
        <Icon>
          <href>http://maps.google.com/mapfiles/kml/shapes/bus.png</href>
        </Icon>
      </IconStyle>
    </Style>
    <Folder>
      <name>Lượt đi: Bến xe Củ Chi → Khu du lịch Núi Bà Đen (69.71 km)</name>
      <Placemark>
        <name>B 70-2 - Đường đi Lượt đi</name>
        <description><![CDATA[&lt;b&gt;Tuyến:&lt;/b&gt; B 70-2 - Bến xe Củ Chi - Tòa Thánh - Khu du lịch Núi Bà Đen&lt;br/&gt;&lt;b&gt;Lượt:&lt;/b&gt; Lượt đi&lt;br/&gt;&lt;b&gt;Cự ly:&lt;/b&gt; 69.71 km&lt;br/&gt;&lt;b&gt;Thời gian hành trình:&lt;/b&gt; 105 phút&lt;br/&gt;&lt;b&gt;Thời gian hoạt động:&lt;/b&gt; 2:55 - 19:00]]></description>
        <styleUrl>#routeLineStyle</styleUrl>
        <LineString>
          <tessellate>1</tessellate>
          <coordinates>106.48210144,10.97161674,0 106.48210144,10.97161674,0 106.48210144,10.97161674,0 106.48210144,10.97161674,0 106.48187256,10.97175407,0 106.4832077,10.97370815,0 106.48303986,10.97380257,0 106.48154449,10.97150612,0 106.48094177,10.97202015,0 106.48064423,10.97227573,0 106.48030853,10.9724865,0 106.48034668,10.97253323,0 106.48034668,10.97253323,0 106.48034668,10.97253323,0 106.48034668,10.97253323,0 106.48034668,10.97253323,0 106.48031616,10.97248077,0 106.47977448,10.97278118,0 106.47917938,10.97306538,0 106.47802734,10.97359753,0 106.47686768,10.97415066,0 106.47570801,10.97469234,0 106.47573853,10.97475624,0 106.47573853,10.97475624,0 106.47572327,10.97468758,0 106.47505951,10.97502708,0 106.47438812,10.97536659,0 106.47373962,10.97572708,0 106.47309875,10.97608852,0 106.47312927,10.97613335,0 106.47312927,10.97613335,0 106.47310638,10.9760828,0 106.47216797,10.97659397,0 106.47125244,10.97710991,0 106.47033691,10.9776001,0 106.46942139,10.97811604,0 106.4694519,10.97817898,0 106.4694519,10.97817898,0 106.4694519,10.97817898,0 106.46940613,10.97810555,0 106.46873474,10.97847557,0 106.46807098,10.9788456,0 106.4673996,10.97921467,0 106.46672821,10.97958469,0 106.4661026,10.97994137,0 106.46547699,10.980299,0 106.46485901,10.98065567,0 106.4642334,10.98101711,0 106.46430206,10.98113346,0 106.46430206,10.98113346,0 106.46430206,10.98113346,0 106.46430206,10.98113346,0 106.46421814,10.98101234,0 106.46342468,10.98147869,0 106.46263885,10.98194408,0 106.46189117,10.98244476,0 106.46114349,10.98294449,0 106.46123505,10.98305035,0 106.46123505,10.98305035,0 106.46123505,10.98305035,0 106.46116638,10.98295498,0 106.46046448,10.98340797,0 106.4597702,10.98386097,0 106.45907593,10.9843111,0 106.45837402,10.98476124,0 106.4584198,10.98480892,0 106.4584198,10.98480892,0 106.4584198,10.98480892,0 106.45839691,10.98475075,0 106.45732117,10.98546505,0 106.45624542,10.9861784,0 106.45517731,10.9868679,0 106.45411682,10.98755836,0 106.45295715,10.98830032,0 106.45191193,10.9890852,0 106.4513092,10.98966408,0 106.45136261,10.98970699,0 106.45136261,10.98970699,0 106.4513092,10.98967457,0 106.45104218,10.98997879,0 106.45076752,10.99028301,0 106.45050049,10.99058723,0 106.45022583,10.99089146,0 106.44994354,10.99120426,0 106.44965363,10.99151707,0 106.44937134,10.99182987,0 106.44908142,10.99214172,0 106.44879913,10.99245453,0 106.44850922,10.99276733,0 106.44822693,10.99308014,0 106.44793701,10.99339294,0 106.44799042,10.99342442,0 106.44799042,10.99342442,0 106.44799042,10.99342442,0 106.44792938,10.99337673,0 106.44755554,10.99379253,0 106.4471817,10.99420929,0 106.44680786,10.99462509,0 106.44643402,10.99504089,0 106.44606018,10.9954567,0 106.44569397,10.99587345,0 106.44532013,10.99628925,0 106.44494629,10.99670506,0 106.44506073,10.99678898,0 106.44506073,10.99678898,0 106.44494629,10.99669933,0 106.44412994,10.99761105,0 106.44329071,10.9985323,0 106.44238281,10.99943256,0 106.44187164,10.99982262,0 106.44133759,11.00016499,0 106.43898773,11.0014286,0 106.43782043,11.00205517,0 106.43666077,11.00268173,0 106.43667603,11.00271893,0 106.43667603,11.00271893,0 106.43666077,11.00266647,0 106.4355545,11.00326061,0 106.4344635,11.00375557,0 106.43319702,11.00415325,0 106.4319458,11.00456142,0 106.43196869,11.00463009,0 106.43196869,11.00463009,0 106.43196869,11.00463009,0 106.43196869,11.00463009,0 106.4319458,11.00455666,0 106.43119812,11.00477505,0 106.43045807,11.00499344,0 106.42972565,11.00524902,0 106.42899323,11.00550461,0 106.42814636,11.00576687,0 106.42814636,11.00576687,0 106.42814636,11.00576687,0 106.42814636,11.00576687,0 106.42444611,11.00692558,0 106.42073822,11.0080843,0 106.41842651,11.00883198,0 106.41714478,11.00956917,0 106.41582489,11.01074123,0 106.41451263,11.01191235,0 106.41323853,11.01303387,0 106.41194153,11.01387691,0 106.40834808,11.01555157,0 106.40500641,11.01709938,0 106.40166473,11.01864719,0 106.39830017,11.02021122,0 106.39493561,11.02177525,0 106.39157104,11.02333927,0 106.38821411,11.02490234,0 106.38610077,11.02569294,0 106.38066101,11.02693558,0 106.37506104,11.02823067,0 106.37315369,11.02904606,0 106.36899567,11.03107357,0 106.36463165,11.03299046,0 106.3633728,11.03391647,0 106.36210632,11.03547573,0 106.35983276,11.03822422,0 106.35866547,11.03973007,0 106.35762024,11.04122543,0 106.35566711,11.04425812,0 106.35375214,11.04730606,0 106.35183716,11.05035496,0 106.34993744,11.05330944,0 106.34803009,11.05626488,0 106.34613037,11.05921936,0 106.34422302,11.06217384,0 106.3422699,11.06511211,0 106.34030914,11.06804943,0 106.33831787,11.07096863,0 106.3363266,11.07388783,0 106.33579254,11.07472515,0 106.33538055,11.07557774,0 106.33457184,11.07727337,0 106.33377075,11.07896328,0 106.33297729,11.08066368,0 106.33219147,11.08236122,0 106.33140564,11.08405876,0 106.33059692,11.0857563,0 106.32979584,11.0874548,0 106.32813263,11.0909977,0 106.32689667,11.09454536,0 106.3267746,11.09814644,0 106.32666016,11.10175705,0 106.32653046,11.1053791,0 106.32640076,11.10900021,0 106.32624054,11.11263752,0 106.32608032,11.11627483,0 106.32597351,11.11719608,0 106.32559204,11.11808014,0 106.32476044,11.11967564,0 106.32388306,11.12134171,0 106.32301331,11.12300682,0 106.32215118,11.12466431,0 106.32128143,11.12632084,0 106.32041931,11.12797737,0 106.31955719,11.1296339,0 106.31855011,11.13152885,0 106.31754303,11.13342381,0 106.31690979,11.13427639,0 106.31598663,11.13488674,0 106.31482697,11.13545513,0 106.31403351,11.13618183,0 106.31297302,11.13794518,0 106.31192017,11.13970852,0 106.31072998,11.14143467,0 106.30941772,11.14315033,0 106.30899048,11.14406681,0 106.30880737,11.14496613,0 106.30877686,11.14675617,0 106.30875397,11.14851856,0 106.30865479,11.15028763,0 106.30849457,11.15207195,0 106.30833435,11.15385628,0 106.30818176,11.15563965,0 106.30802155,11.15742397,0 106.3080368,11.15796089,0 106.30809784,11.15850353,0 106.30827332,11.15955544,0 106.30848694,11.16060352,0 106.30879974,11.16162968,0 106.30912018,11.16263676,0 106.30944061,11.16364479,0 106.30982971,11.16459751,0 106.31027222,11.165555,0 106.31069946,11.16649246,0 106.3110733,11.16745567,0 106.31143951,11.16842365,0 106.3117981,11.16939163,0 106.31221771,11.17033958,0 106.31263733,11.17128658,0 106.31292725,11.17229176,0 106.31308746,11.17334938,0 106.31323242,11.17427063,0 106.31328583,11.1751709,0 106.31295013,11.17560768,0 106.31255341,11.17602348,0 106.31170654,11.17687607,0 106.31032562,11.17831802,0 106.3089447,11.17975998,0 106.30757141,11.18120193,0 106.30619812,11.18264389,0 106.30344391,11.18554878,0 106.29853821,11.19069481,0 106.29360962,11.19586277,0 106.28374481,11.20622921,0 106.26387024,11.22682953,0 106.24385834,11.24733448,0 106.2338562,11.25758362,0 106.22880554,11.26269722,0 106.22612762,11.26515961,0 106.22348785,11.26764774,0 106.22213745,11.26898956,0 106.2208252,11.27035713,0 106.21819305,11.27308273,0 106.21281433,11.27846432,0 106.20197296,11.28920174,0 106.18015289,11.31062698,0 106.17880249,11.31196594,0 106.17745209,11.3133049,0 106.17605591,11.31474018,0 106.17555237,11.31546116,0 106.17517853,11.31624985,0 106.1735611,11.31934357,0 106.17276764,11.32090569,0 106.17228699,11.32164192,0 106.17195892,11.3222208,0 106.1717453,11.32233047,0 106.17095184,11.3220787,0 106.16944885,11.32142067,0 106.16701508,11.3203373,0 106.16441345,11.31913853,0 106.16191101,11.31789684,0 106.16040802,11.31707096,0 106.15962219,11.31631374,0 106.15876007,11.31529808,0 106.15761566,11.31444645,0 106.15304565,11.31133175,0 106.1512146,11.30991173,0 106.15044403,11.30933285,0 106.14967346,11.30875492,0 106.14881134,11.30832863,0 106.14632416,11.30704975,0 106.14492798,11.30617142,0 106.14438629,11.30594063,0 106.14376068,11.30580902,0 106.14220428,11.30551434,0 106.14064789,11.30522442,0 106.13942719,11.30526733,0 106.13819885,11.30535126,0 106.13538361,11.30547714,0 106.13478851,11.3055191,0 106.13275146,11.30537701,0 106.13245392,11.30773926,0 106.13219452,11.31011677,0 106.13162231,11.31486702,0 106.13103485,11.31961918,0 106.1307373,11.32199574,0 106.13044739,11.32437134,0 106.12986755,11.32912445,0 106.12928772,11.33387661,0 106.12900543,11.3362484,0 106.128685,11.33862591,0 106.12841797,11.3410511,0 106.1280899,11.34347534,0 106.1394043,11.34872437,0 106.15070343,11.35396862,0 106.15293121,11.35493565,0 106.15509796,11.35594559,0 106.15942383,11.35796547,0 106.16377258,11.35996914,0 106.16597748,11.36099434,0 106.1680603,11.36194706,0 106.16799927,11.36207294,0</coordinates>
        </LineString>
      </Placemark>
      <Folder>
        <name>Trạm dừng (15 trạm)</name>
        <Placemark>
          <name>[BX 63] Bến xe Củ Chi</name>
          <description><![CDATA[&lt;b&gt;Trạm:&lt;/b&gt; Bến xe Củ Chi&lt;br/&gt;&lt;b&gt;Mã trạm:&lt;/b&gt; BX 63&lt;br/&gt;&lt;b&gt;Địa chỉ:&lt;/b&gt; Bến xe Củ Chi Quốc lộ 22&lt;br/&gt;&lt;b&gt;Khu vực:&lt;/b&gt; None, Huyện Củ Chi&lt;br/&gt;&lt;b&gt;Các tuyến qua trạm:&lt;/b&gt; 100, 107, 126, 13, 70-1, 70-2, 74, 79, 87, 94]]></description>
          <styleUrl>#busStopStyle</styleUrl>
          <Point>
            <coordinates>106.482099,10.971617,0</coordinates>
          </Point>
        </Placemark>
        <Placemark>
          <name>[HCC 018] Bến xe Củ Chi</name>
          <description><![CDATA[&lt;b&gt;Trạm:&lt;/b&gt; Bến xe Củ Chi&lt;br/&gt;&lt;b&gt;Mã trạm:&lt;/b&gt; HCC 018&lt;br/&gt;&lt;b&gt;Địa chỉ:&lt;/b&gt; 928 Quốc lộ 22&lt;br/&gt;&lt;b&gt;Khu vực:&lt;/b&gt; None, Huyện Củ Chi&lt;br/&gt;&lt;b&gt;Các tuyến qua trạm:&lt;/b&gt; 100, 107, 70-1, 70-2, 79]]></description>
          <styleUrl>#busStopStyle</styleUrl>
          <Point>
            <coordinates>106.480347,10.972533,0</coordinates>
          </Point>
        </Placemark>
        <Placemark>
          <name>[HCC 019] Bệnh viện Củ Chi</name>
          <description><![CDATA[&lt;b&gt;Trạm:&lt;/b&gt; Bệnh viện Củ Chi&lt;br/&gt;&lt;b&gt;Mã trạm:&lt;/b&gt; HCC 019&lt;br/&gt;&lt;b&gt;Địa chỉ:&lt;/b&gt; 18 Quốc lộ 22&lt;br/&gt;&lt;b&gt;Khu vực:&lt;/b&gt; Thị trấn Củ Chi, Huyện Củ Chi&lt;br/&gt;&lt;b&gt;Các tuyến qua trạm:&lt;/b&gt; 100, 107, 70-1, 70-2, 79]]></description>
          <styleUrl>#busStopStyle</styleUrl>
          <Point>
            <coordinates>106.475742,10.974756,0</coordinates>
          </Point>
        </Placemark>
        <Placemark>
          <name>[HCC 020] Trạm xăng</name>
          <description><![CDATA[&lt;b&gt;Trạm:&lt;/b&gt; Trạm xăng&lt;br/&gt;&lt;b&gt;Mã trạm:&lt;/b&gt; HCC 020&lt;br/&gt;&lt;b&gt;Địa chỉ:&lt;/b&gt; 86 Quốc lộ 22&lt;br/&gt;&lt;b&gt;Khu vực:&lt;/b&gt; None, Huyện Củ Chi&lt;br/&gt;&lt;b&gt;Các tuyến qua trạm:&lt;/b&gt; 100, 107, 70-1, 70-2, 79]]></description>
          <styleUrl>#busStopStyle</styleUrl>
          <Point>
            <coordinates>106.473129,10.976133,0</coordinates>
          </Point>
        </Placemark>
        <Placemark>
          <name>[HCC 021] Công ty phân bón Sinh hóa Củ Chi</name>
          <description><![CDATA[&lt;b&gt;Trạm:&lt;/b&gt; Công ty phân bón Sinh hóa Củ Chi&lt;br/&gt;&lt;b&gt;Mã trạm:&lt;/b&gt; HCC 021&lt;br/&gt;&lt;b&gt;Địa chỉ:&lt;/b&gt; 128 Quốc lộ 22&lt;br/&gt;&lt;b&gt;Khu vực:&lt;/b&gt; None, Huyện Củ Chi&lt;br/&gt;&lt;b&gt;Các tuyến qua trạm:&lt;/b&gt; 100, 107, 70-1, 70-2]]></description>
          <styleUrl>#busStopStyle</styleUrl>
          <Point>
            <coordinates>106.469455,10.978179,0</coordinates>
          </Point>
        </Placemark>
        <Placemark>
          <name>[HCC 297] Ấp Bàu Tre</name>
          <description><![CDATA[&lt;b&gt;Trạm:&lt;/b&gt; Ấp Bàu Tre&lt;br/&gt;&lt;b&gt;Mã trạm:&lt;/b&gt; HCC 297&lt;br/&gt;&lt;b&gt;Địa chỉ:&lt;/b&gt; 246B Quốc lộ 22&lt;br/&gt;&lt;b&gt;Khu vực:&lt;/b&gt; Xã Phước Hiệp, Huyện Củ Chi&lt;br/&gt;&lt;b&gt;Các tuyến qua trạm:&lt;/b&gt; 100, 107, 70-1, 70-2]]></description>
          <styleUrl>#busStopStyle</styleUrl>
          <Point>
            <coordinates>106.4643,10.981133,0</coordinates>
          </Point>
        </Placemark>
        <Placemark>
          <name>[HCC 022] Trạm xăng Phước Hiệp 1</name>
          <description><![CDATA[&lt;b&gt;Trạm:&lt;/b&gt; Trạm xăng Phước Hiệp 1&lt;br/&gt;&lt;b&gt;Mã trạm:&lt;/b&gt; HCC 022&lt;br/&gt;&lt;b&gt;Địa chỉ:&lt;/b&gt; 282 Quốc lộ 22&lt;br/&gt;&lt;b&gt;Khu vực:&lt;/b&gt; None, Huyện Củ Chi&lt;br/&gt;&lt;b&gt;Các tuyến qua trạm:&lt;/b&gt; 100, 107, 70-1, 70-2]]></description>
          <styleUrl>#busStopStyle</styleUrl>
          <Point>
            <coordinates>106.461232,10.98305,0</coordinates>
          </Point>
        </Placemark>
        <Placemark>
          <name>[HCC 344] Đường số 606</name>
          <description><![CDATA[&lt;b&gt;Trạm:&lt;/b&gt; Đường số 606&lt;br/&gt;&lt;b&gt;Mã trạm:&lt;/b&gt; HCC 344&lt;br/&gt;&lt;b&gt;Địa chỉ:&lt;/b&gt; Cạnh đường số 606 Quốc lộ 22&lt;br/&gt;&lt;b&gt;Khu vực:&lt;/b&gt; Xã Tân An Hội, Huyện Củ Chi&lt;br/&gt;&lt;b&gt;Các tuyến qua trạm:&lt;/b&gt; 100, 107, 70-1, 70-2]]></description>
          <styleUrl>#busStopStyle</styleUrl>
          <Point>
            <coordinates>106.458421,10.984809,0</coordinates>
          </Point>
        </Placemark>
        <Placemark>
          <name>[HCC 023] Đối diện UBND xa Phước Hiệp</name>
          <description><![CDATA[&lt;b&gt;Trạm:&lt;/b&gt; Đối diện UBND xa Phước Hiệp&lt;br/&gt;&lt;b&gt;Mã trạm:&lt;/b&gt; HCC 023&lt;br/&gt;&lt;b&gt;Địa chỉ:&lt;/b&gt; Đối diện UBND xa Phước Hiệp (số 438) Quốc lộ 22&lt;br/&gt;&lt;b&gt;Khu vực:&lt;/b&gt; Xã Phước Hiệp, Huyện Củ Chi&lt;br/&gt;&lt;b&gt;Các tuyến qua trạm:&lt;/b&gt; 100, 107, 70-1, 70-2]]></description>
          <styleUrl>#busStopStyle</styleUrl>
          <Point>
            <coordinates>106.451361,10.989707,0</coordinates>
          </Point>
        </Placemark>
        <Placemark>
          <name>[HCC 024] Đối diện Trường Tiểu học Phước Hiệp</name>
          <description><![CDATA[&lt;b&gt;Trạm:&lt;/b&gt; Đối diện Trường Tiểu học Phước Hiệp&lt;br/&gt;&lt;b&gt;Mã trạm:&lt;/b&gt; HCC 024&lt;br/&gt;&lt;b&gt;Địa chỉ:&lt;/b&gt; Đối diện cây xăng 54 (508) Quốc lộ 22&lt;br/&gt;&lt;b&gt;Khu vực:&lt;/b&gt; Xã Phước Hiệp, Huyện Củ Chi&lt;br/&gt;&lt;b&gt;Các tuyến qua trạm:&lt;/b&gt; 100, 107, 70-1, 70-2]]></description>
          <styleUrl>#busStopStyle</styleUrl>
          <Point>
            <coordinates>106.447987,10.993424,0</coordinates>
          </Point>
        </Placemark>
        <Placemark>
          <name>[HCC 025] Cây xăng Phước Thạnh</name>
          <description><![CDATA[&lt;b&gt;Trạm:&lt;/b&gt; Cây xăng Phước Thạnh&lt;br/&gt;&lt;b&gt;Mã trạm:&lt;/b&gt; HCC 025&lt;br/&gt;&lt;b&gt;Địa chỉ:&lt;/b&gt; 576 Quốc lộ 22&lt;br/&gt;&lt;b&gt;Khu vực:&lt;/b&gt; Xã Phước Hiệp, Huyện Củ Chi&lt;br/&gt;&lt;b&gt;Các tuyến qua trạm:&lt;/b&gt; 100, 107, 70-1, 70-2]]></description>
          <styleUrl>#busStopStyle</styleUrl>
          <Point>
            <coordinates>106.445058,10.996789,0</coordinates>
          </Point>
        </Placemark>
        <Placemark>
          <name>[HCC 349] Đường 622</name>
          <description><![CDATA[&lt;b&gt;Trạm:&lt;/b&gt; Đường 622&lt;br/&gt;&lt;b&gt;Mã trạm:&lt;/b&gt; HCC 349&lt;br/&gt;&lt;b&gt;Địa chỉ:&lt;/b&gt; Đối diện 671 Quốc lộ 22&lt;br/&gt;&lt;b&gt;Khu vực:&lt;/b&gt; Xã Phước Thạnh, Huyện Củ Chi&lt;br/&gt;&lt;b&gt;Các tuyến qua trạm:&lt;/b&gt; 100, 107, 70-1, 70-2]]></description>
          <styleUrl>#busStopStyle</styleUrl>
          <Point>
            <coordinates>106.436679,11.002719,0</coordinates>
          </Point>
        </Placemark>
        <Placemark>
          <name>[HCC 026] UBND xã Phước Thạnh</name>
          <description><![CDATA[&lt;b&gt;Trạm:&lt;/b&gt; UBND xã Phước Thạnh&lt;br/&gt;&lt;b&gt;Mã trạm:&lt;/b&gt; HCC 026&lt;br/&gt;&lt;b&gt;Địa chỉ:&lt;/b&gt; UBND xã Phước Thạnh Quốc lộ 22&lt;br/&gt;&lt;b&gt;Khu vực:&lt;/b&gt; Xã Phước Thạnh, Huyện Củ Chi&lt;br/&gt;&lt;b&gt;Các tuyến qua trạm:&lt;/b&gt; 100, 107, 70-1, 70-2]]></description>
          <styleUrl>#busStopStyle</styleUrl>
          <Point>
            <coordinates>106.431969,11.00463,0</coordinates>
          </Point>
        </Placemark>
        <Placemark>
          <name>[QCCT028] Ngã tư Phước Thạnh</name>
          <description><![CDATA[&lt;b&gt;Trạm:&lt;/b&gt; Ngã tư Phước Thạnh&lt;br/&gt;&lt;b&gt;Mã trạm:&lt;/b&gt; QCCT028&lt;br/&gt;&lt;b&gt;Địa chỉ:&lt;/b&gt; 826 Quốc lộ 22&lt;br/&gt;&lt;b&gt;Khu vực:&lt;/b&gt; Xã Phước Thạnh, Huyện Củ Chi&lt;br/&gt;&lt;b&gt;Các tuyến qua trạm:&lt;/b&gt; 100, 107, 70-1, 70-2]]></description>
          <styleUrl>#busStopStyle</styleUrl>
          <Point>
            <coordinates>106.428146,11.005767,0</coordinates>
          </Point>
        </Placemark>
        <Placemark>
          <name>[BX 70-2] Khu du lịch Núi Bà Đen</name>
          <description><![CDATA[&lt;b&gt;Trạm:&lt;/b&gt; Khu du lịch Núi Bà Đen&lt;br/&gt;&lt;b&gt;Mã trạm:&lt;/b&gt; BX 70-2&lt;br/&gt;&lt;b&gt;Địa chỉ:&lt;/b&gt; Khu du lịch Núi Bà Đen (chân núi) Bời Lời&lt;br/&gt;&lt;b&gt;Khu vực:&lt;/b&gt; None, Ngoại thành&lt;br/&gt;&lt;b&gt;Các tuyến qua trạm:&lt;/b&gt; 70-2]]></description>
          <styleUrl>#busStopStyle</styleUrl>
          <Point>
            <coordinates>106.168,11.362073,0</coordinates>
          </Point>
        </Placemark>
      </Folder>
    </Folder>
    <Folder>
      <name>Lượt về: Khu du lịch Núi Bà Đen → Bến xe Củ Chi (70.53 km)</name>
      <Placemark>
        <name>B 70-2 - Đường đi Lượt về</name>
        <description><![CDATA[&lt;b&gt;Tuyến:&lt;/b&gt; B 70-2 - Bến xe Củ Chi - Tòa Thánh - Khu du lịch Núi Bà Đen&lt;br/&gt;&lt;b&gt;Lượt:&lt;/b&gt; Lượt về&lt;br/&gt;&lt;b&gt;Cự ly:&lt;/b&gt; 70.53 km&lt;br/&gt;&lt;b&gt;Thời gian hành trình:&lt;/b&gt; 105 phút&lt;br/&gt;&lt;b&gt;Thời gian hoạt động:&lt;/b&gt; 2:55 - 19:00]]></description>
        <styleUrl>#routeLineStyle</styleUrl>
        <LineString>
          <tessellate>1</tessellate>
          <coordinates>106.16799927,11.36207294,0 106.16801453,11.36198902,0 106.16737366,11.36175251,0 106.16592407,11.36105824,0 106.1638031,11.36006355,0 106.16168976,11.35905933,0 106.1595459,11.35811806,0 106.15744019,11.35712337,0 106.15533447,11.35612965,0 106.15319824,11.35514927,0 106.15106964,11.35416794,0 106.13946533,11.3487978,0 106.13661194,11.34747028,0 106.13375854,11.34614182,0 106.13091278,11.3448143,0 106.12805939,11.34348583,0 106.1282196,11.34230232,0 106.12837219,11.34111881,0 106.12850189,11.3399353,0 106.12862396,11.33875179,0 106.12893677,11.33638,0 106.12923431,11.33401299,0 106.12980652,11.32927418,0 106.13008881,11.32690144,0 106.13037872,11.32454014,0 106.13153076,11.31511402,0 106.13210297,11.31040096,0 106.13237762,11.30804443,0 106.1325531,11.30665588,0 106.13272858,11.30526733,0 106.13516235,11.30541992,0 106.13778687,11.3052721,0 106.14041901,11.30512524,0 106.14286804,11.30555058,0 106.1444397,11.30588722,0 106.14511871,11.3061924,0 106.14584351,11.30665016,0 106.1485672,11.3081131,0 106.14992523,11.3087759,0 106.15113831,11.30975437,0 106.15289307,11.31117916,0 106.1536026,11.31164265,0 106.15500641,11.31246281,0 106.15628815,11.31339931,0 106.15879822,11.31523514,0 106.16033936,11.31692886,0 106.16124725,11.31744957,0 106.16363525,11.31868553,0 106.16604614,11.31980038,0 106.16847992,11.3208952,0 106.1709137,11.32198906,0 106.17119598,11.32203102,0 106.17153931,11.32201576,0 106.17203522,11.32179928,0 106.17235565,11.32147312,0 106.17285156,11.32063198,0 106.17329407,11.31979561,0 106.17470551,11.31704426,0 106.17539215,11.31569767,0 106.17578888,11.31504536,0 106.17630005,11.31442547,0 106.17855835,11.31215286,0 106.18399048,11.30679989,0 106.18942261,11.30144787,0 106.20030975,11.29073715,0 106.20307159,11.28809166,0 106.20580292,11.28538704,0 106.21122742,11.2799902,0 106.21660614,11.27462959,0 106.21928406,11.27190399,0 106.22187805,11.26922131,0 106.22449493,11.26663208,0 106.22719574,11.26413918,0 106.22856903,11.26287651,0 106.22985077,11.26158714,0 106.23239899,11.25903034,0 106.23748016,11.25383186,0 106.24002075,11.25121689,0 106.24255371,11.24861813,0 106.24760437,11.24341965,0 106.25269318,11.2382164,0 106.26285553,11.22782421,0 106.272995,11.21741676,0 106.27802277,11.21217537,0 106.28302002,11.20692921,0 106.29298401,11.19645214,0 106.30298615,11.18596458,0 106.30755615,11.18115902,0 106.30984497,11.17877579,0 106.31318665,11.17529202,0 106.31324768,11.17504406,0 106.31298828,11.17339134,0 106.31283569,11.17240238,0 106.31260681,11.17153358,0 106.31240845,11.17098713,0 106.31188202,11.16985512,0 106.31121826,11.16817665,0 106.31056213,11.16641331,0 106.30975342,11.16472435,0 106.30912781,11.16294003,0 106.30856323,11.16114521,0 106.30818939,11.15952396,0 106.30795288,11.15782452,0 106.30821228,11.15443516,0 106.30847931,11.15107727,0 106.30862427,11.14936161,0 106.30867004,11.14765549,0 106.3086853,11.14600849,0 106.30870056,11.14520359,0 106.30880737,11.14440823,0 106.30909729,11.14351368,0 106.3095932,11.14284515,0 106.31069183,11.14132977,0 106.31175232,11.13977146,0 106.31225586,11.13901901,0 106.31271362,11.13821316,0 106.31370544,11.13645554,0 106.31443787,11.1356554,0 106.31537628,11.1350975,0 106.31636047,11.13456059,0 106.31698608,11.13405037,0 106.31745911,11.13337612,0 106.31784821,11.13267136,0 106.31939697,11.12973404,0 106.32085419,11.12692356,0 106.32229614,11.12416553,0 106.32544708,11.11821175,0 106.32579803,11.11741161,0 106.32596588,11.1166544,0 106.32604218,11.11499023,0 106.32614136,11.11334801,0 106.32618713,11.11172676,0 106.32633209,11.10847378,0 106.32645416,11.10522652,0 106.3265686,11.10200405,0 106.32667542,11.0987463,0 106.3267746,11.09548759,0 106.3269043,11.09385586,0 106.32746124,11.09222889,0 106.32891083,11.0890913,0 106.33039093,11.08596992,0 106.33349609,11.07939434,0 106.3350296,11.07607841,0 106.33586884,11.07445145,0 106.33688354,11.07288742,0 106.34113312,11.06668091,0 106.34323883,11.06358528,0 106.34427643,11.0620079,0 106.34532166,11.06043148,0 106.3534317,11.04776382,0 106.35743713,11.04145622,0 106.35848999,11.0398407,0 106.35968781,11.0383606,0 106.36214447,11.03538036,0 106.36343384,11.03381157,0 106.36376953,11.03345394,0 106.36417389,11.03313255,0 106.36522675,11.03263187,0 106.36751556,11.03166294,0 106.36972809,11.0306263,0 106.37387085,11.02859879,0 106.37491608,11.02824593,0 106.3760376,11.02796173,0 106.37837982,11.02741909,0 106.38310242,11.02632999,0 106.38546753,11.02575588,0 106.3866272,11.02546597,0 106.38769531,11.02507687,0 106.39187622,11.02312851,0 106.39597321,11.02121735,0 106.4121933,11.01364994,0 106.41313171,11.01304436,0 106.41390991,11.01233959,0 106.41546631,11.01093292,0 106.41709137,11.00950623,0 106.41808319,11.00892162,0 106.41925049,11.00844765,0 106.42370605,11.00706291,0 106.42589569,11.00636005,0 106.42809296,11.0056572,0 106.42807007,11.0055666,0 106.42807007,11.0055666,0 106.42807007,11.0055666,0 106.42808533,11.00567245,0 106.4289856,11.00539112,0 106.42988586,11.00510979,0 106.43077087,11.00483036,0 106.43165588,11.00455093,0 106.43164825,11.0045042,0 106.43164825,11.0045042,0 106.43164825,11.0045042,0 106.43165588,11.00456142,0 106.43273163,11.00420856,0 106.43382263,11.00384045,0 106.43483734,11.00349808,0 106.43578339,11.00303459,0 106.43575287,11.00296593,0 106.43575287,11.00296593,0 106.43580627,11.0030241,0 106.43778229,11.00198174,0 106.43877411,11.00144196,0 106.43976593,11.00090218,0 106.44074249,11.0003624,0 106.44171143,10.99982262,0 106.44216156,10.99950123,0 106.44258118,10.99915886,0 106.44329071,10.99839497,0 106.4432373,10.99835873,0 106.4432373,10.99835873,0 106.44329834,10.9983902,0 106.44368744,10.99795341,0 106.44407654,10.99751568,0 106.44448853,10.99707413,0 106.44487,10.99661732,0 106.44487,10.99661732,0 106.44487,10.99661732,0 106.44487,10.99661732,0 106.44491577,10.99664211,0 106.44532776,10.99616814,0 106.44578552,10.99568844,0 106.44620514,10.99521255,0 106.44663239,10.99473572,0 106.44706726,10.99425697,0 106.44750214,10.99377728,0 106.44792175,10.99328899,0 106.44833374,10.99279976,0 106.44833374,10.99279976,0 106.44836426,10.99269772,0 106.44836426,10.99269772,0 106.44833374,10.99279976,0 106.44871521,10.99242496,0 106.44909668,10.99205017,0 106.44947815,10.99163151,0 106.44985199,10.99121284,0 106.45023346,10.99079418,0 106.4506073,10.99037552,0 106.45126343,10.9895668,0 106.45126343,10.9895668,0 106.45126343,10.9895668,0 106.45173645,10.98910618,0 106.45226288,10.98869038,0 106.45340729,10.98792171,0 106.45458984,10.9871521,0 106.45570374,10.9864254,0 106.45565796,10.98633575,0 106.45565796,10.98633575,0 106.45571899,10.98639965,0 106.45700073,10.98556232,0 106.45827484,10.98471451,0 106.45823669,10.98466206,0 106.45823669,10.98466206,0 106.45826721,10.98470879,0 106.45897675,10.98425579,0 106.45967865,10.9838028,0 106.46038055,10.98334503,0 106.46108246,10.98288727,0 106.46103668,10.98285484,0 106.46101379,10.98288345,0 106.46101379,10.98288345,0 106.46105194,10.98292923,0 106.46173096,10.98248196,0 106.46240997,10.98203373,0 106.46311188,10.98159981,0 106.46380615,10.98116493,0 106.46374512,10.98104858,0 106.46374512,10.98104858,0 106.46374512,10.98104858,0 106.46374512,10.98104858,0 106.46379852,10.98114395,0 106.46451569,10.98073292,0 106.46524048,10.98031712,0 106.4659729,10.97991467,0 106.46670532,10.97951126,0 106.46744537,10.97910309,0 106.46818542,10.97869492,0 106.46892548,10.97828674,0 106.46966553,10.97787857,0 106.46963501,10.97778416,0 106.46963501,10.97778416,0 106.46963501,10.97778416,0 106.46963501,10.97778416,0 106.46966553,10.97787857,0 106.47042084,10.97744942,0 106.47117615,10.97702026,0 106.47195435,10.97659683,0 106.47274017,10.97617245,0 106.47271729,10.97610855,0 106.47271729,10.97610855,0 106.47271729,10.97610855,0 106.47271729,10.97610855,0 106.47273254,10.97614956,0 106.47273254,10.97614956,0 106.47333527,10.97581673,0 106.47393799,10.97548294,0 106.47455597,10.97516727,0 106.47518158,10.97485065,0 106.47574615,10.97456169,0 106.47631073,10.97427177,0 106.47689056,10.97400284,0 106.4774704,10.97373295,0 106.4774704,10.97373295,0 106.47743988,10.97365475,0 106.47743988,10.97365475,0 106.47657776,10.97406101,0 106.47689819,10.97399235,0 106.47734833,10.97375488,0 106.47782135,10.97355556,0 106.47809601,10.97330761,0 106.47809601,10.97330761,0 106.4785614,10.97319698,0 106.47930908,10.97284985,0 106.4799881,10.97250748,0 106.48049164,10.97209072,0 106.48049164,10.97209072,0 106.48049164,10.97209072,0 106.48056793,10.97216511,0 106.48134613,10.97150135,0 106.48191071,10.97102737,0 106.48249054,10.9705534,0 106.48245239,10.97049522,0 106.48245239,10.97049522,0 106.48245239,10.97049522,0 106.48248291,10.97053242,0 106.48420715,10.96936321,0 106.48522949,10.9686842,0 106.48571014,10.96838856,0 106.48602295,10.96812534,0 106.48632813,10.96824646,0 106.48619843,10.96862602,0 106.48579407,10.9686203,0 106.48487091,10.9690733,0 106.48377991,10.96977901,0 106.48271942,10.9705162,0 106.48174286,10.97130108,0 106.48210144,10.97161674,0</coordinates>
        </LineString>
      </Placemark>
      <Folder>
        <name>Trạm dừng (19 trạm)</name>
        <Placemark>
          <name>[BX 70-2] Khu du lịch Núi Bà Đen</name>
          <description><![CDATA[&lt;b&gt;Trạm:&lt;/b&gt; Khu du lịch Núi Bà Đen&lt;br/&gt;&lt;b&gt;Mã trạm:&lt;/b&gt; BX 70-2&lt;br/&gt;&lt;b&gt;Địa chỉ:&lt;/b&gt; Khu du lịch Núi Bà Đen (chân núi) Bời Lời&lt;br/&gt;&lt;b&gt;Khu vực:&lt;/b&gt; None, Ngoại thành&lt;br/&gt;&lt;b&gt;Các tuyến qua trạm:&lt;/b&gt; 70-2]]></description>
          <styleUrl>#busStopStyle</styleUrl>
          <Point>
            <coordinates>106.168,11.362073,0</coordinates>
          </Point>
        </Placemark>
        <Placemark>
          <name>[HCC 028] Ngã tư Phước Thạnh</name>
          <description><![CDATA[&lt;b&gt;Trạm:&lt;/b&gt; Ngã tư Phước Thạnh&lt;br/&gt;&lt;b&gt;Mã trạm:&lt;/b&gt; HCC 028&lt;br/&gt;&lt;b&gt;Địa chỉ:&lt;/b&gt; 863 Quốc lộ 22&lt;br/&gt;&lt;b&gt;Khu vực:&lt;/b&gt; Xã Phước Thạnh, Huyện Củ Chi&lt;br/&gt;&lt;b&gt;Các tuyến qua trạm:&lt;/b&gt; 100, 107, 70-1, 70-2]]></description>
          <styleUrl>#busStopStyle</styleUrl>
          <Point>
            <coordinates>106.428069,11.005567,0</coordinates>
          </Point>
        </Placemark>
        <Placemark>
          <name>[HCC 029] Ủy Ban nhân dân Xã Phước Thạnh</name>
          <description><![CDATA[&lt;b&gt;Trạm:&lt;/b&gt; Ủy Ban nhân dân Xã Phước Thạnh&lt;br/&gt;&lt;b&gt;Mã trạm:&lt;/b&gt; HCC 029&lt;br/&gt;&lt;b&gt;Địa chỉ:&lt;/b&gt; 755 Quốc lộ 22&lt;br/&gt;&lt;b&gt;Khu vực:&lt;/b&gt; Xã Phước Thạnh, Huyện Củ Chi&lt;br/&gt;&lt;b&gt;Các tuyến qua trạm:&lt;/b&gt; 100, 107, 70-1, 70-2]]></description>
          <styleUrl>#busStopStyle</styleUrl>
          <Point>
            <coordinates>106.431647,11.004504,0</coordinates>
          </Point>
        </Placemark>
        <Placemark>
          <name>[HCC 348] Đường 622</name>
          <description><![CDATA[&lt;b&gt;Trạm:&lt;/b&gt; Đường 622&lt;br/&gt;&lt;b&gt;Mã trạm:&lt;/b&gt; HCC 348&lt;br/&gt;&lt;b&gt;Địa chỉ:&lt;/b&gt; cạnh 685 (cạnh đường 622) Quốc lộ 22&lt;br/&gt;&lt;b&gt;Khu vực:&lt;/b&gt; Xã Phước Thạnh, Huyện Củ Chi&lt;br/&gt;&lt;b&gt;Các tuyến qua trạm:&lt;/b&gt; 100, 107, 70-1, 70-2]]></description>
          <styleUrl>#busStopStyle</styleUrl>
          <Point>
            <coordinates>106.435756,11.002966,0</coordinates>
          </Point>
        </Placemark>
        <Placemark>
          <name>[HCC 353] Cây xăng Phước Thạnh 2</name>
          <description><![CDATA[&lt;b&gt;Trạm:&lt;/b&gt; Cây xăng Phước Thạnh 2&lt;br/&gt;&lt;b&gt;Mã trạm:&lt;/b&gt; HCC 353&lt;br/&gt;&lt;b&gt;Địa chỉ:&lt;/b&gt; 613 (cạnh hẻm 53) Quốc lộ 22&lt;br/&gt;&lt;b&gt;Khu vực:&lt;/b&gt; Xã Tân An Hội, Huyện Củ Chi&lt;br/&gt;&lt;b&gt;Các tuyến qua trạm:&lt;/b&gt; 100, 107, 70-1, 70-2]]></description>
          <styleUrl>#busStopStyle</styleUrl>
          <Point>
            <coordinates>106.443239,10.998359,0</coordinates>
          </Point>
        </Placemark>
        <Placemark>
          <name>[HCC 030] ấp cây trôm</name>
          <description><![CDATA[&lt;b&gt;Trạm:&lt;/b&gt; ấp cây trôm&lt;br/&gt;&lt;b&gt;Mã trạm:&lt;/b&gt; HCC 030&lt;br/&gt;&lt;b&gt;Địa chỉ:&lt;/b&gt; 585 Quốc lộ 22&lt;br/&gt;&lt;b&gt;Khu vực:&lt;/b&gt; Xã Phước Hiệp, Huyện Củ Chi&lt;br/&gt;&lt;b&gt;Các tuyến qua trạm:&lt;/b&gt; 100, 107, 70-1, 70-2]]></description>
          <styleUrl>#busStopStyle</styleUrl>
          <Point>
            <coordinates>106.44487,10.996617,0</coordinates>
          </Point>
        </Placemark>
        <Placemark>
          <name>[HCC 031] Trường Tiểu học Phước Hiệp</name>
          <description><![CDATA[&lt;b&gt;Trạm:&lt;/b&gt; Trường Tiểu học Phước Hiệp&lt;br/&gt;&lt;b&gt;Mã trạm:&lt;/b&gt; HCC 031&lt;br/&gt;&lt;b&gt;Địa chỉ:&lt;/b&gt; 499 Quốc lộ 22&lt;br/&gt;&lt;b&gt;Khu vực:&lt;/b&gt; Xã Phước Hiệp, Huyện Củ Chi&lt;br/&gt;&lt;b&gt;Các tuyến qua trạm:&lt;/b&gt; 100, 107, 70-1, 70-2]]></description>
          <styleUrl>#busStopStyle</styleUrl>
          <Point>
            <coordinates>106.448362,10.992698,0</coordinates>
          </Point>
        </Placemark>
        <Placemark>
          <name>[HCC 032] UBND xã Phước Hiệp</name>
          <description><![CDATA[&lt;b&gt;Trạm:&lt;/b&gt; UBND xã Phước Hiệp&lt;br/&gt;&lt;b&gt;Mã trạm:&lt;/b&gt; HCC 032&lt;br/&gt;&lt;b&gt;Địa chỉ:&lt;/b&gt; UBND xã Phước Hiệp Quốc lộ 22&lt;br/&gt;&lt;b&gt;Khu vực:&lt;/b&gt; None, Huyện Củ Chi&lt;br/&gt;&lt;b&gt;Các tuyến qua trạm:&lt;/b&gt; 100, 107, 70-1, 70-2]]></description>
          <styleUrl>#busStopStyle</styleUrl>
          <Point>
            <coordinates>106.451263,10.989567,0</coordinates>
          </Point>
        </Placemark>
        <Placemark>
          <name>[HCC 347] Cây xăng Phước Thạnh 3</name>
          <description><![CDATA[&lt;b&gt;Trạm:&lt;/b&gt; Cây xăng Phước Thạnh 3&lt;br/&gt;&lt;b&gt;Mã trạm:&lt;/b&gt; HCC 347&lt;br/&gt;&lt;b&gt;Địa chỉ:&lt;/b&gt; 351 Quốc lộ 22&lt;br/&gt;&lt;b&gt;Khu vực:&lt;/b&gt; Xã Phước Hiệp, Huyện Củ Chi&lt;br/&gt;&lt;b&gt;Các tuyến qua trạm:&lt;/b&gt; 100, 107, 70-1, 70-2]]></description>
          <styleUrl>#busStopStyle</styleUrl>
          <Point>
            <coordinates>106.455658,10.986336,0</coordinates>
          </Point>
        </Placemark>
        <Placemark>
          <name>[HCC 345] Đường số 606</name>
          <description><![CDATA[&lt;b&gt;Trạm:&lt;/b&gt; Đường số 606&lt;br/&gt;&lt;b&gt;Mã trạm:&lt;/b&gt; HCC 345&lt;br/&gt;&lt;b&gt;Địa chỉ:&lt;/b&gt; Đối diện đường số 606 Quốc lộ 22&lt;br/&gt;&lt;b&gt;Khu vực:&lt;/b&gt; Xã Tân An Hội, Huyện Củ Chi&lt;br/&gt;&lt;b&gt;Các tuyến qua trạm:&lt;/b&gt; 100, 107, 70-1, 70-2]]></description>
          <styleUrl>#busStopStyle</styleUrl>
          <Point>
            <coordinates>106.458238,10.984662,0</coordinates>
          </Point>
        </Placemark>
        <Placemark>
          <name>[HCC 033] Cây xăng Tài Lộc 3</name>
          <description><![CDATA[&lt;b&gt;Trạm:&lt;/b&gt; Cây xăng Tài Lộc 3&lt;br/&gt;&lt;b&gt;Mã trạm:&lt;/b&gt; HCC 033&lt;br/&gt;&lt;b&gt;Địa chỉ:&lt;/b&gt; 281 Quốc lộ 22&lt;br/&gt;&lt;b&gt;Khu vực:&lt;/b&gt; Xã Phước Hiệp, Huyện Củ Chi&lt;br/&gt;&lt;b&gt;Các tuyến qua trạm:&lt;/b&gt; 100, 107, 70-1, 70-2]]></description>
          <styleUrl>#busStopStyle</styleUrl>
          <Point>
            <coordinates>106.461033,10.982855,0</coordinates>
          </Point>
        </Placemark>
        <Placemark>
          <name>[HCC 298] Ấp Bàu Tre</name>
          <description><![CDATA[&lt;b&gt;Trạm:&lt;/b&gt; Ấp Bàu Tre&lt;br/&gt;&lt;b&gt;Mã trạm:&lt;/b&gt; HCC 298&lt;br/&gt;&lt;b&gt;Địa chỉ:&lt;/b&gt; 227 Quốc lộ 22&lt;br/&gt;&lt;b&gt;Khu vực:&lt;/b&gt; Xã Phước Hiệp, Huyện Củ Chi&lt;br/&gt;&lt;b&gt;Các tuyến qua trạm:&lt;/b&gt; 100, 107, 70-1, 70-2]]></description>
          <styleUrl>#busStopStyle</styleUrl>
          <Point>
            <coordinates>106.463742,10.981049,0</coordinates>
          </Point>
        </Placemark>
        <Placemark>
          <name>[HCC 034] Công ty phân bón sinh hóa Củ Chi</name>
          <description><![CDATA[&lt;b&gt;Trạm:&lt;/b&gt; Công ty phân bón sinh hóa Củ Chi&lt;br/&gt;&lt;b&gt;Mã trạm:&lt;/b&gt; HCC 034&lt;br/&gt;&lt;b&gt;Địa chỉ:&lt;/b&gt; 121 Quốc lộ 22&lt;br/&gt;&lt;b&gt;Khu vực:&lt;/b&gt; None, Huyện Củ Chi&lt;br/&gt;&lt;b&gt;Các tuyến qua trạm:&lt;/b&gt; 100, 107, 70-1, 70-2]]></description>
          <styleUrl>#busStopStyle</styleUrl>
          <Point>
            <coordinates>106.469632,10.977784,0</coordinates>
          </Point>
        </Placemark>
        <Placemark>
          <name>[HCC 035] Ngã 3 Nguyễn Thị Rành</name>
          <description><![CDATA[&lt;b&gt;Trạm:&lt;/b&gt; Ngã 3 Nguyễn Thị Rành&lt;br/&gt;&lt;b&gt;Mã trạm:&lt;/b&gt; HCC 035&lt;br/&gt;&lt;b&gt;Địa chỉ:&lt;/b&gt; 55 Quốc lộ 22&lt;br/&gt;&lt;b&gt;Khu vực:&lt;/b&gt; Xã Tân An Hội, Huyện Củ Chi&lt;br/&gt;&lt;b&gt;Các tuyến qua trạm:&lt;/b&gt; 100, 107, 70-1, 70-2, 79]]></description>
          <styleUrl>#busStopStyle</styleUrl>
          <Point>
            <coordinates>106.472717,10.976109,0</coordinates>
          </Point>
        </Placemark>
        <Placemark>
          <name>[HCC 036] Bệnh viện Củ Chi</name>
          <description><![CDATA[&lt;b&gt;Trạm:&lt;/b&gt; Bệnh viện Củ Chi&lt;br/&gt;&lt;b&gt;Mã trạm:&lt;/b&gt; HCC 036&lt;br/&gt;&lt;b&gt;Địa chỉ:&lt;/b&gt; 991 (số 5-7 xe máy Quang Phương) Quốc lộ 22&lt;br/&gt;&lt;b&gt;Khu vực:&lt;/b&gt; Xã Tân An Hội, Huyện Củ Chi&lt;br/&gt;&lt;b&gt;Các tuyến qua trạm:&lt;/b&gt; 100, 107, 70-1, 70-2, 79]]></description>
          <styleUrl>#busStopStyle</styleUrl>
          <Point>
            <coordinates>106.476579,10.974061,0</coordinates>
          </Point>
        </Placemark>
        <Placemark>
          <name>[HCC 365] Bệnh viện đa khoa khu vực Củ Chi</name>
          <description><![CDATA[&lt;b&gt;Trạm:&lt;/b&gt; Bệnh viện đa khoa khu vực Củ Chi&lt;br/&gt;&lt;b&gt;Mã trạm:&lt;/b&gt; HCC 365&lt;br/&gt;&lt;b&gt;Địa chỉ:&lt;/b&gt; 965 Phan Văn Khải&lt;br/&gt;&lt;b&gt;Khu vực:&lt;/b&gt; Xã Tân An Hội, Huyện Củ Chi&lt;br/&gt;&lt;b&gt;Các tuyến qua trạm:&lt;/b&gt; 100, 107, 70-1, 70-2, 79]]></description>
          <styleUrl>#busStopStyle</styleUrl>
          <Point>
            <coordinates>106.478097,10.973308,0</coordinates>
          </Point>
        </Placemark>
        <Placemark>
          <name>[HCC 037] Bến xe Củ Chi</name>
          <description><![CDATA[&lt;b&gt;Trạm:&lt;/b&gt; Bến xe Củ Chi&lt;br/&gt;&lt;b&gt;Mã trạm:&lt;/b&gt; HCC 037&lt;br/&gt;&lt;b&gt;Địa chỉ:&lt;/b&gt; 907 (Chợ Củ Chi) Quốc lộ 22&lt;br/&gt;&lt;b&gt;Khu vực:&lt;/b&gt; Thị trấn Củ Chi, Huyện Củ Chi&lt;br/&gt;&lt;b&gt;Các tuyến qua trạm:&lt;/b&gt; 100, 107, 70-1, 70-2, 79]]></description>
          <styleUrl>#busStopStyle</styleUrl>
          <Point>
            <coordinates>106.48049,10.972091,0</coordinates>
          </Point>
        </Placemark>
        <Placemark>
          <name>[HCC 279] chợ Củ Chi</name>
          <description><![CDATA[&lt;b&gt;Trạm:&lt;/b&gt; chợ Củ Chi&lt;br/&gt;&lt;b&gt;Mã trạm:&lt;/b&gt; HCC 279&lt;br/&gt;&lt;b&gt;Địa chỉ:&lt;/b&gt; chợ Củ Chi Quốc lộ 22&lt;br/&gt;&lt;b&gt;Khu vực:&lt;/b&gt; Thị trấn Củ Chi, Huyện Củ Chi&lt;br/&gt;&lt;b&gt;Các tuyến qua trạm:&lt;/b&gt; 100, 107, 126, 13, 70-1, 70-2, 74, 79, 87, 94]]></description>
          <styleUrl>#busStopStyle</styleUrl>
          <Point>
            <coordinates>106.482453,10.970495,0</coordinates>
          </Point>
        </Placemark>
        <Placemark>
          <name>[BX 63] Bến xe Củ Chi</name>
          <description><![CDATA[&lt;b&gt;Trạm:&lt;/b&gt; Bến xe Củ Chi&lt;br/&gt;&lt;b&gt;Mã trạm:&lt;/b&gt; BX 63&lt;br/&gt;&lt;b&gt;Địa chỉ:&lt;/b&gt; Bến xe Củ Chi Quốc lộ 22&lt;br/&gt;&lt;b&gt;Khu vực:&lt;/b&gt; None, Huyện Củ Chi&lt;br/&gt;&lt;b&gt;Các tuyến qua trạm:&lt;/b&gt; 100, 107, 126, 13, 70-1, 70-2, 74, 79, 87, 94]]></description>
          <styleUrl>#busStopStyle</styleUrl>
          <Point>
            <coordinates>106.482099,10.971617,0</coordinates>
          </Point>
        </Placemark>
      </Folder>
    </Folder>
  </Document>
</kml>