<?xml version="1.0" encoding="UTF-8"?>
<kml xmlns="http://www.opengis.net/kml/2.2">
  <Document>
    <name>B 104 - Bến xe An Sương - Bến xe buýt Văn Thánh</name>
    <description>Lộ trình tuyến xe buýt B 104 (4:30 - 22:00)</description>
    <Style id="routeLineStyle">
      <LineStyle>
        <color>e6D4BC00</color>
        <width>4</width>
      </LineStyle>
    </Style>
    <Style id="busStopStyle">
      <IconStyle>
        <scale>0.8</scale>
        <Icon>
          <href>http://maps.google.com/mapfiles/kml/shapes/bus.png</href>
        </Icon>
      </IconStyle>
    </Style>
    <Folder>
      <name>Lượt đi: Bến xe An Sương → Bến xe Văn Thánh (17.4 km)</name>
      <Placemark>
        <name>B 104 - Đường đi Lượt đi</name>
        <description><![CDATA[&lt;b&gt;Tuyến:&lt;/b&gt; B 104 - Bến xe An Sương - Bến xe buýt Văn Thánh&lt;br/&gt;&lt;b&gt;Lượt:&lt;/b&gt; Lượt đi&lt;br/&gt;&lt;b&gt;Cự ly:&lt;/b&gt; 17.4 km&lt;br/&gt;&lt;b&gt;Thời gian hành trình:&lt;/b&gt; 45 phút&lt;br/&gt;&lt;b&gt;Thời gian hoạt động:&lt;/b&gt; 4:30 - 22:00]]></description>
        <styleUrl>#routeLineStyle</styleUrl>
        <LineString>
          <tessellate>1</tessellate>
          <coordinates>106.6133728,10.8437376,0 106.61418152,10.84418106,0 106.61500549,10.84297943,0 106.61504364,10.84253693,0 106.61533356,10.8422842,0 106.61598206,10.84128857,0 106.61662292,10.84029198,0 106.61704254,10.83962631,0 106.61746216,10.83895969,0 106.61734772,10.83889103,0 106.61734772,10.83889103,0 106.61734772,10.83889103,0 106.61734772,10.83889103,0 106.61746216,10.83895397,0 106.61816406,10.83785248,0 106.6188736,10.83675194,0 106.61959076,10.83565044,0 106.62030792,10.83454895,0 106.62020874,10.83449745,0 106.62020874,10.83449745,0 106.62030029,10.83453846,0 106.62109375,10.83330059,0 106.62188721,10.83206749,0 106.62179565,10.83201981,0 106.62179565,10.83201981,0 106.62179565,10.83201981,0 106.62188721,10.83207321,0 106.62268829,10.83086681,0 106.62348175,10.82966518,0 106.62510681,10.82725239,0 106.62549591,10.82677746,0 106.62594604,10.8263092,0 106.62586212,10.82623959,0 106.62586212,10.82623959,0 106.62586212,10.82623959,0 106.62586212,10.82623959,0 106.62593842,10.8263092,0 106.62645721,10.82582378,0 106.62697601,10.82535553,0 106.62749481,10.8248806,0 106.62801361,10.82440662,0 106.62871552,10.82374573,0 106.62941742,10.82308388,0 106.62971497,10.82274723,0 106.62992096,10.82235718,0 106.62982178,10.82231522,0 106.62982178,10.82231522,0 106.62982178,10.82231522,0 106.62982178,10.82231522,0 106.62982178,10.82231522,0 106.62991333,10.82234097,0 106.63014984,10.82170868,0 106.63034821,10.82108212,0 106.63059235,10.82026005,0 106.63083649,10.8194437,0 106.63061523,10.81938553,0 106.63061523,10.81938553,0 106.63061523,10.81938553,0 106.63061523,10.81938553,0 106.63083649,10.8194437,0 106.63103485,10.81881905,0 106.63123322,10.81819439,0 106.63143158,10.81757069,0 106.63162994,10.81694603,0 106.63181305,10.81632328,0 106.63200378,10.81570053,0 106.63218689,10.81507778,0 106.63237762,10.81445503,0 106.63237762,10.81445503,0 106.63237762,10.81445503,0 106.63259888,10.81373405,0 106.63282013,10.81301308,0 106.63304138,10.8122921,0 106.633255,10.81157112,0 106.63346863,10.81084919,0 106.63368988,10.81012726,0 106.63394165,10.80940533,0 106.63414001,10.8087101,0 106.63401794,10.80868912,0 106.63401794,10.80868912,0 106.63401794,10.80868912,0 106.63415527,10.8087101,0 106.63441467,10.80794048,0 106.63485718,10.80732441,0 106.63545227,10.80673409,0 106.63609314,10.80618572,0 106.63605499,10.80614376,0 106.63605499,10.80614376,0 106.63609314,10.80617523,0 106.63664246,10.80552769,0 106.63707733,10.80487919,0 106.63750458,10.80420971,0 106.63795471,10.80358887,0 106.63788605,10.80354118,0 106.63788605,10.80354118,0 106.63796997,10.80359364,0 106.63813782,10.80335617,0 106.63833618,10.80311966,0 106.63861847,10.80292988,0 106.63893127,10.8027668,0 106.63925171,10.80262947,0 106.63957214,10.80254459,0 106.63990784,10.80249786,0 106.64025116,10.80248737,0 106.64025116,10.80237103,0 106.64025116,10.80237103,0 106.64025116,10.80248165,0 106.64074707,10.80244255,0 106.64125061,10.8024025,0 106.64175415,10.8023634,0 106.64225769,10.80232334,0 106.64276123,10.80228138,0 106.64326477,10.80223942,0 106.64376831,10.80219746,0 106.64427948,10.80215549,0 106.64429474,10.80205536,0 106.64429474,10.80205536,0 106.64431,10.802145,0 106.64506531,10.8020525,0 106.64582062,10.80195999,0 106.64658356,10.80191231,0 106.6473465,10.80186558,0 106.64810944,10.80179119,0 106.64888,10.80171776,0 106.64964294,10.80167294,0 106.65041351,10.80162811,0 106.65041351,10.80154419,0 106.65041351,10.80154419,0 106.65040588,10.80162811,0 106.65120697,10.80155945,0 106.65200806,10.80149078,0 106.6528244,10.80143356,0 106.65363312,10.80137539,0 106.65364075,10.80125427,0 106.65364075,10.80125427,0 106.65363312,10.8013649,0 106.65439606,10.80129719,0 106.655159,10.80123043,0 106.65592194,10.80116272,0 106.65668488,10.80109596,0 106.65667725,10.80098534,0 106.65667725,10.80098534,0 106.65667725,10.80109596,0 106.6572113,10.80104828,0 106.65775299,10.80100155,0 106.65812683,10.80097198,0 106.65850067,10.80094337,0 106.65882111,10.80083275,0 106.65882111,10.80083275,0 106.65882111,10.80083275,0 106.65882111,10.80083275,0 106.6607132,10.80066872,0 106.66080475,10.80048466,0 106.66085815,10.80029011,0 106.66094971,10.8002367,0 106.66107941,10.80025768,0 106.6614151,10.80050564,0 106.66160583,10.80064774,0 106.66259766,10.8005476,0 106.66348267,10.80047989,0 106.66381073,10.80052662,0 106.66639709,10.80029011,0 106.66637421,10.8002367,0 106.66637421,10.8002367,0 106.66637421,10.8002367,0 106.66637421,10.8002367,0 106.66637421,10.80030537,0 106.6679306,10.8001585,0 106.669487,10.80001068,0 106.66946411,10.79994202,0 106.66946411,10.79994202,0 106.66945648,10.80000496,0 106.67017365,10.79994202,0 106.67088318,10.79987907,0 106.67087555,10.79980469,0 106.67087555,10.79980469,0 106.67087555,10.79987335,0 106.67234802,10.79974747,0 106.6738205,10.79962063,0 106.6738205,10.79954243,0 106.6738205,10.79954243,0 106.6738205,10.79954243,0 106.6738205,10.79954243,0 106.67383575,10.79963684,0 106.67521667,10.79951859,0 106.67660522,10.79939938,0 106.67798615,10.79928112,0 106.67937469,10.79916191,0 106.67935181,10.79908752,0 106.67935181,10.79908752,0 106.67935181,10.79908752,0 106.67935181,10.79908752,0 106.67935181,10.79908752,0 106.67935181,10.79908752,0 106.67935181,10.79908752,0 106.67935181,10.7991991,0 106.67974091,10.79917049,0 106.68013,10.79914093,0 106.68045044,10.79926777,0 106.68075562,10.79957104,0 106.68105316,10.79987431,0 106.68135834,10.80017662,0 106.68166351,10.80047989,0 106.68173981,10.80041599,0 106.68173981,10.80041599,0 106.68173981,10.80041599,0 106.68173981,10.80041599,0 106.68173981,10.80041599,0 106.68173981,10.80041599,0 106.68173981,10.80041599,0 106.68173981,10.80041599,0 106.68173981,10.80041599,0 106.68169403,10.80049515,0 106.68203735,10.8007803,0 106.68230438,10.80103779,0 106.68287659,10.80158615,0 106.68348694,10.80217075,0 106.68401337,10.80272961,0 106.6840744,10.80268192,0 106.6840744,10.80268192,0 106.6840744,10.80268192,0 106.6840744,10.80268192,0 106.6840744,10.80268192,0 106.6840744,10.80268192,0 106.6840744,10.80268192,0 106.6840744,10.80268192,0 106.6840744,10.80268192,0 106.684021,10.80275631,0 106.68457031,10.80329132,0 106.68511963,10.80382538,0 106.68549347,10.80394173,0 106.68611145,10.8039465,0 106.68611145,10.80384731,0 106.68611145,10.80384731,0 106.68611145,10.80384731,0 106.68611145,10.80384731,0 106.68611145,10.80384731,0 106.68611145,10.80384731,0 106.68611145,10.80384731,0 106.68611145,10.80384731,0 106.68611908,10.80395699,0 106.68703461,10.80383396,0 106.68795013,10.80370998,0 106.68791962,10.80361462,0 106.68791962,10.80361462,0 106.68791962,10.80361462,0 106.68791962,10.80361462,0 106.68791962,10.80361462,0 106.68791962,10.80361462,0 106.68791962,10.80370998,0 106.68914795,10.80354691,0 106.69037628,10.80338287,0 106.69038391,10.80325127,0 106.69038391,10.80325127,0 106.69038391,10.80325127,0 106.69039154,10.80337715,0 106.6915741,10.80322742,0 106.69275665,10.8030777,0 106.6939621,10.80290318,0 106.69515991,10.80272961,0 106.69515228,10.80266571,0 106.69515228,10.80266571,0 106.69515991,10.80272961,0 106.69615936,10.80261326,0 106.69716644,10.80247116,0 106.69715881,10.80240822,0 106.69715881,10.80240822,0 106.69716644,10.80249214,0 106.69784546,10.8024025,0 106.69819641,10.80242348,0 106.69881439,10.80270004,0 106.69943237,10.80297756,0 106.69947052,10.80289268,0 106.69947052,10.80289268,0 106.69943237,10.80297756,0 106.70029449,10.80333042,0 106.70116425,10.80368328,0 106.70120239,10.80361462,0 106.70120239,10.80361462,0 106.70120239,10.80361462,0 106.70120239,10.80361462,0 106.70120239,10.80361462,0 106.70114899,10.80368328,0 106.70157623,10.80383587,0 106.70215607,10.80368328,0 106.7027359,10.80353069,0 106.70341492,10.80342007,0 106.70396423,10.80336666,0 106.70398712,10.80329323,0 106.70398712,10.80329323,0 106.70398712,10.80329323,0 106.70398712,10.80329323,0 106.70398712,10.80329323,0 106.70398712,10.80329323,0 106.70398712,10.80329323,0 106.70398712,10.80329323,0 106.70398712,10.80334568,0 106.70465851,10.80329704,0 106.70533752,10.80324841,0 106.70600891,10.80319977,0 106.7066803,10.80315113,0 106.70671082,10.80307674,0 106.70671082,10.80307674,0 106.70671082,10.80307674,0 106.70671082,10.80307674,0 106.70671082,10.80307674,0 106.70671082,10.80307674,0 106.70671082,10.80307674,0 106.70671082,10.80307674,0 106.70671844,10.80315113,0 106.70765686,10.80307865,0 106.70859528,10.80300617,0 106.70952606,10.80293369,0 106.71046448,10.80286121,0 106.71051025,10.80279255,0 106.71051025,10.80279255,0 106.71051025,10.80279255,0 106.71051025,10.80279255,0 106.71051025,10.80279255,0 106.71051025,10.80279255,0 106.71048737,10.80286694,0 106.71133423,10.80279255,0 106.71128082,10.80203438,0 106.71124268,10.80169106,0 106.71105957,10.80149651,0 106.71112823,10.80124855,0 106.71134949,10.80116463,0 106.71157074,10.80130196,0 106.71212769,10.80130196,0 106.71311188,10.80114841,0 106.71372223,10.801054,0 106.71427917,10.80093765,0 106.71425629,10.80082703,0 106.71425629,10.80082703,0 106.71425629,10.80082703,0 106.7142868,10.80092239,0 106.71557617,10.80049515,0 106.71601105,10.80044746,0 106.71657562,10.80020523,0 106.71681213,10.79993153,0 106.71744537,10.79961491,0 106.71740723,10.79953098,0 106.71740723,10.79953098,0 106.71743011,10.79961014,0 106.71794891,10.79932785,0 106.71846771,10.79904652,0 106.71914673,10.79866695,0 106.71949768,10.79852486,0 106.71949768,10.79852486,0 106.71949768,10.79852486,0 106.71949768,10.79852486,0 106.71987915,10.79820824,0 106.72103882,10.79763412,0 106.7215271,10.79748154,0 106.72279358,10.79742336,0 106.72363281,10.79743862,0 106.72431183,10.79774475,0 106.72452545,10.79799747,0 106.72454071,10.79826069,0 106.72451019,10.79858208,0 106.72438812,10.79889297,0 106.72413635,10.79906178,0 106.72387695,10.79913044,0 106.72303772,10.79910374,0 106.72264862,10.79908276,0 106.72241211,10.79906178,0 106.72219086,10.7990303,0 106.72221375,10.79905319,0 106.72221375,10.79905319,0 106.72221375,10.79905319,0 106.72221375,10.79905319,0 106.72221375,10.79905319,0 106.72221375,10.79905319,0 106.72221375,10.79905319,0 106.72221375,10.79905319,0 106.72221375,10.79905319,0 106.72221375,10.79905319,0 106.72221375,10.79905319,0 106.72221375,10.79905319,0 106.72221375,10.79905319,0 106.72222137,10.79903603,0 106.72169495,10.79894638,0 106.72104645,10.79863548,0 106.72055054,10.79850388,0 106.72009277,10.79859257,0 106.71957397,10.79889297,0 106.71957397,10.79889297,0 106.71957397,10.79889297,0 106.71957397,10.79889297,0 106.71957397,10.79889297,0 106.71957397,10.79889297,0 106.71957397,10.79889297,0 106.71957397,10.79889297,0 106.71957397,10.79889297,0 106.71957397,10.79889297,0 106.71957397,10.79889297,0 106.71957397,10.79889297,0 106.71957397,10.79889297,0 106.71957397,10.79889297,0 106.71957397,10.79889297,0 106.71920013,10.79916763,0 106.71879578,10.79939365,0 106.71797943,10.79985809,0 106.71826172,10.80035782,0 106.71850586,10.80086899,0 106.71800232,10.80109882,0 106.71749878,10.80131721,0 106.71749878,10.80131721,0 106.71749878,10.80131721,0 106.71749878,10.80131721,0 106.71749878,10.80131721,0</coordinates>
        </LineString>
      </Placemark>
      <Folder>
        <name>Trạm dừng (40 trạm)</name>
        <Placemark>
          <name>[BX41] Bến xe An Sương</name>
          <description><![CDATA[&lt;b&gt;Trạm:&lt;/b&gt; Bến xe An Sương&lt;br/&gt;&lt;b&gt;Mã trạm:&lt;/b&gt; BX41&lt;br/&gt;&lt;b&gt;Địa chỉ:&lt;/b&gt; Bến xe An Sương Quốc lộ 22&lt;br/&gt;&lt;b&gt;Khu vực:&lt;/b&gt; None, Quận 12&lt;br/&gt;&lt;b&gt;Các tuyến qua trạm:&lt;/b&gt; 04, 104, 122, 151, 27, 33, 41, 61-3, 62-5, 65, 71, 74, 85]]></description>
          <styleUrl>#busStopStyle</styleUrl>
          <Point>
            <coordinates>106.61337280273438,10.843737602233887,0</coordinates>
          </Point>
        </Placemark>
        <Placemark>
          <name>[Q12 135] Bitis</name>
          <description><![CDATA[&lt;b&gt;Trạm:&lt;/b&gt; Bitis&lt;br/&gt;&lt;b&gt;Mã trạm:&lt;/b&gt; Q12 135&lt;br/&gt;&lt;b&gt;Địa chỉ:&lt;/b&gt; 487 Trường Chinh&lt;br/&gt;&lt;b&gt;Khu vực:&lt;/b&gt; None, Quận 12&lt;br/&gt;&lt;b&gt;Các tuyến qua trạm:&lt;/b&gt; 04, 104, 13, 145, 27, 41, 65, 94]]></description>
          <styleUrl>#busStopStyle</styleUrl>
          <Point>
            <coordinates>106.617347,10.838891,0</coordinates>
          </Point>
        </Placemark>
        <Placemark>
          <name>[Q12 136] Chùa Lạc Quang</name>
          <description><![CDATA[&lt;b&gt;Trạm:&lt;/b&gt; Chùa Lạc Quang&lt;br/&gt;&lt;b&gt;Mã trạm:&lt;/b&gt; Q12 136&lt;br/&gt;&lt;b&gt;Địa chỉ:&lt;/b&gt; 257 Trường Chinh&lt;br/&gt;&lt;b&gt;Khu vực:&lt;/b&gt; None, Quận 12&lt;br/&gt;&lt;b&gt;Các tuyến qua trạm:&lt;/b&gt; 04, 104, 13, 145, 27, 41, 65, 94]]></description>
          <styleUrl>#busStopStyle</styleUrl>
          <Point>
            <coordinates>106.620212,10.834497,0</coordinates>
          </Point>
        </Placemark>
        <Placemark>
          <name>[Q12 137] Chùa Vĩnh Phước</name>
          <description><![CDATA[&lt;b&gt;Trạm:&lt;/b&gt; Chùa Vĩnh Phước&lt;br/&gt;&lt;b&gt;Mã trạm:&lt;/b&gt; Q12 137&lt;br/&gt;&lt;b&gt;Địa chỉ:&lt;/b&gt; Chùa Vĩnh Phước Trường Chinh&lt;br/&gt;&lt;b&gt;Khu vực:&lt;/b&gt; None, Quận 12&lt;br/&gt;&lt;b&gt;Các tuyến qua trạm:&lt;/b&gt; 04, 104, 13, 145, 27, 41, 65, 94]]></description>
          <styleUrl>#busStopStyle</styleUrl>
          <Point>
            <coordinates>106.621794,10.83202,0</coordinates>
          </Point>
        </Placemark>
        <Placemark>
          <name>[Q12 139] Cầu Tham Lương - Siêu thị Thiên Hòa</name>
          <description><![CDATA[&lt;b&gt;Trạm:&lt;/b&gt; Cầu Tham Lương - Siêu thị Thiên Hòa&lt;br/&gt;&lt;b&gt;Mã trạm:&lt;/b&gt; Q12 139&lt;br/&gt;&lt;b&gt;Địa chỉ:&lt;/b&gt; 21 (Kế 2/6B) Trường Chinh&lt;br/&gt;&lt;b&gt;Khu vực:&lt;/b&gt; None, Quận 12&lt;br/&gt;&lt;b&gt;Các tuyến qua trạm:&lt;/b&gt; 04, 104, 13, 145, 23, 27, 41, 62, 65, 94]]></description>
          <styleUrl>#busStopStyle</styleUrl>
          <Point>
            <coordinates>106.62586,10.82624,0</coordinates>
          </Point>
        </Placemark>
        <Placemark>
          <name>[QTP 010] Trạm Dệt Thành Công</name>
          <description><![CDATA[&lt;b&gt;Trạm:&lt;/b&gt; Trạm Dệt Thành Công&lt;br/&gt;&lt;b&gt;Mã trạm:&lt;/b&gt; QTP 010&lt;br/&gt;&lt;b&gt;Địa chỉ:&lt;/b&gt; 8 Trường Chinh&lt;br/&gt;&lt;b&gt;Khu vực:&lt;/b&gt; Phường Tây Thạnh, Quận Tân Phú&lt;br/&gt;&lt;b&gt;Các tuyến qua trạm:&lt;/b&gt; 04, 104, 13, 145, 23, 27, 32, 41, 62, 65, 94]]></description>
          <styleUrl>#busStopStyle</styleUrl>
          <Point>
            <coordinates>106.629825,10.822315,0</coordinates>
          </Point>
        </Placemark>
        <Placemark>
          <name>[QTP 011] Trạm KCN Tân Bình</name>
          <description><![CDATA[&lt;b&gt;Trạm:&lt;/b&gt; Trạm KCN Tân Bình&lt;br/&gt;&lt;b&gt;Mã trạm:&lt;/b&gt; QTP 011&lt;br/&gt;&lt;b&gt;Địa chỉ:&lt;/b&gt; 881 Trường Chinh&lt;br/&gt;&lt;b&gt;Khu vực:&lt;/b&gt; Phường Tây Thạnh, Quận Tân Phú&lt;br/&gt;&lt;b&gt;Các tuyến qua trạm:&lt;/b&gt; 04, 104, 13, 145, 23, 27, 28, 62, 65, 94]]></description>
          <styleUrl>#busStopStyle</styleUrl>
          <Point>
            <coordinates>106.630615,10.819386,0</coordinates>
          </Point>
        </Placemark>
        <Placemark>
          <name>[QTP 012] Ngã 3 Chế Lan Viên</name>
          <description><![CDATA[&lt;b&gt;Trạm:&lt;/b&gt; Ngã 3 Chế Lan Viên&lt;br/&gt;&lt;b&gt;Mã trạm:&lt;/b&gt; QTP 012&lt;br/&gt;&lt;b&gt;Địa chỉ:&lt;/b&gt; 831 (trước showroom o tô) Trường Chinh&lt;br/&gt;&lt;b&gt;Khu vực:&lt;/b&gt; Phường Tây Thạnh, Quận Tân Phú&lt;br/&gt;&lt;b&gt;Các tuyến qua trạm:&lt;/b&gt; 04, 104, 13, 145, 23, 27, 28, 62, 65, 94]]></description>
          <styleUrl>#busStopStyle</styleUrl>
          <Point>
            <coordinates>106.632377,10.814455,0</coordinates>
          </Point>
        </Placemark>
        <Placemark>
          <name>[QTP 014] Trạm Đài Liệt Sỹ</name>
          <description><![CDATA[&lt;b&gt;Trạm:&lt;/b&gt; Trạm Đài Liệt Sỹ&lt;br/&gt;&lt;b&gt;Mã trạm:&lt;/b&gt; QTP 014&lt;br/&gt;&lt;b&gt;Địa chỉ:&lt;/b&gt; 1/3 Trường Chinh&lt;br/&gt;&lt;b&gt;Khu vực:&lt;/b&gt; Phường Tây Thạnh, Quận Tân Phú&lt;br/&gt;&lt;b&gt;Các tuyến qua trạm:&lt;/b&gt; 04, 104, 13, 145, 16, 23, 27, 28, 48, 62, 63-1, 65, 94]]></description>
          <styleUrl>#busStopStyle</styleUrl>
          <Point>
            <coordinates>106.634019,10.808689,0</coordinates>
          </Point>
        </Placemark>
        <Placemark>
          <name>[QTB 118] Thượng Uyển</name>
          <description><![CDATA[&lt;b&gt;Trạm:&lt;/b&gt; Thượng Uyển&lt;br/&gt;&lt;b&gt;Mã trạm:&lt;/b&gt; QTB 118&lt;br/&gt;&lt;b&gt;Địa chỉ:&lt;/b&gt; 680 (Thượng Uyển) Cộng Hòa&lt;br/&gt;&lt;b&gt;Khu vực:&lt;/b&gt; None, Quận Tân Bình&lt;br/&gt;&lt;b&gt;Các tuyến qua trạm:&lt;/b&gt; 04, 104, 145, 28, 63-1]]></description>
          <styleUrl>#busStopStyle</styleUrl>
          <Point>
            <coordinates>106.636055,10.806144,0</coordinates>
          </Point>
        </Placemark>
        <Placemark>
          <name>[QTB 119] Ngã tư Tân Kỳ Tân Quý</name>
          <description><![CDATA[&lt;b&gt;Trạm:&lt;/b&gt; Ngã tư Tân Kỳ Tân Quý&lt;br/&gt;&lt;b&gt;Mã trạm:&lt;/b&gt; QTB 119&lt;br/&gt;&lt;b&gt;Địa chỉ:&lt;/b&gt; 401 Cộng Hòa&lt;br/&gt;&lt;b&gt;Khu vực:&lt;/b&gt; None, Quận Tân Bình&lt;br/&gt;&lt;b&gt;Các tuyến qua trạm:&lt;/b&gt; 04, 104, 145, 28, 63-1]]></description>
          <styleUrl>#busStopStyle</styleUrl>
          <Point>
            <coordinates>106.637887,10.803541,0</coordinates>
          </Point>
        </Placemark>
        <Placemark>
          <name>[QTB 120] ETown</name>
          <description><![CDATA[&lt;b&gt;Trạm:&lt;/b&gt; ETown&lt;br/&gt;&lt;b&gt;Mã trạm:&lt;/b&gt; QTB 120&lt;br/&gt;&lt;b&gt;Địa chỉ:&lt;/b&gt; ETown Cộng Hòa&lt;br/&gt;&lt;b&gt;Khu vực:&lt;/b&gt; None, Quận Tân Bình&lt;br/&gt;&lt;b&gt;Các tuyến qua trạm:&lt;/b&gt; 04, 104, 145, 28, 63-1]]></description>
          <styleUrl>#busStopStyle</styleUrl>
          <Point>
            <coordinates>106.640253,10.802371,0</coordinates>
          </Point>
        </Placemark>
        <Placemark>
          <name>[QTB 121] Ngã ba Bình Giã</name>
          <description><![CDATA[&lt;b&gt;Trạm:&lt;/b&gt; Ngã ba Bình Giã&lt;br/&gt;&lt;b&gt;Mã trạm:&lt;/b&gt; QTB 121&lt;br/&gt;&lt;b&gt;Địa chỉ:&lt;/b&gt; 303 Cộng Hòa&lt;br/&gt;&lt;b&gt;Khu vực:&lt;/b&gt; None, Quận Tân Bình&lt;br/&gt;&lt;b&gt;Các tuyến qua trạm:&lt;/b&gt; 04, 104, 145, 28, 63-1]]></description>
          <styleUrl>#busStopStyle</styleUrl>
          <Point>
            <coordinates>106.644292,10.802055,0</coordinates>
          </Point>
        </Placemark>
        <Placemark>
          <name>[QTB 122] Công ty Lô Hội</name>
          <description><![CDATA[&lt;b&gt;Trạm:&lt;/b&gt; Công ty Lô Hội&lt;br/&gt;&lt;b&gt;Mã trạm:&lt;/b&gt; QTB 122&lt;br/&gt;&lt;b&gt;Địa chỉ:&lt;/b&gt; 19A (Công ty Lô Hội) Cộng Hòa&lt;br/&gt;&lt;b&gt;Khu vực:&lt;/b&gt; None, Quận Tân Bình&lt;br/&gt;&lt;b&gt;Các tuyến qua trạm:&lt;/b&gt; 04, 104, 109, 145, 28, 63-1]]></description>
          <styleUrl>#busStopStyle</styleUrl>
          <Point>
            <coordinates>106.650413,10.801544,0</coordinates>
          </Point>
        </Placemark>
        <Placemark>
          <name>[QTB 123] Pico Plaza</name>
          <description><![CDATA[&lt;b&gt;Trạm:&lt;/b&gt; Pico Plaza&lt;br/&gt;&lt;b&gt;Mã trạm:&lt;/b&gt; QTB 123&lt;br/&gt;&lt;b&gt;Địa chỉ:&lt;/b&gt; 20Bis Cộng Hòa&lt;br/&gt;&lt;b&gt;Khu vực:&lt;/b&gt; None, Quận Tân Bình&lt;br/&gt;&lt;b&gt;Các tuyến qua trạm:&lt;/b&gt; 04, 104, 109, 145, 28, 63-1]]></description>
          <styleUrl>#busStopStyle</styleUrl>
          <Point>
            <coordinates>106.653637,10.801254,0</coordinates>
          </Point>
        </Placemark>
        <Placemark>
          <name>[QTB 124] Ngã ba Út tịch</name>
          <description><![CDATA[&lt;b&gt;Trạm:&lt;/b&gt; Ngã ba Út tịch&lt;br/&gt;&lt;b&gt;Mã trạm:&lt;/b&gt; QTB 124&lt;br/&gt;&lt;b&gt;Địa chỉ:&lt;/b&gt; 35-37 Cộng Hòa&lt;br/&gt;&lt;b&gt;Khu vực:&lt;/b&gt; None, Quận Tân Bình&lt;br/&gt;&lt;b&gt;Các tuyến qua trạm:&lt;/b&gt; 04, 104, 109, 145, 28, 63-1]]></description>
          <styleUrl>#busStopStyle</styleUrl>
          <Point>
            <coordinates>106.656679,10.800985,0</coordinates>
          </Point>
        </Placemark>
        <Placemark>
          <name>[QTB 125] Siêu thị Maximart Cộng Hòa</name>
          <description><![CDATA[&lt;b&gt;Trạm:&lt;/b&gt; Siêu thị Maximart Cộng Hòa&lt;br/&gt;&lt;b&gt;Mã trạm:&lt;/b&gt; QTB 125&lt;br/&gt;&lt;b&gt;Địa chỉ:&lt;/b&gt; Đối diện 58 (Siêu thị Maximart) Cộng Hòa&lt;br/&gt;&lt;b&gt;Khu vực:&lt;/b&gt; None, Quận Tân Bình&lt;br/&gt;&lt;b&gt;Các tuyến qua trạm:&lt;/b&gt; 04, 104, 109, 145, 28, 63-1]]></description>
          <styleUrl>#busStopStyle</styleUrl>
          <Point>
            <coordinates>106.658819,10.800833,0</coordinates>
          </Point>
        </Placemark>
        <Placemark>
          <name>[QTB 037] Bảo Tàng Miền Đông</name>
          <description><![CDATA[&lt;b&gt;Trạm:&lt;/b&gt; Bảo Tàng Miền Đông&lt;br/&gt;&lt;b&gt;Mã trạm:&lt;/b&gt; QTB 037&lt;br/&gt;&lt;b&gt;Địa chỉ:&lt;/b&gt; 247 Hoàng Văn Thụ&lt;br/&gt;&lt;b&gt;Khu vực:&lt;/b&gt; None, Quận Tân Bình&lt;br/&gt;&lt;b&gt;Các tuyến qua trạm:&lt;/b&gt; 04, 08, 104, 109, 152, 63-1, 64, 72-2B]]></description>
          <styleUrl>#busStopStyle</styleUrl>
          <Point>
            <coordinates>106.666372,10.800237,0</coordinates>
          </Point>
        </Placemark>
        <Placemark>
          <name>[QPN 006] Siêu Thị Big C</name>
          <description><![CDATA[&lt;b&gt;Trạm:&lt;/b&gt; Siêu Thị Big C&lt;br/&gt;&lt;b&gt;Mã trạm:&lt;/b&gt; QPN 006&lt;br/&gt;&lt;b&gt;Địa chỉ:&lt;/b&gt; 241 Hoàng Văn Thụ&lt;br/&gt;&lt;b&gt;Khu vực:&lt;/b&gt; None, Quận Phú Nhuận&lt;br/&gt;&lt;b&gt;Các tuyến qua trạm:&lt;/b&gt; 08, 104, 64]]></description>
          <styleUrl>#busStopStyle</styleUrl>
          <Point>
            <coordinates>106.669462,10.799942,0</coordinates>
          </Point>
        </Placemark>
        <Placemark>
          <name>[QPN 007] Khách Sạn Tân Sơn Nhất</name>
          <description><![CDATA[&lt;b&gt;Trạm:&lt;/b&gt; Khách Sạn Tân Sơn Nhất&lt;br/&gt;&lt;b&gt;Mã trạm:&lt;/b&gt; QPN 007&lt;br/&gt;&lt;b&gt;Địa chỉ:&lt;/b&gt; 217 Hoàng Văn Thụ&lt;br/&gt;&lt;b&gt;Khu vực:&lt;/b&gt; None, Quận Phú Nhuận&lt;br/&gt;&lt;b&gt;Các tuyến qua trạm:&lt;/b&gt; 08, 104, 64]]></description>
          <styleUrl>#busStopStyle</styleUrl>
          <Point>
            <coordinates>106.670873,10.799805,0</coordinates>
          </Point>
        </Placemark>
        <Placemark>
          <name>[QPN 008] Công an Phú Nhuận</name>
          <description><![CDATA[&lt;b&gt;Trạm:&lt;/b&gt; Công an Phú Nhuận&lt;br/&gt;&lt;b&gt;Mã trạm:&lt;/b&gt; QPN 008&lt;br/&gt;&lt;b&gt;Địa chỉ:&lt;/b&gt; 189 Hoàng Văn Thụ&lt;br/&gt;&lt;b&gt;Khu vực:&lt;/b&gt; None, Quận Phú Nhuận&lt;br/&gt;&lt;b&gt;Các tuyến qua trạm:&lt;/b&gt; 08, 104, 64]]></description>
          <styleUrl>#busStopStyle</styleUrl>
          <Point>
            <coordinates>106.673818,10.799542,0</coordinates>
          </Point>
        </Placemark>
        <Placemark>
          <name>[QPN 009] Ngã tư Phú Nhuận</name>
          <description><![CDATA[&lt;b&gt;Trạm:&lt;/b&gt; Ngã tư Phú Nhuận&lt;br/&gt;&lt;b&gt;Mã trạm:&lt;/b&gt; QPN 009&lt;br/&gt;&lt;b&gt;Địa chỉ:&lt;/b&gt; 59 Hoàng Văn Thụ&lt;br/&gt;&lt;b&gt;Khu vực:&lt;/b&gt; None, Quận Phú Nhuận&lt;br/&gt;&lt;b&gt;Các tuyến qua trạm:&lt;/b&gt; 03, 08, 104, 55, 64]]></description>
          <styleUrl>#busStopStyle</styleUrl>
          <Point>
            <coordinates>106.679354,10.799088,0</coordinates>
          </Point>
        </Placemark>
        <Placemark>
          <name>[QPN 015 ] Ngã tư Phan Xích Long</name>
          <description><![CDATA[&lt;b&gt;Trạm:&lt;/b&gt; Ngã tư Phan Xích Long&lt;br/&gt;&lt;b&gt;Mã trạm:&lt;/b&gt; QPN 015 &lt;br/&gt;&lt;b&gt;Địa chỉ:&lt;/b&gt; 171 Phan Đăng Lưu&lt;br/&gt;&lt;b&gt;Khu vực:&lt;/b&gt; None, Quận Phú Nhuận&lt;br/&gt;&lt;b&gt;Các tuyến qua trạm:&lt;/b&gt; 08, 104, 55, 64]]></description>
          <styleUrl>#busStopStyle</styleUrl>
          <Point>
            <coordinates>106.681741,10.800416,0</coordinates>
          </Point>
        </Placemark>
        <Placemark>
          <name>[QPN 016] Ngã Tư Thích Quảng Đức</name>
          <description><![CDATA[&lt;b&gt;Trạm:&lt;/b&gt; Ngã Tư Thích Quảng Đức&lt;br/&gt;&lt;b&gt;Mã trạm:&lt;/b&gt; QPN 016&lt;br/&gt;&lt;b&gt;Địa chỉ:&lt;/b&gt; 137-139B Phan Đăng Lưu&lt;br/&gt;&lt;b&gt;Khu vực:&lt;/b&gt; None, Quận Phú Nhuận&lt;br/&gt;&lt;b&gt;Các tuyến qua trạm:&lt;/b&gt; 08, 104, 55, 64]]></description>
          <styleUrl>#busStopStyle</styleUrl>
          <Point>
            <coordinates>106.684075,10.802682,0</coordinates>
          </Point>
        </Placemark>
        <Placemark>
          <name>[QPN 017] Trường Đại học Văn Hiến</name>
          <description><![CDATA[&lt;b&gt;Trạm:&lt;/b&gt; Trường Đại học Văn Hiến&lt;br/&gt;&lt;b&gt;Mã trạm:&lt;/b&gt; QPN 017&lt;br/&gt;&lt;b&gt;Địa chỉ:&lt;/b&gt; 109 Phan Đăng Lưu&lt;br/&gt;&lt;b&gt;Khu vực:&lt;/b&gt; None, Quận Phú Nhuận&lt;br/&gt;&lt;b&gt;Các tuyến qua trạm:&lt;/b&gt; 08, 104, 55, 64]]></description>
          <styleUrl>#busStopStyle</styleUrl>
          <Point>
            <coordinates>106.686108,10.803847,0</coordinates>
          </Point>
        </Placemark>
        <Placemark>
          <name>[QPN 018] Bệnh Viện Phước An</name>
          <description><![CDATA[&lt;b&gt;Trạm:&lt;/b&gt; Bệnh Viện Phước An&lt;br/&gt;&lt;b&gt;Mã trạm:&lt;/b&gt; QPN 018&lt;br/&gt;&lt;b&gt;Địa chỉ:&lt;/b&gt; 81 - 83 Phan Đăng Lưu&lt;br/&gt;&lt;b&gt;Khu vực:&lt;/b&gt; None, Quận Phú Nhuận&lt;br/&gt;&lt;b&gt;Các tuyến qua trạm:&lt;/b&gt; 08, 104, 55, 64]]></description>
          <styleUrl>#busStopStyle</styleUrl>
          <Point>
            <coordinates>106.687916,10.803615,0</coordinates>
          </Point>
        </Placemark>
        <Placemark>
          <name>[QPN 060] Công viên Văn hóa Phú Nhuận</name>
          <description><![CDATA[&lt;b&gt;Trạm:&lt;/b&gt; Công viên Văn hóa Phú Nhuận&lt;br/&gt;&lt;b&gt;Mã trạm:&lt;/b&gt; QPN 060&lt;br/&gt;&lt;b&gt;Địa chỉ:&lt;/b&gt; 47 Phan Đăng Lưu&lt;br/&gt;&lt;b&gt;Khu vực:&lt;/b&gt; Phường 07, Quận Phú Nhuận&lt;br/&gt;&lt;b&gt;Các tuyến qua trạm:&lt;/b&gt; 08, 104, 55, 64]]></description>
          <styleUrl>#busStopStyle</styleUrl>
          <Point>
            <coordinates>106.690384,10.803251,0</coordinates>
          </Point>
        </Placemark>
        <Placemark>
          <name>[QBTHT056] UBND Quận Bình Thạnh</name>
          <description><![CDATA[&lt;b&gt;Trạm:&lt;/b&gt; UBND Quận Bình Thạnh&lt;br/&gt;&lt;b&gt;Mã trạm:&lt;/b&gt; QBTHT056&lt;br/&gt;&lt;b&gt;Địa chỉ:&lt;/b&gt; 3 Phan Đăng Lưu&lt;br/&gt;&lt;b&gt;Khu vực:&lt;/b&gt; None, Quận Bình Thạnh&lt;br/&gt;&lt;b&gt;Các tuyến qua trạm:&lt;/b&gt; 08, 104, 55]]></description>
          <styleUrl>#busStopStyle</styleUrl>
          <Point>
            <coordinates>106.695153,10.802666,0</coordinates>
          </Point>
        </Placemark>
        <Placemark>
          <name>[QBTH 114] Lăng Ông Bà Chiểu</name>
          <description><![CDATA[&lt;b&gt;Trạm:&lt;/b&gt; Lăng Ông Bà Chiểu&lt;br/&gt;&lt;b&gt;Mã trạm:&lt;/b&gt; QBTH 114&lt;br/&gt;&lt;b&gt;Địa chỉ:&lt;/b&gt; 1 Phan Đăng Lưu&lt;br/&gt;&lt;b&gt;Khu vực:&lt;/b&gt; None, Quận Bình Thạnh&lt;br/&gt;&lt;b&gt;Các tuyến qua trạm:&lt;/b&gt; 08, 104, 55]]></description>
          <styleUrl>#busStopStyle</styleUrl>
          <Point>
            <coordinates>106.697159,10.802408,0</coordinates>
          </Point>
        </Placemark>
        <Placemark>
          <name>[QBTH 006] Chợ Bà Chiểu</name>
          <description><![CDATA[&lt;b&gt;Trạm:&lt;/b&gt; Chợ Bà Chiểu&lt;br/&gt;&lt;b&gt;Mã trạm:&lt;/b&gt; QBTH 006&lt;br/&gt;&lt;b&gt;Địa chỉ:&lt;/b&gt; 473C Bạch Đằng&lt;br/&gt;&lt;b&gt;Khu vực:&lt;/b&gt; None, Quận Bình Thạnh&lt;br/&gt;&lt;b&gt;Các tuyến qua trạm:&lt;/b&gt; 08, 104, 146, 24, 55, 91]]></description>
          <styleUrl>#busStopStyle</styleUrl>
          <Point>
            <coordinates>106.699471,10.802893,0</coordinates>
          </Point>
        </Placemark>
        <Placemark>
          <name>[QBTH 007] Tòa Án nhân dân Quận Bình Thạnh</name>
          <description><![CDATA[&lt;b&gt;Trạm:&lt;/b&gt; Tòa Án nhân dân Quận Bình Thạnh&lt;br/&gt;&lt;b&gt;Mã trạm:&lt;/b&gt; QBTH 007&lt;br/&gt;&lt;b&gt;Địa chỉ:&lt;/b&gt; 449 Bạch Đằng&lt;br/&gt;&lt;b&gt;Khu vực:&lt;/b&gt; None, Quận Bình Thạnh&lt;br/&gt;&lt;b&gt;Các tuyến qua trạm:&lt;/b&gt; 08, 104, 146, 24, 55, 91]]></description>
          <styleUrl>#busStopStyle</styleUrl>
          <Point>
            <coordinates>106.701204,10.803615,0</coordinates>
          </Point>
        </Placemark>
        <Placemark>
          <name>[QBTH 008] Chùa Bồ Đề</name>
          <description><![CDATA[&lt;b&gt;Trạm:&lt;/b&gt; Chùa Bồ Đề&lt;br/&gt;&lt;b&gt;Mã trạm:&lt;/b&gt; QBTH 008&lt;br/&gt;&lt;b&gt;Địa chỉ:&lt;/b&gt; 375 Bạch Đằng&lt;br/&gt;&lt;b&gt;Khu vực:&lt;/b&gt; None, Quận Bình Thạnh&lt;br/&gt;&lt;b&gt;Các tuyến qua trạm:&lt;/b&gt; 08, 104, 146, 24, 55, 91]]></description>
          <styleUrl>#busStopStyle</styleUrl>
          <Point>
            <coordinates>106.703988,10.803293,0</coordinates>
          </Point>
        </Placemark>
        <Placemark>
          <name>[QBTH 009] Nhà thờ Hàng Xanh</name>
          <description><![CDATA[&lt;b&gt;Trạm:&lt;/b&gt; Nhà thờ Hàng Xanh&lt;br/&gt;&lt;b&gt;Mã trạm:&lt;/b&gt; QBTH 009&lt;br/&gt;&lt;b&gt;Địa chỉ:&lt;/b&gt; 235 Bạch Đằng&lt;br/&gt;&lt;b&gt;Khu vực:&lt;/b&gt; None, Quận Bình Thạnh&lt;br/&gt;&lt;b&gt;Các tuyến qua trạm:&lt;/b&gt; 08, 104, 146, 24, 55, 91]]></description>
          <styleUrl>#busStopStyle</styleUrl>
          <Point>
            <coordinates>106.706713,10.803077,0</coordinates>
          </Point>
        </Placemark>
        <Placemark>
          <name>[QBTH 010] Chợ Hàng Xanh</name>
          <description><![CDATA[&lt;b&gt;Trạm:&lt;/b&gt; Chợ Hàng Xanh&lt;br/&gt;&lt;b&gt;Mã trạm:&lt;/b&gt; QBTH 010&lt;br/&gt;&lt;b&gt;Địa chỉ:&lt;/b&gt; 39 Bạch Đằng&lt;br/&gt;&lt;b&gt;Khu vực:&lt;/b&gt; None, Quận Bình Thạnh&lt;br/&gt;&lt;b&gt;Các tuyến qua trạm:&lt;/b&gt; 05, 08, 104, 146, 161, 24, 55, 60-3, 67, 91]]></description>
          <styleUrl>#busStopStyle</styleUrl>
          <Point>
            <coordinates>106.710511,10.802793,0</coordinates>
          </Point>
        </Placemark>
        <Placemark>
          <name>[QBTH 059] Đại học Hutech</name>
          <description><![CDATA[&lt;b&gt;Trạm:&lt;/b&gt; Đại học Hutech&lt;br/&gt;&lt;b&gt;Mã trạm:&lt;/b&gt; QBTH 059&lt;br/&gt;&lt;b&gt;Địa chỉ:&lt;/b&gt; 510-512 Điện Biên Phủ&lt;br/&gt;&lt;b&gt;Khu vực:&lt;/b&gt; None, Quận Bình Thạnh&lt;br/&gt;&lt;b&gt;Các tuyến qua trạm:&lt;/b&gt; 06, 10, 104, 150, 157, 159, 161, 30, 43, 52, 55, 60-3, 67, 72-1]]></description>
          <styleUrl>#busStopStyle</styleUrl>
          <Point>
            <coordinates>106.714255,10.800827,0</coordinates>
          </Point>
        </Placemark>
        <Placemark>
          <name>[QBTH 058] Khu Du lịch Văn Thánh</name>
          <description><![CDATA[&lt;b&gt;Trạm:&lt;/b&gt; Khu Du lịch Văn Thánh&lt;br/&gt;&lt;b&gt;Mã trạm:&lt;/b&gt; QBTH 058&lt;br/&gt;&lt;b&gt;Địa chỉ:&lt;/b&gt; 600 Điện Biên Phủ&lt;br/&gt;&lt;b&gt;Khu vực:&lt;/b&gt; None, Quận Bình Thạnh&lt;br/&gt;&lt;b&gt;Các tuyến qua trạm:&lt;/b&gt; 06, 10, 104, 150, 157, 159, 161, 30, 43, 52, 55, 60-3, 67]]></description>
          <styleUrl>#busStopStyle</styleUrl>
          <Point>
            <coordinates>106.717404,10.799531,0</coordinates>
          </Point>
        </Placemark>
        <Placemark>
          <name>[QBTH 057] Cầu Sài Gòn</name>
          <description><![CDATA[&lt;b&gt;Trạm:&lt;/b&gt; Cầu Sài Gòn&lt;br/&gt;&lt;b&gt;Mã trạm:&lt;/b&gt; QBTH 057&lt;br/&gt;&lt;b&gt;Địa chỉ:&lt;/b&gt; 658 Điện Biên Phủ&lt;br/&gt;&lt;b&gt;Khu vực:&lt;/b&gt; None, Quận Bình Thạnh&lt;br/&gt;&lt;b&gt;Các tuyến qua trạm:&lt;/b&gt; 06, 10, 104, 150, 157, 159, 160, 161, 30, 43, 52, 55, 60-3, 67]]></description>
          <styleUrl>#busStopStyle</styleUrl>
          <Point>
            <coordinates>106.719496,10.798525,0</coordinates>
          </Point>
        </Placemark>
        <Placemark>
          <name>[QBTH 176] Công viên Cầu Sài Gòn</name>
          <description><![CDATA[&lt;b&gt;Trạm:&lt;/b&gt; Công viên Cầu Sài Gòn&lt;br/&gt;&lt;b&gt;Mã trạm:&lt;/b&gt; QBTH 176&lt;br/&gt;&lt;b&gt;Địa chỉ:&lt;/b&gt; Phía trước 681 Điện Biên Phủ Nguyễn Hữu Cảnh&lt;br/&gt;&lt;b&gt;Khu vực:&lt;/b&gt; Phường 25, Quận Bình Thạnh&lt;br/&gt;&lt;b&gt;Các tuyến qua trạm:&lt;/b&gt; 104, 158, 159, 160, 161, 30, 55]]></description>
          <styleUrl>#busStopStyle</styleUrl>
          <Point>
            <coordinates>106.722217,10.799053,0</coordinates>
          </Point>
        </Placemark>
        <Placemark>
          <name>[QBTH 056] Cầu Sài Gòn</name>
          <description><![CDATA[&lt;b&gt;Trạm:&lt;/b&gt; Cầu Sài Gòn&lt;br/&gt;&lt;b&gt;Mã trạm:&lt;/b&gt; QBTH 056&lt;br/&gt;&lt;b&gt;Địa chỉ:&lt;/b&gt; 24(597) Điện Biên Phủ&lt;br/&gt;&lt;b&gt;Khu vực:&lt;/b&gt; None, Quận Bình Thạnh&lt;br/&gt;&lt;b&gt;Các tuyến qua trạm:&lt;/b&gt; 06, 10, 104, 150, 157, 158, 159, 160, 161, 30, 43, 52, 55, 60-3, 67]]></description>
          <styleUrl>#busStopStyle</styleUrl>
          <Point>
            <coordinates>106.719571,10.798893,0</coordinates>
          </Point>
        </Placemark>
        <Placemark>
          <name>[QHBT_2] Bến xe Văn Thánh</name>
          <description><![CDATA[&lt;b&gt;Trạm:&lt;/b&gt; Bến xe Văn Thánh&lt;br/&gt;&lt;b&gt;Mã trạm:&lt;/b&gt; QHBT_2&lt;br/&gt;&lt;b&gt;Địa chỉ:&lt;/b&gt; BX Văn Thánh Điện Biên Phủ&lt;br/&gt;&lt;b&gt;Khu vực:&lt;/b&gt; Phường 01, Quận Bình Thạnh&lt;br/&gt;&lt;b&gt;Các tuyến qua trạm:&lt;/b&gt; 104, 157, 158, 161, 30, 55]]></description>
          <styleUrl>#busStopStyle</styleUrl>
          <Point>
            <coordinates>106.717501,10.801317,0</coordinates>
          </Point>
        </Placemark>
      </Folder>
    </Folder>
    <Folder>
      <name>Lượt về: Bến xe Văn Thánh → Bến xe An Sương (16.35 km)</name>
      <Placemark>
        <name>B 104 - Đường đi Lượt về</name>
        <description><![CDATA[&lt;b&gt;Tuyến:&lt;/b&gt; B 104 - Bến xe An Sương - Bến xe buýt Văn Thánh&lt;br/&gt;&lt;b&gt;Lượt:&lt;/b&gt; Lượt về&lt;br/&gt;&lt;b&gt;Cự ly:&lt;/b&gt; 16.35 km&lt;br/&gt;&lt;b&gt;Thời gian hành trình:&lt;/b&gt; 45 phút&lt;br/&gt;&lt;b&gt;Thời gian hoạt động:&lt;/b&gt; 4:30 - 22:00]]></description>
        <styleUrl>#routeLineStyle</styleUrl>
        <LineString>
          <tessellate>1</tessellate>
          <coordinates>106.71749878,10.80131721,0 106.71749878,10.80131721,0 106.71749878,10.80131721,0 106.71749878,10.80131721,0 106.71846771,10.80090618,0 106.71820068,10.80039024,0 106.71793365,10.79985237,0 106.71718597,10.80022621,0 106.71722412,10.8002739,0 106.71722412,10.8002739,0 106.71722412,10.8002739,0 106.71722412,10.8002739,0 106.71722412,10.8002739,0 106.71722412,10.8002739,0 106.71722412,10.8002739,0 106.71722412,10.8002739,0 106.71722412,10.8002739,0 106.71686554,10.80035305,0 106.7165451,10.80042171,0 106.71604919,10.80069065,0 106.71582794,10.80087471,0 106.71485901,10.80122757,0 106.71485901,10.80122757,0 106.71485901,10.80122757,0 106.71485901,10.80122757,0 106.71485901,10.80122757,0 106.71485901,10.80122757,0 106.71485901,10.80122757,0 106.71485901,10.80122757,0 106.71485901,10.80122757,0 106.71485901,10.80122757,0 106.71392822,10.80148602,0 106.71337891,10.80161762,0 106.71283722,10.80169678,0 106.71283722,10.80169678,0 106.71283722,10.80169678,0 106.71283722,10.80169678,0 106.71283722,10.80169678,0 106.71283722,10.80169678,0 106.71283722,10.80158615,0 106.71229553,10.80159092,0 106.71192169,10.80169964,0 106.71166229,10.80185032,0 106.7115097,10.80206013,0 106.71140289,10.80236626,0 106.71141052,10.80284023,0 106.71043396,10.80292988,0 106.71044159,10.80299759,0 106.71044159,10.80299759,0 106.71044159,10.80299759,0 106.71044159,10.80299759,0 106.71044159,10.80293465,0 106.70922852,10.80302238,0 106.70802307,10.80310917,0 106.7080307,10.80317688,0 106.7080307,10.80317688,0 106.7080307,10.80317688,0 106.7080307,10.80310917,0 106.70703125,10.80318546,0 106.70602417,10.80326176,0 106.70501709,10.80333805,0 106.70401764,10.80341434,0 106.70401764,10.80348301,0 106.70401764,10.80348301,0 106.70401764,10.80348301,0 106.70401764,10.80348301,0 106.70402527,10.80340385,0 106.70278931,10.80359936,0 106.70159912,10.80389404,0 106.70122528,10.80379391,0 106.70118713,10.80387306,0 106.70118713,10.80387306,0 106.70118713,10.80387306,0 106.70118713,10.80387306,0 106.70121765,10.80381489,0 106.70030975,10.80344105,0 106.69939423,10.80306721,0 106.69937134,10.80312538,0 106.69937134,10.80312538,0 106.69937134,10.80312538,0 106.69937134,10.80312538,0 106.69937134,10.80312538,0 106.69937134,10.80312538,0 106.69940948,10.80305576,0 106.69857025,10.80270863,0 106.69801331,10.80248737,0 106.69689941,10.80260849,0 106.69577789,10.80275059,0 106.69578552,10.80281925,0 106.69578552,10.80281925,0 106.69578552,10.80281925,0 106.69578552,10.80281925,0 106.69578552,10.80281925,0 106.69578552,10.80281925,0 106.69579315,10.80272961,0 106.694664,10.80288219,0 106.69354248,10.80303478,0 106.69354248,10.80311871,0 106.69354248,10.80311871,0 106.69354248,10.80311871,0 106.69354248,10.80311871,0 106.69353485,10.80303478,0 106.69264221,10.80315399,0 106.69174194,10.80327225,0 106.69174194,10.80336189,0 106.69174194,10.80336189,0 106.69174194,10.80336189,0 106.69174194,10.80336189,0 106.69174194,10.80336189,0 106.69172668,10.80326176,0 106.69069672,10.80339146,0 106.68967438,10.8035202,0 106.68864441,10.80364895,0 106.68761444,10.80377769,0 106.68763733,10.80387783,0 106.68763733,10.80387783,0 106.68763733,10.80387783,0 106.68763733,10.80387783,0 106.6876297,10.80378342,0 106.68688202,10.80388641,0 106.68612671,10.80398846,0 106.68611908,10.8040781,0 106.68611908,10.8040781,0 106.68611908,10.8040781,0 106.68611145,10.80397797,0 106.68553162,10.80399418,0 106.685112,10.80384636,0 106.68470764,10.80344963,0 106.68418884,10.80295563,0 106.68366241,10.80246067,0 106.68360901,10.80252934,0 106.68360901,10.80252934,0 106.68360901,10.80252934,0 106.68360901,10.80252934,0 106.68367004,10.80246639,0 106.68282318,10.8016367,0 106.68195343,10.80080605,0 106.6818924,10.80088043,0 106.6818924,10.80088043,0 106.6818924,10.80088043,0 106.6818924,10.80088043,0 106.6818924,10.80088043,0 106.68195343,10.80080605,0 106.68131256,10.80018425,0 106.68083191,10.79972839,0 106.68034363,10.79927254,0 106.68000793,10.79918957,0 106.679245,10.7992363,0 106.67923737,10.79932499,0 106.67923737,10.79932499,0 106.67923737,10.79932499,0 106.67923737,10.79932499,0 106.67923737,10.79932499,0 106.67923737,10.79932499,0 106.67922211,10.79924679,0 106.67754364,10.79942036,0 106.6759491,10.79954147,0 106.67434692,10.79966259,0 106.67436218,10.79972076,0 106.67436218,10.79972076,0 106.67436218,10.79972076,0 106.67436218,10.79972076,0 106.67436218,10.79972076,0 106.67436218,10.79972076,0 106.67436218,10.79964733,0 106.67316437,10.79976559,0 106.67195892,10.7998724,0 106.67076111,10.79997921,0 106.66956329,10.80007362,0 106.66955566,10.80015278,0 106.66955566,10.80015278,0 106.66955566,10.80015278,0 106.66955566,10.80015278,0 106.66955566,10.80015278,0 106.66955566,10.80015278,0 106.66955566,10.80015278,0 106.66955566,10.80015278,0 106.66955566,10.80005836,0 106.6686554,10.8001318,0 106.6677475,10.80020523,0 106.66724396,10.80049515,0 106.66674042,10.80079556,0 106.66677856,10.80084801,0 106.66677856,10.80084801,0 106.66677856,10.80084801,0 106.66677856,10.80084801,0 106.66677856,10.80084801,0 106.66677856,10.80084801,0 106.66677856,10.80084801,0 106.66677856,10.80084801,0 106.66674805,10.80081177,0 106.66564941,10.80145168,0 106.66513062,10.80173874,0 106.66455078,10.8020916,0 106.66375732,10.80250263,0 106.66350555,10.80256081,0 106.66291046,10.80196285,0 106.66231537,10.8013649,0 106.66231537,10.8013649,0 106.66231537,10.8013649,0 106.66231537,10.8013649,0 106.66231537,10.8013649,0 106.66210175,10.80111217,0 106.66160583,10.80081654,0 106.66070557,10.8008585,0 106.65916443,10.80098534,0 106.65916443,10.80103779,0 106.65916443,10.80103779,0 106.65916443,10.80103779,0 106.65916443,10.80099106,0 106.65795898,10.80108833,0 106.65675354,10.80118561,0 106.65675354,10.80123806,0 106.65675354,10.80123806,0 106.65675354,10.80123806,0 106.65675354,10.80123806,0 106.65674591,10.80117989,0 106.65578461,10.80126476,0 106.65481567,10.80134869,0 106.65481567,10.80141163,0 106.65481567,10.80141163,0 106.65481567,10.80141163,0 106.65481567,10.80141163,0 106.65481567,10.80141163,0 106.65481567,10.80134869,0 106.65298462,10.80149651,0 106.65112305,10.80167007,0 106.65113068,10.80172825,0 106.65113068,10.80172825,0 106.65113068,10.80172825,0 106.65113068,10.80172825,0 106.65113068,10.80165958,0 106.65008545,10.80175495,0 106.64904022,10.80184937,0 106.647995,10.80194759,0 106.64694977,10.80204487,0 106.64694977,10.80210209,0 106.64694977,10.80210209,0 106.64694977,10.80210209,0 106.64694977,10.80210209,0 106.64694214,10.80203915,0 106.64572906,10.80213165,0 106.64451599,10.80222321,0 106.64450836,10.80227566,0 106.64450836,10.80227566,0 106.64450836,10.80227566,0 106.64450836,10.80227566,0 106.64450836,10.80227566,0 106.64451599,10.80222321,0 106.64363098,10.80229568,0 106.64273834,10.80236816,0 106.6418457,10.80244064,0 106.64095306,10.80251312,0 106.64096832,10.8025713,0 106.64096832,10.8025713,0 106.64096832,10.8025713,0 106.64096832,10.8025713,0 106.64096832,10.80249214,0 106.63981628,10.80259228,0 106.6390152,10.80281925,0 106.63853455,10.80309868,0 106.63800812,10.80362988,0 106.63800812,10.80362988,0 106.6375885,10.80430984,0 106.63712311,10.80496883,0 106.63668823,10.8056488,0 106.63615417,10.80628586,0 106.63619232,10.80631256,0 106.63619232,10.80631256,0 106.63619232,10.80631256,0 106.63619232,10.80631256,0 106.63619232,10.80631256,0 106.63614655,10.80628109,0 106.63527679,10.80707169,0 106.63488007,10.80753517,0 106.6346817,10.80786133,0 106.63454437,10.8082943,0 106.63463593,10.80831432,0 106.63463593,10.80831432,0 106.63463593,10.80831432,0 106.63453674,10.80828857,0 106.63423157,10.80925274,0 106.63395691,10.81023788,0 106.63365173,10.81122112,0 106.63334656,10.81220436,0 106.63334656,10.81220436,0 106.63334656,10.81220436,0 106.63334656,10.81220436,0 106.63284302,10.81374741,0 106.63240051,10.81526852,0 106.63193512,10.81680012,0 106.6314621,10.81833172,0 106.6314621,10.81833172,0 106.6314621,10.81833172,0 106.6314621,10.81833172,0 106.63121033,10.81916523,0 106.63095856,10.81999969,0 106.63070679,10.82083321,0 106.63045502,10.82166672,0 106.6301651,10.82242012,0 106.63025665,10.82245159,0 106.63025665,10.82245159,0 106.63025665,10.82245159,0 106.63025665,10.82245159,0 106.63014984,10.82243061,0 106.62980652,10.82309532,0 106.6292572,10.82365322,0 106.62804413,10.82470703,0 106.62689209,10.82580853,0 106.62576294,10.82689381,0 106.6258316,10.82695675,0 106.6258316,10.82695675,0 106.6258316,10.82695675,0 106.62575531,10.82691002,0 106.62539673,10.82731533,0 106.62508392,10.82772064,0 106.62480164,10.82815266,0 106.62451935,10.82858467,0 106.62459564,10.82862663,0 106.62459564,10.82862663,0 106.62448883,10.8285799,0 106.62399292,10.82936001,0 106.62349701,10.83013916,0 106.6230011,10.83090878,0 106.62250519,10.83167839,0 106.62201691,10.83244228,0 106.621521,10.83320618,0 106.62102509,10.83397007,0 106.62052917,10.83473396,0 106.6206131,10.83478069,0 106.6206131,10.83478069,0 106.62052155,10.83473873,0 106.61995697,10.83561897,0 106.61940002,10.83649921,0 106.61885071,10.83733177,0 106.61830139,10.8381691,0 106.61840057,10.83822155,0 106.61840057,10.83822155,0 106.61840057,10.83822155,0 106.61840057,10.83822155,0 106.61840057,10.83822155,0 106.61840057,10.83822155,0 106.61840057,10.83822155,0 106.61840057,10.83822155,0 106.61830902,10.83818531,0 106.61750793,10.83943081,0 106.61670685,10.84067726,0 106.61611938,10.84155941,0 106.61553955,10.84244156,0 106.61521149,10.84300613,0 106.61458588,10.84398365,0 106.61395264,10.84496021,0 106.6134491,10.84577656,0 106.61351776,10.84580326,0 106.61351776,10.84580326,0 106.61351776,10.84580326,0 106.61351776,10.84580326,0 106.61351776,10.84580326,0 106.61351776,10.84580326,0 106.61351776,10.84580326,0 106.61351776,10.84580326,0 106.61351776,10.84580326,0 106.61351776,10.84580326,0 106.61343384,10.8457613,0 106.61292267,10.84655094,0 106.61248016,10.8472681,0 106.61235809,10.84719372,0 106.61273193,10.84657288,0 106.61313629,10.84595203,0 106.61356354,10.84520817,0 106.61352539,10.84518719,0 106.61352539,10.84518719,0 106.61352539,10.84518719,0 106.61352539,10.84518719,0 106.61352539,10.84518719,0 106.61352539,10.84518719,0 106.61358643,10.84522343,0 106.61406708,10.84443855,0 106.61330414,10.84384346,0 106.6133728,10.8437376,0</coordinates>
        </LineString>
      </Placemark>
      <Folder>
        <name>Trạm dừng (41 trạm)</name>
        <Placemark>
          <name>[QHBT_2] Bến xe Văn Thánh</name>
          <description><![CDATA[&lt;b&gt;Trạm:&lt;/b&gt; Bến xe Văn Thánh&lt;br/&gt;&lt;b&gt;Mã trạm:&lt;/b&gt; QHBT_2&lt;br/&gt;&lt;b&gt;Địa chỉ:&lt;/b&gt; BX Văn Thánh Điện Biên Phủ&lt;br/&gt;&lt;b&gt;Khu vực:&lt;/b&gt; Phường 01, Quận Bình Thạnh&lt;br/&gt;&lt;b&gt;Các tuyến qua trạm:&lt;/b&gt; 104, 157, 158, 161, 30, 55]]></description>
          <styleUrl>#busStopStyle</styleUrl>
          <Point>
            <coordinates>106.717501,10.801317,0</coordinates>
          </Point>
        </Placemark>
        <Placemark>
          <name>[QBTH 055] Khu Du lịch Văn Thánh</name>
          <description><![CDATA[&lt;b&gt;Trạm:&lt;/b&gt; Khu Du lịch Văn Thánh&lt;br/&gt;&lt;b&gt;Mã trạm:&lt;/b&gt; QBTH 055&lt;br/&gt;&lt;b&gt;Địa chỉ:&lt;/b&gt; 152/72c(559) Điện Biên Phủ&lt;br/&gt;&lt;b&gt;Khu vực:&lt;/b&gt; None, Quận Bình Thạnh&lt;br/&gt;&lt;b&gt;Các tuyến qua trạm:&lt;/b&gt; 06, 10, 104, 150, 157, 158, 159, 161, 30, 43, 44, 52, 55, 60-3, 67]]></description>
          <styleUrl>#busStopStyle</styleUrl>
          <Point>
            <coordinates>106.717227,10.800274,0</coordinates>
          </Point>
        </Placemark>
        <Placemark>
          <name>[QBTH 054] Đại học Hutech</name>
          <description><![CDATA[&lt;b&gt;Trạm:&lt;/b&gt; Đại học Hutech&lt;br/&gt;&lt;b&gt;Mã trạm:&lt;/b&gt; QBTH 054&lt;br/&gt;&lt;b&gt;Địa chỉ:&lt;/b&gt; 483 Điện Biên Phủ&lt;br/&gt;&lt;b&gt;Khu vực:&lt;/b&gt; None, Quận Bình Thạnh&lt;br/&gt;&lt;b&gt;Các tuyến qua trạm:&lt;/b&gt; 06, 10, 104, 14, 150, 157, 159, 161, 19, 30, 43, 44, 45, 52, 55, 60-3, 67, 72-1]]></description>
          <styleUrl>#busStopStyle</styleUrl>
          <Point>
            <coordinates>106.714856,10.801228,0</coordinates>
          </Point>
        </Placemark>
        <Placemark>
          <name>[QBTH 053] Cây xăng dầu</name>
          <description><![CDATA[&lt;b&gt;Trạm:&lt;/b&gt; Cây xăng dầu&lt;br/&gt;&lt;b&gt;Mã trạm:&lt;/b&gt; QBTH 053&lt;br/&gt;&lt;b&gt;Địa chỉ:&lt;/b&gt; 419 Điện Biên Phủ&lt;br/&gt;&lt;b&gt;Khu vực:&lt;/b&gt; None, Quận Bình Thạnh&lt;br/&gt;&lt;b&gt;Các tuyến qua trạm:&lt;/b&gt; 06, 10, 104, 14, 150, 157, 159, 161, 19, 30, 43, 44, 45, 52, 55, 67]]></description>
          <styleUrl>#busStopStyle</styleUrl>
          <Point>
            <coordinates>106.712834,10.801697,0</coordinates>
          </Point>
        </Placemark>
        <Placemark>
          <name>[QBTH 001] Chợ Hàng Xanh</name>
          <description><![CDATA[&lt;b&gt;Trạm:&lt;/b&gt; Chợ Hàng Xanh&lt;br/&gt;&lt;b&gt;Mã trạm:&lt;/b&gt; QBTH 001&lt;br/&gt;&lt;b&gt;Địa chỉ:&lt;/b&gt; 18 Bạch Đằng&lt;br/&gt;&lt;b&gt;Khu vực:&lt;/b&gt; None, Quận Bình Thạnh&lt;br/&gt;&lt;b&gt;Các tuyến qua trạm:&lt;/b&gt; 104, 55]]></description>
          <styleUrl>#busStopStyle</styleUrl>
          <Point>
            <coordinates>106.710441,10.802998,0</coordinates>
          </Point>
        </Placemark>
        <Placemark>
          <name>[QBTH 002] Nhà thờ Hàng Xanh</name>
          <description><![CDATA[&lt;b&gt;Trạm:&lt;/b&gt; Nhà thờ Hàng Xanh&lt;br/&gt;&lt;b&gt;Mã trạm:&lt;/b&gt; QBTH 002&lt;br/&gt;&lt;b&gt;Địa chỉ:&lt;/b&gt; 96 Bạch Đằng&lt;br/&gt;&lt;b&gt;Khu vực:&lt;/b&gt; None, Quận Bình Thạnh&lt;br/&gt;&lt;b&gt;Các tuyến qua trạm:&lt;/b&gt; 08, 104, 146, 24, 55, 91]]></description>
          <styleUrl>#busStopStyle</styleUrl>
          <Point>
            <coordinates>106.708032,10.803177,0</coordinates>
          </Point>
        </Placemark>
        <Placemark>
          <name>[QBTH 003] Chùa Bồ Đề</name>
          <description><![CDATA[&lt;b&gt;Trạm:&lt;/b&gt; Chùa Bồ Đề&lt;br/&gt;&lt;b&gt;Mã trạm:&lt;/b&gt; QBTH 003&lt;br/&gt;&lt;b&gt;Địa chỉ:&lt;/b&gt; 246 Bạch Đằng&lt;br/&gt;&lt;b&gt;Khu vực:&lt;/b&gt; None, Quận Bình Thạnh&lt;br/&gt;&lt;b&gt;Các tuyến qua trạm:&lt;/b&gt; 08, 104, 146, 24, 55, 91]]></description>
          <styleUrl>#busStopStyle</styleUrl>
          <Point>
            <coordinates>106.704015,10.803483,0</coordinates>
          </Point>
        </Placemark>
        <Placemark>
          <name>[QBTH 004] Tòa Án nhân dân Quận Bình Thạnh</name>
          <description><![CDATA[&lt;b&gt;Trạm:&lt;/b&gt; Tòa Án nhân dân Quận Bình Thạnh&lt;br/&gt;&lt;b&gt;Mã trạm:&lt;/b&gt; QBTH 004&lt;br/&gt;&lt;b&gt;Địa chỉ:&lt;/b&gt; 288 Bạch Đằng&lt;br/&gt;&lt;b&gt;Khu vực:&lt;/b&gt; None, Quận Bình Thạnh&lt;br/&gt;&lt;b&gt;Các tuyến qua trạm:&lt;/b&gt; 08, 104, 146, 24, 55, 91]]></description>
          <styleUrl>#busStopStyle</styleUrl>
          <Point>
            <coordinates>106.701187,10.803873,0</coordinates>
          </Point>
        </Placemark>
        <Placemark>
          <name>[QBTH 005] Chợ Bà Chiểu</name>
          <description><![CDATA[&lt;b&gt;Trạm:&lt;/b&gt; Chợ Bà Chiểu&lt;br/&gt;&lt;b&gt;Mã trạm:&lt;/b&gt; QBTH 005&lt;br/&gt;&lt;b&gt;Địa chỉ:&lt;/b&gt; 368 Bạch Đằng&lt;br/&gt;&lt;b&gt;Khu vực:&lt;/b&gt; None, Quận Bình Thạnh&lt;br/&gt;&lt;b&gt;Các tuyến qua trạm:&lt;/b&gt; 08, 104, 146, 24, 55, 91]]></description>
          <styleUrl>#busStopStyle</styleUrl>
          <Point>
            <coordinates>106.699374,10.803125,0</coordinates>
          </Point>
        </Placemark>
        <Placemark>
          <name>[QBTH 115] UBND Quận Bình Thạnh</name>
          <description><![CDATA[&lt;b&gt;Trạm:&lt;/b&gt; UBND Quận Bình Thạnh&lt;br/&gt;&lt;b&gt;Mã trạm:&lt;/b&gt; QBTH 115&lt;br/&gt;&lt;b&gt;Địa chỉ:&lt;/b&gt; 6-8 Phan Đăng Lưu&lt;br/&gt;&lt;b&gt;Khu vực:&lt;/b&gt; Phường 14, Quận Bình Thạnh&lt;br/&gt;&lt;b&gt;Các tuyến qua trạm:&lt;/b&gt; 08, 104, 18, 31, 36, 55, 91]]></description>
          <styleUrl>#busStopStyle</styleUrl>
          <Point>
            <coordinates>106.695786,10.802819,0</coordinates>
          </Point>
        </Placemark>
        <Placemark>
          <name>[QBTH 116] Bệnh Viện Gia Định</name>
          <description><![CDATA[&lt;b&gt;Trạm:&lt;/b&gt; Bệnh Viện Gia Định&lt;br/&gt;&lt;b&gt;Mã trạm:&lt;/b&gt; QBTH 116&lt;br/&gt;&lt;b&gt;Địa chỉ:&lt;/b&gt; 10 Phan Đăng Lưu&lt;br/&gt;&lt;b&gt;Khu vực:&lt;/b&gt; Phường 12, Quận Bình Thạnh&lt;br/&gt;&lt;b&gt;Các tuyến qua trạm:&lt;/b&gt; 08, 104, 146, 55, 64]]></description>
          <styleUrl>#busStopStyle</styleUrl>
          <Point>
            <coordinates>106.693543,10.803119,0</coordinates>
          </Point>
        </Placemark>
        <Placemark>
          <name>[QBTH 117] PCCC quận Bình Thạnh</name>
          <description><![CDATA[&lt;b&gt;Trạm:&lt;/b&gt; PCCC quận Bình Thạnh&lt;br/&gt;&lt;b&gt;Mã trạm:&lt;/b&gt; QBTH 117&lt;br/&gt;&lt;b&gt;Địa chỉ:&lt;/b&gt; 14-16 Phan Đăng Lưu&lt;br/&gt;&lt;b&gt;Khu vực:&lt;/b&gt; None, Quận Bình Thạnh&lt;br/&gt;&lt;b&gt;Các tuyến qua trạm:&lt;/b&gt; 08, 104, 55, 64]]></description>
          <styleUrl>#busStopStyle</styleUrl>
          <Point>
            <coordinates>106.691741,10.803362,0</coordinates>
          </Point>
        </Placemark>
        <Placemark>
          <name>[QPN 019] Bệnh viện Phước An</name>
          <description><![CDATA[&lt;b&gt;Trạm:&lt;/b&gt; Bệnh viện Phước An&lt;br/&gt;&lt;b&gt;Mã trạm:&lt;/b&gt; QPN 019&lt;br/&gt;&lt;b&gt;Địa chỉ:&lt;/b&gt; 36A Phan Đăng Lưu&lt;br/&gt;&lt;b&gt;Khu vực:&lt;/b&gt; None, Quận Phú Nhuận&lt;br/&gt;&lt;b&gt;Các tuyến qua trạm:&lt;/b&gt; 08, 104, 55, 64]]></description>
          <styleUrl>#busStopStyle</styleUrl>
          <Point>
            <coordinates>106.687637,10.803878,0</coordinates>
          </Point>
        </Placemark>
        <Placemark>
          <name>[QPN 020] Đại học Văn Hiến</name>
          <description><![CDATA[&lt;b&gt;Trạm:&lt;/b&gt; Đại học Văn Hiến&lt;br/&gt;&lt;b&gt;Mã trạm:&lt;/b&gt; QPN 020&lt;br/&gt;&lt;b&gt;Địa chỉ:&lt;/b&gt; 94 Phan Đăng Lưu&lt;br/&gt;&lt;b&gt;Khu vực:&lt;/b&gt; None, Quận Phú Nhuận&lt;br/&gt;&lt;b&gt;Các tuyến qua trạm:&lt;/b&gt; 08, 104, 55, 64]]></description>
          <styleUrl>#busStopStyle</styleUrl>
          <Point>
            <coordinates>106.686119,10.804078,0</coordinates>
          </Point>
        </Placemark>
        <Placemark>
          <name>[QPN 021] Ngã Tư Thích Quảng Đức</name>
          <description><![CDATA[&lt;b&gt;Trạm:&lt;/b&gt; Ngã Tư Thích Quảng Đức&lt;br/&gt;&lt;b&gt;Mã trạm:&lt;/b&gt; QPN 021&lt;br/&gt;&lt;b&gt;Địa chỉ:&lt;/b&gt; 124 Phan Đăng Lưu&lt;br/&gt;&lt;b&gt;Khu vực:&lt;/b&gt; None, Quận Phú Nhuận&lt;br/&gt;&lt;b&gt;Các tuyến qua trạm:&lt;/b&gt; 08, 104, 55, 64]]></description>
          <styleUrl>#busStopStyle</styleUrl>
          <Point>
            <coordinates>106.683608,10.802529,0</coordinates>
          </Point>
        </Placemark>
        <Placemark>
          <name>[QPN 022] Ngã tư Phan Xích Long</name>
          <description><![CDATA[&lt;b&gt;Trạm:&lt;/b&gt; Ngã tư Phan Xích Long&lt;br/&gt;&lt;b&gt;Mã trạm:&lt;/b&gt; QPN 022&lt;br/&gt;&lt;b&gt;Địa chỉ:&lt;/b&gt; 172 Phan Đăng Lưu&lt;br/&gt;&lt;b&gt;Khu vực:&lt;/b&gt; None, Quận Phú Nhuận&lt;br/&gt;&lt;b&gt;Các tuyến qua trạm:&lt;/b&gt; 08, 104, 55, 64]]></description>
          <styleUrl>#busStopStyle</styleUrl>
          <Point>
            <coordinates>106.681892,10.80088,0</coordinates>
          </Point>
        </Placemark>
        <Placemark>
          <name>[QPN 010] Ngã tư Phú Nhuận</name>
          <description><![CDATA[&lt;b&gt;Trạm:&lt;/b&gt; Ngã tư Phú Nhuận&lt;br/&gt;&lt;b&gt;Mã trạm:&lt;/b&gt; QPN 010&lt;br/&gt;&lt;b&gt;Địa chỉ:&lt;/b&gt; 24 Hoàng Văn Thụ&lt;br/&gt;&lt;b&gt;Khu vực:&lt;/b&gt; None, Quận Phú Nhuận&lt;br/&gt;&lt;b&gt;Các tuyến qua trạm:&lt;/b&gt; 08, 104, 64]]></description>
          <styleUrl>#busStopStyle</styleUrl>
          <Point>
            <coordinates>106.679236,10.799325,0</coordinates>
          </Point>
        </Placemark>
        <Placemark>
          <name>[QPN 061] Công An Phú Nhuận</name>
          <description><![CDATA[&lt;b&gt;Trạm:&lt;/b&gt; Công An Phú Nhuận&lt;br/&gt;&lt;b&gt;Mã trạm:&lt;/b&gt; QPN 061&lt;br/&gt;&lt;b&gt;Địa chỉ:&lt;/b&gt; Đối diện 189 Hoàng Văn Thụ&lt;br/&gt;&lt;b&gt;Khu vực:&lt;/b&gt; None, Quận Phú Nhuận&lt;br/&gt;&lt;b&gt;Các tuyến qua trạm:&lt;/b&gt; 08, 104, 64]]></description>
          <styleUrl>#busStopStyle</styleUrl>
          <Point>
            <coordinates>106.67436,10.799721,0</coordinates>
          </Point>
        </Placemark>
        <Placemark>
          <name>[QPN 011] Siêu thị Big C</name>
          <description><![CDATA[&lt;b&gt;Trạm:&lt;/b&gt; Siêu thị Big C&lt;br/&gt;&lt;b&gt;Mã trạm:&lt;/b&gt; QPN 011&lt;br/&gt;&lt;b&gt;Địa chỉ:&lt;/b&gt; 202 Hoàng Văn Thụ&lt;br/&gt;&lt;b&gt;Khu vực:&lt;/b&gt; None, Quận Phú Nhuận&lt;br/&gt;&lt;b&gt;Các tuyến qua trạm:&lt;/b&gt; 08, 104, 64]]></description>
          <styleUrl>#busStopStyle</styleUrl>
          <Point>
            <coordinates>106.669559,10.800153,0</coordinates>
          </Point>
        </Placemark>
        <Placemark>
          <name>[QTB 099] Cổng trước SVĐ Quân Khu 7</name>
          <description><![CDATA[&lt;b&gt;Trạm:&lt;/b&gt; Cổng trước SVĐ Quân Khu 7&lt;br/&gt;&lt;b&gt;Mã trạm:&lt;/b&gt; QTB 099&lt;br/&gt;&lt;b&gt;Địa chỉ:&lt;/b&gt; A2 (Sân vận động Quân khu 7) Phan Đình Giót&lt;br/&gt;&lt;b&gt;Khu vực:&lt;/b&gt; None, Quận Tân Bình&lt;br/&gt;&lt;b&gt;Các tuyến qua trạm:&lt;/b&gt; 04, 07, 08, 104, 109, 152, 63-1, 64, 72-1, 72-2B]]></description>
          <styleUrl>#busStopStyle</styleUrl>
          <Point>
            <coordinates>106.66678,10.800848,0</coordinates>
          </Point>
        </Placemark>
        <Placemark>
          <name>[QTB 107] Vòng xoay Lăng Cha Cả</name>
          <description><![CDATA[&lt;b&gt;Trạm:&lt;/b&gt; Vòng xoay Lăng Cha Cả&lt;br/&gt;&lt;b&gt;Mã trạm:&lt;/b&gt; QTB 107&lt;br/&gt;&lt;b&gt;Địa chỉ:&lt;/b&gt; 20 Trần Quốc Hoàn&lt;br/&gt;&lt;b&gt;Khu vực:&lt;/b&gt; None, Quận Tân Bình&lt;br/&gt;&lt;b&gt;Các tuyến qua trạm:&lt;/b&gt; 04, 08, 103, 104, 148, 152, 50, 59, 63-1, 64, 72-2B]]></description>
          <styleUrl>#busStopStyle</styleUrl>
          <Point>
            <coordinates>106.662312,10.801365,0</coordinates>
          </Point>
        </Placemark>
        <Placemark>
          <name>[QTB 110] Siêu thị Maximark Cộng Hòa</name>
          <description><![CDATA[&lt;b&gt;Trạm:&lt;/b&gt; Siêu thị Maximark Cộng Hòa&lt;br/&gt;&lt;b&gt;Mã trạm:&lt;/b&gt; QTB 110&lt;br/&gt;&lt;b&gt;Địa chỉ:&lt;/b&gt; 60 Cộng Hòa&lt;br/&gt;&lt;b&gt;Khu vực:&lt;/b&gt; None, Quận Tân Bình&lt;br/&gt;&lt;b&gt;Các tuyến qua trạm:&lt;/b&gt; 04, 104, 145, 28, 63-1]]></description>
          <styleUrl>#busStopStyle</styleUrl>
          <Point>
            <coordinates>106.659168,10.801038,0</coordinates>
          </Point>
        </Placemark>
        <Placemark>
          <name>[QTB 111] Nhà hát Quân Đội</name>
          <description><![CDATA[&lt;b&gt;Trạm:&lt;/b&gt; Nhà hát Quân Đội&lt;br/&gt;&lt;b&gt;Mã trạm:&lt;/b&gt; QTB 111&lt;br/&gt;&lt;b&gt;Địa chỉ:&lt;/b&gt; 138 (Kế nhà hát Quân đội) Cộng Hòa&lt;br/&gt;&lt;b&gt;Khu vực:&lt;/b&gt; None, Quận Tân Bình&lt;br/&gt;&lt;b&gt;Các tuyến qua trạm:&lt;/b&gt; 04, 104, 145, 28, 63-1]]></description>
          <styleUrl>#busStopStyle</styleUrl>
          <Point>
            <coordinates>106.656754,10.801238,0</coordinates>
          </Point>
        </Placemark>
        <Placemark>
          <name>[QTB 112] Đường 18E</name>
          <description><![CDATA[&lt;b&gt;Trạm:&lt;/b&gt; Đường 18E&lt;br/&gt;&lt;b&gt;Mã trạm:&lt;/b&gt; QTB 112&lt;br/&gt;&lt;b&gt;Địa chỉ:&lt;/b&gt; 18E Cộng Hòa&lt;br/&gt;&lt;b&gt;Khu vực:&lt;/b&gt; None, Quận Tân Bình&lt;br/&gt;&lt;b&gt;Các tuyến qua trạm:&lt;/b&gt; 04, 104, 145, 28, 63-1]]></description>
          <styleUrl>#busStopStyle</styleUrl>
          <Point>
            <coordinates>106.654817,10.801412,0</coordinates>
          </Point>
        </Placemark>
        <Placemark>
          <name>[QTB 113] Công ty Lô Hội</name>
          <description><![CDATA[&lt;b&gt;Trạm:&lt;/b&gt; Công ty Lô Hội&lt;br/&gt;&lt;b&gt;Mã trạm:&lt;/b&gt; QTB 113&lt;br/&gt;&lt;b&gt;Địa chỉ:&lt;/b&gt; 184 Cộng Hòa&lt;br/&gt;&lt;b&gt;Khu vực:&lt;/b&gt; None, Quận Tân Bình&lt;br/&gt;&lt;b&gt;Các tuyến qua trạm:&lt;/b&gt; 04, 104, 145, 28, 63-1]]></description>
          <styleUrl>#busStopStyle</styleUrl>
          <Point>
            <coordinates>106.651127,10.801728,0</coordinates>
          </Point>
        </Placemark>
        <Placemark>
          <name>[QTB 114] Ngã tư Hoàng Hoa Thám</name>
          <description><![CDATA[&lt;b&gt;Trạm:&lt;/b&gt; Ngã tư Hoàng Hoa Thám&lt;br/&gt;&lt;b&gt;Mã trạm:&lt;/b&gt; QTB 114&lt;br/&gt;&lt;b&gt;Địa chỉ:&lt;/b&gt; 304 Cộng Hòa&lt;br/&gt;&lt;b&gt;Khu vực:&lt;/b&gt; None, Quận Tân Bình&lt;br/&gt;&lt;b&gt;Các tuyến qua trạm:&lt;/b&gt; 04, 104, 145, 28, 63-1]]></description>
          <styleUrl>#busStopStyle</styleUrl>
          <Point>
            <coordinates>106.646953,10.802102,0</coordinates>
          </Point>
        </Placemark>
        <Placemark>
          <name>[QTB 115] Ngã ba Bình Giã</name>
          <description><![CDATA[&lt;b&gt;Trạm:&lt;/b&gt; Ngã ba Bình Giã&lt;br/&gt;&lt;b&gt;Mã trạm:&lt;/b&gt; QTB 115&lt;br/&gt;&lt;b&gt;Địa chỉ:&lt;/b&gt; 394-396 Cộng Hòa&lt;br/&gt;&lt;b&gt;Khu vực:&lt;/b&gt; None, Quận Tân Bình&lt;br/&gt;&lt;b&gt;Các tuyến qua trạm:&lt;/b&gt; 04, 104, 145, 28, 63-1]]></description>
          <styleUrl>#busStopStyle</styleUrl>
          <Point>
            <coordinates>106.644512,10.802276,0</coordinates>
          </Point>
        </Placemark>
        <Placemark>
          <name>[QTB 116] ETown</name>
          <description><![CDATA[&lt;b&gt;Trạm:&lt;/b&gt; ETown&lt;br/&gt;&lt;b&gt;Mã trạm:&lt;/b&gt; QTB 116&lt;br/&gt;&lt;b&gt;Địa chỉ:&lt;/b&gt; 496 Cộng Hòa&lt;br/&gt;&lt;b&gt;Khu vực:&lt;/b&gt; None, Quận Tân Bình&lt;br/&gt;&lt;b&gt;Các tuyến qua trạm:&lt;/b&gt; 04, 104, 145, 28, 63-1]]></description>
          <styleUrl>#busStopStyle</styleUrl>
          <Point>
            <coordinates>106.640967,10.802571,0</coordinates>
          </Point>
        </Placemark>
        <Placemark>
          <name>[QTB  BHC2] Bãi Hậu Cần 2</name>
          <description><![CDATA[&lt;b&gt;Trạm:&lt;/b&gt; Bãi Hậu Cần 2&lt;br/&gt;&lt;b&gt;Mã trạm:&lt;/b&gt; QTB  BHC2&lt;br/&gt;&lt;b&gt;Địa chỉ:&lt;/b&gt; 592A Cộng Hòa&lt;br/&gt;&lt;b&gt;Khu vực:&lt;/b&gt; Phường 01, Quận Tân Bình&lt;br/&gt;&lt;b&gt;Các tuyến qua trạm:&lt;/b&gt; 04, 104, 145, 28, 63-1]]></description>
          <styleUrl>#busStopStyle</styleUrl>
          <Point>
            <coordinates>106.63801,10.80363,0</coordinates>
          </Point>
        </Placemark>
        <Placemark>
          <name>[QTB 117] Thượng Uyển</name>
          <description><![CDATA[&lt;b&gt;Trạm:&lt;/b&gt; Thượng Uyển&lt;br/&gt;&lt;b&gt;Mã trạm:&lt;/b&gt; QTB 117&lt;br/&gt;&lt;b&gt;Địa chỉ:&lt;/b&gt; 660 (kế 592) Cộng Hòa&lt;br/&gt;&lt;b&gt;Khu vực:&lt;/b&gt; None, Quận Tân Bình&lt;br/&gt;&lt;b&gt;Các tuyến qua trạm:&lt;/b&gt; 04, 104, 145, 28, 63-1]]></description>
          <styleUrl>#busStopStyle</styleUrl>
          <Point>
            <coordinates>106.636192,10.806313,0</coordinates>
          </Point>
        </Placemark>
        <Placemark>
          <name>[QTB 075] Mũi tàu Cộng Hòa</name>
          <description><![CDATA[&lt;b&gt;Trạm:&lt;/b&gt; Mũi tàu Cộng Hòa&lt;br/&gt;&lt;b&gt;Mã trạm:&lt;/b&gt; QTB 075&lt;br/&gt;&lt;b&gt;Địa chỉ:&lt;/b&gt; 19B1 Trường Chinh&lt;br/&gt;&lt;b&gt;Khu vực:&lt;/b&gt; None, Quận Tân Bình&lt;br/&gt;&lt;b&gt;Các tuyến qua trạm:&lt;/b&gt; 04, 104, 13, 145, 16, 23, 27, 28, 62, 63-1, 65, 94]]></description>
          <styleUrl>#busStopStyle</styleUrl>
          <Point>
            <coordinates>106.634638,10.808314,0</coordinates>
          </Point>
        </Placemark>
        <Placemark>
          <name>[QTB 076] Ngã ba Chế Lan Viên</name>
          <description><![CDATA[&lt;b&gt;Trạm:&lt;/b&gt; Ngã ba Chế Lan Viên&lt;br/&gt;&lt;b&gt;Mã trạm:&lt;/b&gt; QTB 076&lt;br/&gt;&lt;b&gt;Địa chỉ:&lt;/b&gt; Đối diện đường Chế Lan Viên Trường Chinh&lt;br/&gt;&lt;b&gt;Khu vực:&lt;/b&gt; None, Quận Tân Bình&lt;br/&gt;&lt;b&gt;Các tuyến qua trạm:&lt;/b&gt; 04, 104, 13, 145, 23, 27, 28, 62, 65, 94]]></description>
          <styleUrl>#busStopStyle</styleUrl>
          <Point>
            <coordinates>106.633349,10.812204,0</coordinates>
          </Point>
        </Placemark>
        <Placemark>
          <name>[QTB 078] UBND Phường 15</name>
          <description><![CDATA[&lt;b&gt;Trạm:&lt;/b&gt; UBND Phường 15&lt;br/&gt;&lt;b&gt;Mã trạm:&lt;/b&gt; QTB 078&lt;br/&gt;&lt;b&gt;Địa chỉ:&lt;/b&gt; 850 Trường Chinh&lt;br/&gt;&lt;b&gt;Khu vực:&lt;/b&gt; None, Quận Tân Bình&lt;br/&gt;&lt;b&gt;Các tuyến qua trạm:&lt;/b&gt; 04, 104, 13, 145, 23, 27, 62, 65, 94]]></description>
          <styleUrl>#busStopStyle</styleUrl>
          <Point>
            <coordinates>106.631461,10.818332,0</coordinates>
          </Point>
        </Placemark>
        <Placemark>
          <name>[QTB 079] Khu Công Nghiệp Tân Bình</name>
          <description><![CDATA[&lt;b&gt;Trạm:&lt;/b&gt; Khu Công Nghiệp Tân Bình&lt;br/&gt;&lt;b&gt;Mã trạm:&lt;/b&gt; QTB 079&lt;br/&gt;&lt;b&gt;Địa chỉ:&lt;/b&gt; 932 Trường Chinh&lt;br/&gt;&lt;b&gt;Khu vực:&lt;/b&gt; None, Quận Tân Bình&lt;br/&gt;&lt;b&gt;Các tuyến qua trạm:&lt;/b&gt; 04, 104, 13, 145, 23, 27, 32, 41, 62, 65, 94]]></description>
          <styleUrl>#busStopStyle</styleUrl>
          <Point>
            <coordinates>106.630254,10.822452,0</coordinates>
          </Point>
        </Placemark>
        <Placemark>
          <name>[Q12 128] Cầu Tham Lương - Siêu thị Thiên Hòa</name>
          <description><![CDATA[&lt;b&gt;Trạm:&lt;/b&gt; Cầu Tham Lương - Siêu thị Thiên Hòa&lt;br/&gt;&lt;b&gt;Mã trạm:&lt;/b&gt; Q12 128&lt;br/&gt;&lt;b&gt;Địa chỉ:&lt;/b&gt; 60A-B (1/17A) Trường Chinh&lt;br/&gt;&lt;b&gt;Khu vực:&lt;/b&gt; None, Quận 12&lt;br/&gt;&lt;b&gt;Các tuyến qua trạm:&lt;/b&gt; 04, 104, 13, 145, 23, 27, 41, 62, 65, 94]]></description>
          <styleUrl>#busStopStyle</styleUrl>
          <Point>
            <coordinates>106.625828,10.826957,0</coordinates>
          </Point>
        </Placemark>
        <Placemark>
          <name>[Q12 129] Chùa Vĩnh Phước</name>
          <description><![CDATA[&lt;b&gt;Trạm:&lt;/b&gt; Chùa Vĩnh Phước&lt;br/&gt;&lt;b&gt;Mã trạm:&lt;/b&gt; Q12 129&lt;br/&gt;&lt;b&gt;Địa chỉ:&lt;/b&gt; 110 (189/4) Trường Chinh&lt;br/&gt;&lt;b&gt;Khu vực:&lt;/b&gt; None, Quận 12&lt;br/&gt;&lt;b&gt;Các tuyến qua trạm:&lt;/b&gt; 04, 104, 13, 145, 27, 41, 65, 94]]></description>
          <styleUrl>#busStopStyle</styleUrl>
          <Point>
            <coordinates>106.624594,10.828627,0</coordinates>
          </Point>
        </Placemark>
        <Placemark>
          <name>[Q12 132] Chùa Lạc Quang</name>
          <description><![CDATA[&lt;b&gt;Trạm:&lt;/b&gt; Chùa Lạc Quang&lt;br/&gt;&lt;b&gt;Mã trạm:&lt;/b&gt; Q12 132&lt;br/&gt;&lt;b&gt;Địa chỉ:&lt;/b&gt; 408 Trường Chinh&lt;br/&gt;&lt;b&gt;Khu vực:&lt;/b&gt; None, Quận 12&lt;br/&gt;&lt;b&gt;Các tuyến qua trạm:&lt;/b&gt; 04, 104, 13, 145, 27, 41, 65, 94]]></description>
          <styleUrl>#busStopStyle</styleUrl>
          <Point>
            <coordinates>106.620614,10.834781,0</coordinates>
          </Point>
        </Placemark>
        <Placemark>
          <name>[Q12 131] Bitis</name>
          <description><![CDATA[&lt;b&gt;Trạm:&lt;/b&gt; Bitis&lt;br/&gt;&lt;b&gt;Mã trạm:&lt;/b&gt; Q12 131&lt;br/&gt;&lt;b&gt;Địa chỉ:&lt;/b&gt; 590 (640) Trường Chinh&lt;br/&gt;&lt;b&gt;Khu vực:&lt;/b&gt; None, Quận 12&lt;br/&gt;&lt;b&gt;Các tuyến qua trạm:&lt;/b&gt; 04, 104, 13, 145, 27, 41, 65, 94]]></description>
          <styleUrl>#busStopStyle</styleUrl>
          <Point>
            <coordinates>106.618398,10.838222,0</coordinates>
          </Point>
        </Placemark>
        <Placemark>
          <name>[Q12 122] Bến xe An Sương</name>
          <description><![CDATA[&lt;b&gt;Trạm:&lt;/b&gt; Bến xe An Sương&lt;br/&gt;&lt;b&gt;Mã trạm:&lt;/b&gt; Q12 122&lt;br/&gt;&lt;b&gt;Địa chỉ:&lt;/b&gt; F42 Quốc lộ 22&lt;br/&gt;&lt;b&gt;Khu vực:&lt;/b&gt; None, Quận 12&lt;br/&gt;&lt;b&gt;Các tuyến qua trạm:&lt;/b&gt; 04, 104, 122, 145, 33, 61-3]]></description>
          <styleUrl>#busStopStyle</styleUrl>
          <Point>
            <coordinates>106.613517,10.845803,0</coordinates>
          </Point>
        </Placemark>
        <Placemark>
          <name>[HHM 058] Bến xe An Sương</name>
          <description><![CDATA[&lt;b&gt;Trạm:&lt;/b&gt; Bến xe An Sương&lt;br/&gt;&lt;b&gt;Mã trạm:&lt;/b&gt; HHM 058&lt;br/&gt;&lt;b&gt;Địa chỉ:&lt;/b&gt; 1B Quốc lộ 22&lt;br/&gt;&lt;b&gt;Khu vực:&lt;/b&gt; Xã Bà Điểm, Huyện Hóc Môn&lt;br/&gt;&lt;b&gt;Các tuyến qua trạm:&lt;/b&gt; 04, 104, 122, 13, 145, 151, 33, 41, 61-3, 62-5, 65, 71, 74, 85, 94]]></description>
          <styleUrl>#busStopStyle</styleUrl>
          <Point>
            <coordinates>106.613522,10.845187,0</coordinates>
          </Point>
        </Placemark>
        <Placemark>
          <name>[BX41] Bến xe An Sương</name>
          <description><![CDATA[&lt;b&gt;Trạm:&lt;/b&gt; Bến xe An Sương&lt;br/&gt;&lt;b&gt;Mã trạm:&lt;/b&gt; BX41&lt;br/&gt;&lt;b&gt;Địa chỉ:&lt;/b&gt; Bến xe An Sương Quốc lộ 22&lt;br/&gt;&lt;b&gt;Khu vực:&lt;/b&gt; None, Quận 12&lt;br/&gt;&lt;b&gt;Các tuyến qua trạm:&lt;/b&gt; 04, 104, 122, 151, 27, 33, 41, 61-3, 62-5, 65, 71, 74, 85]]></description>
          <styleUrl>#busStopStyle</styleUrl>
          <Point>
            <coordinates>106.61337280273438,10.843737602233887,0</coordinates>
          </Point>
        </Placemark>
      </Folder>
    </Folder>
  </Document>
</kml>