<?xml version="1.0" encoding="UTF-8"?>
<kml xmlns="http://www.opengis.net/kml/2.2">
  <Document>
    <name>B 30 - Chợ Tân Hương - Bến xe buýt Văn Thánh</name>
    <description>Lộ trình tuyến xe buýt B 30 (5:00 - 22:00)</description>
    <Style id="routeLineStyle">
      <LineStyle>
        <color>e6E5881E</color>
        <width>4</width>
      </LineStyle>
    </Style>
    <Style id="busStopStyle">
      <IconStyle>
        <scale>0.8</scale>
        <Icon>
          <href>http://maps.google.com/mapfiles/kml/shapes/bus.png</href>
        </Icon>
      </IconStyle>
    </Style>
    <Folder>
      <name>Lượt đi: Cư xá Nhiêu Lộc → Bến xe Văn Thánh (18.38 km)</name>
      <Placemark>
        <name>B 30 - Đường đi Lượt đi</name>
        <description><![CDATA[&lt;b&gt;Tuyến:&lt;/b&gt; B 30 - Chợ Tân Hương - Bến xe buýt Văn Thánh&lt;br/&gt;&lt;b&gt;Lượt:&lt;/b&gt; Lượt đi&lt;br/&gt;&lt;b&gt;Cự ly:&lt;/b&gt; 18.38 km&lt;br/&gt;&lt;b&gt;Thời gian hành trình:&lt;/b&gt; 50 phút&lt;br/&gt;&lt;b&gt;Thời gian hoạt động:&lt;/b&gt; 5:00 - 22:00]]></description>
        <styleUrl>#routeLineStyle</styleUrl>
        <LineString>
          <tessellate>1</tessellate>
          <coordinates>106.62205505,10.78761673,0 106.62205505,10.78761673,0 106.62207031,10.78765869,0 106.62241364,10.78756428,0 106.62245941,10.78769016,0 106.62197113,10.78784275,0 106.62199402,10.78788471,0 106.62199402,10.78788471,0 106.62199402,10.78788471,0 106.62199402,10.78788471,0 106.62199402,10.78788471,0 106.62197876,10.78784275,0 106.62179565,10.78790665,0 106.62114716,10.78838062,0 106.62098694,10.7884388,0 106.61994171,10.78839684,0 106.61889648,10.78829193,0 106.61889648,10.78829193,0 106.61889648,10.78829193,0 106.61889648,10.78829193,0 106.61889648,10.78829193,0 106.61889648,10.78829193,0 106.61889648,10.78829193,0 106.61813354,10.78824329,0 106.61736298,10.78816509,0 106.61714935,10.78881264,0 106.6169281,10.78946114,0 106.61762238,10.7895956,0 106.61830902,10.78973007,0 106.61833954,10.78967667,0 106.61833954,10.78967667,0 106.61833954,10.78967667,0 106.61833954,10.78967667,0 106.61833954,10.78972435,0 106.61917877,10.78990364,0 106.62002563,10.79005623,0 106.62084198,10.79019356,0 106.62167358,10.7900877,0 106.62166595,10.79004574,0 106.62166595,10.79004574,0 106.62167358,10.79007721,0 106.62312317,10.78991985,0 106.62458038,10.78973484,0 106.62456512,10.78968143,0 106.62456512,10.78968143,0 106.62456512,10.78968143,0 106.62457275,10.78971004,0 106.6246109,10.78974056,0 106.62585449,10.78953552,0 106.62709045,10.78932953,0 106.62815857,10.79013538,0 106.62825012,10.79034996,0 106.62827301,10.79034328,0 106.62827301,10.79034328,0 106.62827301,10.79034328,0 106.62841034,10.79088497,0 106.62854767,10.79142666,0 106.62869263,10.79197216,0 106.62882996,10.79251766,0 106.62889099,10.79251099,0 106.62889099,10.79251099,0 106.62882996,10.79252243,0 106.62892151,10.7928915,0 106.63017273,10.79269695,0 106.63142395,10.79249191,0 106.63142395,10.79249191,0 106.63142395,10.79251766,0 106.63239288,10.79236412,0 106.63334656,10.79221725,0 106.63333893,10.79218769,0 106.63333893,10.79218769,0 106.63334656,10.79222202,0 106.63504791,10.79194832,0 106.63676453,10.79168987,0 106.63674927,10.79166412,0 106.63674927,10.79166412,0 106.63674927,10.79166412,0 106.63676453,10.79169559,0 106.63761139,10.79156399,0 106.63780975,10.79290199,0 106.63807678,10.79454613,0 106.63811493,10.79454136,0 106.63811493,10.79454136,0 106.63811493,10.79454136,0 106.63808441,10.79454041,0 106.63822174,10.79525757,0 106.63840485,10.79524136,0 106.63870239,10.79430866,0 106.63861847,10.79428291,0 106.63861847,10.79428291,0 106.63871765,10.79430389,0 106.63925934,10.79270744,0 106.63961792,10.79281807,0 106.63994598,10.79297066,0 106.64014435,10.79318142,0 106.64061737,10.7948513,0 106.64065552,10.79484367,0 106.64065552,10.79484367,0 106.64060974,10.79485703,0 106.64112091,10.79639053,0 106.64160156,10.79792881,0 106.64167786,10.79789829,0 106.64167786,10.79789829,0 106.64167786,10.79789829,0 106.64167786,10.79789829,0 106.6415863,10.79791832,0 106.64194489,10.79897213,0 106.64312744,10.7983427,0 106.64430237,10.79771328,0 106.64427185,10.79767609,0 106.64426422,10.7976656,0 106.64426422,10.7976656,0 106.64426422,10.7976656,0 106.64426422,10.7976656,0 106.64426422,10.7976656,0 106.64430237,10.79772377,0 106.64528656,10.79719925,0 106.64626312,10.79667473,0 106.64621735,10.79660606,0 106.64621735,10.79660606,0 106.64621735,10.79660606,0 106.64621735,10.79660606,0 106.64621735,10.79660606,0 106.64624786,10.79669094,0 106.64778137,10.79586887,0 106.64931488,10.79504681,0 106.64926147,10.79497814,0 106.64926147,10.79497814,0 106.64926147,10.79497814,0 106.64926147,10.79497814,0 106.64926147,10.79497814,0 106.64932251,10.79504681,0 106.65037537,10.79448318,0 106.65142059,10.79391861,0 106.65136719,10.79385567,0 106.65136719,10.79385567,0 106.65136719,10.79385567,0 106.65136719,10.79385567,0 106.65136719,10.79385567,0 106.65136719,10.79385567,0 106.65143585,10.79390335,0 106.65278625,10.79318428,0 106.65413666,10.79246426,0 106.65412903,10.79239082,0 106.65412903,10.79239082,0 106.65412903,10.79239082,0 106.65412903,10.79239082,0 106.65412903,10.79239082,0 106.65419006,10.79243279,0 106.65589142,10.79154205,0 106.65588379,10.7914629,0 106.65588379,10.7914629,0 106.65588379,10.7914629,0 106.65588379,10.7914629,0 106.65588379,10.7914629,0 106.65593719,10.7915163,0 106.65720367,10.7908392,0 106.65847778,10.79016209,0 106.65846252,10.7901144,0 106.65846252,10.7901144,0 106.65846252,10.7901144,0 106.65846252,10.7901144,0 106.65849304,10.79016209,0 106.65955353,10.78959274,0 106.66062164,10.7890234,0 106.66170502,10.78845692,0 106.66278839,10.78789043,0 106.66274261,10.78785038,0 106.66274261,10.78785038,0 106.66277313,10.78788567,0 106.66425323,10.78708935,0 106.6657486,10.78629875,0 106.6672287,10.78550911,0 106.66871643,10.78471851,0 106.66868591,10.78467083,0 106.66868591,10.78467083,0 106.66868591,10.78467083,0 106.66874695,10.78472328,0 106.66973877,10.78419209,0 106.67073059,10.78366184,0 106.67173004,10.78313065,0 106.67272186,10.78259945,0 106.67269897,10.7825346,0 106.67269897,10.7825346,0 106.67269897,10.7825346,0 106.67269897,10.7825346,0 106.67269897,10.7825346,0 106.67269897,10.7825346,0 106.67273712,10.7825737,0 106.67389679,10.7819519,0 106.67505646,10.78133011,0 106.67506409,10.78124046,0 106.67506409,10.78124046,0 106.67506409,10.78124046,0 106.67506409,10.78124046,0 106.67510223,10.78128242,0 106.67584229,10.78090286,0 106.67657471,10.7805233,0 106.67657471,10.78043461,0 106.67657471,10.78043461,0 106.67657471,10.78043461,0 106.67657471,10.78043461,0 106.67657471,10.78043461,0 106.67657471,10.78043461,0 106.67657471,10.78043461,0 106.67660522,10.78049755,0 106.67762756,10.77995014,0 106.67865753,10.77940178,0 106.6796875,10.77885342,0 106.68070984,10.77830505,0 106.68070221,10.77820492,0 106.68070221,10.77820492,0 106.68070221,10.77820492,0 106.68070221,10.77820492,0 106.68074036,10.77826786,0 106.68136597,10.7779417,0 106.68145752,10.77763557,0 106.68171692,10.77750969,0 106.68197632,10.77767754,0 106.68251801,10.77733517,0 106.68245697,10.77721882,0 106.68245697,10.77721882,0 106.68253326,10.77733517,0 106.6836853,10.77667141,0 106.68409729,10.77704048,0 106.68414307,10.77700901,0 106.68414307,10.77700901,0 106.68414307,10.77700901,0 106.68414307,10.77700901,0 106.68410492,10.77706146,0 106.68476868,10.77768612,0 106.68543243,10.77831078,0 106.68547058,10.77825546,0 106.68547058,10.77825546,0 106.68547058,10.77825546,0 106.68547058,10.77825546,0 106.68547058,10.77825546,0 106.68547058,10.77825546,0 106.68545532,10.77832127,0 106.68598938,10.7788229,0 106.68651581,10.77932549,0 106.68704987,10.77982712,0 106.68757629,10.78032875,0 106.68762207,10.78028584,0 106.68762207,10.78028584,0 106.68762207,10.78028584,0 106.68762207,10.78028584,0 106.68762207,10.78028584,0 106.68762207,10.78028584,0 106.68759918,10.78035545,0 106.68827057,10.78100204,0 106.68894196,10.78164959,0 106.68961334,10.78229618,0 106.69028473,10.78294277,0 106.69036865,10.7828722,0 106.69036865,10.7828722,0 106.69036865,10.7828722,0 106.69036865,10.7828722,0 106.69036865,10.7828722,0 106.69036865,10.7828722,0 106.69036865,10.7828722,0 106.69029236,10.78297424,0 106.6907959,10.78347778,0 106.69129944,10.78398132,0 106.69180298,10.78448391,0 106.69230652,10.78500843,0 106.69237518,10.78496456,0 106.69237518,10.78496456,0 106.69237518,10.78496456,0 106.69237518,10.78496456,0 106.69237518,10.78496456,0 106.69231415,10.78499794,0 106.69281006,10.78553486,0 106.6934433,10.78493404,0 106.69337463,10.78482437,0 106.69337463,10.78482437,0 106.69337463,10.78482437,0 106.69348145,10.78491879,0 106.69436646,10.78410244,0 106.69524384,10.78328514,0 106.69519806,10.78321075,0 106.69519806,10.78321075,0 106.69519806,10.78321075,0 106.69525146,10.78324318,0 106.69554138,10.7829895,0 106.69552612,10.78261566,0 106.69568634,10.78236771,0 106.69591522,10.78227806,0 106.69622803,10.78233147,0 106.6967926,10.78174114,0 106.6967926,10.78174114,0 106.69722748,10.7813797,0 106.69722748,10.7813797,0 106.69782257,10.78085709,0 106.69841003,10.78033352,0 106.69839478,10.78020763,0 106.69853973,10.78019142,0 106.69857025,10.78034973,0 106.69905853,10.78089809,0 106.69905853,10.78089809,0 106.69959259,10.78149319,0 106.70062256,10.78258896,0 106.70219421,10.7842598,0 106.70230103,10.78417015,0 106.70230103,10.78417015,0 106.70230103,10.78417015,0 106.70230103,10.78417015,0 106.70223236,10.78424358,0 106.70257568,10.78461456,0 106.70292664,10.78498554,0 106.70326996,10.78535652,0 106.70361328,10.7857275,0 106.70396423,10.78609753,0 106.70430756,10.78646851,0 106.70465851,10.78683949,0 106.70500183,10.78721046,0 106.70556641,10.78673172,0 106.70600891,10.78631496,0 106.70645905,10.78592014,0 106.70680237,10.78556442,0 106.70717621,10.7852354,0 106.70754242,10.78490543,0 106.70791626,10.78457642,0 106.70804596,10.7844286,0 106.70834351,10.78480339,0 106.70857239,10.78510857,0 106.70862579,10.7850771,0 106.70862579,10.7850771,0 106.70862579,10.7850771,0 106.70862579,10.7850771,0 106.70856476,10.78509808,0 106.70898438,10.78592014,0 106.70948029,10.78719997,0 106.70993042,10.78833294,0 106.7102356,10.78880215,0 106.71047211,10.78902912,0 106.71073914,10.78918171,0 106.71077728,10.78911304,0 106.71077728,10.78911304,0 106.71077728,10.78911304,0 106.71077728,10.78911304,0 106.71077728,10.78911304,0 106.71077728,10.78911304,0 106.71074677,10.7891922,0 106.71116638,10.78941345,0 106.71214294,10.7895031,0 106.71350861,10.78927612,0 106.71485901,10.78899193,0 106.71575928,10.78896046,0 106.71666718,10.78927612,0 106.71765137,10.78997231,0 106.71805573,10.79039383,0 106.71828461,10.79099464,0 106.71834564,10.7921381,0 106.71838379,10.79326534,0 106.71844482,10.7932663,0 106.71844482,10.7932663,0 106.71844482,10.7932663,0 106.71844482,10.7932663,0 106.71844482,10.7932663,0 106.71844482,10.7932663,0 106.71844482,10.7932663,0 106.71844482,10.7932663,0 106.71844482,10.7932663,0 106.71837616,10.79326534,0 106.71837616,10.79447746,0 106.71839905,10.79497814,0 106.71852112,10.79536819,0 106.71875763,10.79576874,0 106.7191391,10.79607964,0 106.71949005,10.79635334,0 106.71987152,10.79665375,0 106.71990967,10.7966013,0 106.71990967,10.7966013,0 106.71990967,10.7966013,0 106.71990967,10.7966013,0 106.71990967,10.7966013,0 106.71990967,10.7966013,0 106.71990967,10.7966013,0 106.72040558,10.79714966,0 106.72076416,10.79743385,0 106.72123718,10.79747581,0 106.72239685,10.79742336,0 106.723526,10.79740238,0 106.72396088,10.79758167,0 106.72447205,10.79789257,0 106.72457123,10.79823494,0 106.72450256,10.79859257,0 106.72439575,10.79884624,0 106.72415161,10.79903603,0 106.72385406,10.79910374,0 106.72356415,10.79913044,0 106.72221375,10.79898262,0 106.72221375,10.79905319,0 106.72221375,10.79905319,0 106.72221375,10.79905319,0 106.72221375,10.79905319,0 106.72221375,10.79905319,0 106.72221375,10.79905319,0 106.72221375,10.79905319,0 106.72221375,10.79905319,0 106.72221375,10.79905319,0 106.72221375,10.79905319,0 106.72221375,10.79905319,0 106.72221375,10.79905319,0 106.72221375,10.79905319,0 106.72222137,10.79903603,0 106.72169495,10.79894638,0 106.72104645,10.79863548,0 106.72055054,10.79850388,0 106.72009277,10.79859257,0 106.71957397,10.79889297,0 106.71957397,10.79889297,0 106.71957397,10.79889297,0 106.71957397,10.79889297,0 106.71957397,10.79889297,0 106.71957397,10.79889297,0 106.71957397,10.79889297,0 106.71957397,10.79889297,0 106.71957397,10.79889297,0 106.71957397,10.79889297,0 106.71957397,10.79889297,0 106.71957397,10.79889297,0 106.71957397,10.79889297,0 106.71957397,10.79889297,0 106.71957397,10.79889297,0 106.71920013,10.79916763,0 106.71879578,10.79939365,0 106.71797943,10.79985809,0 106.71826172,10.80035782,0 106.71850586,10.80086899,0 106.71800232,10.80109882,0 106.71749878,10.80131721,0 106.71749878,10.80131721,0 106.71749878,10.80131721,0 106.71749878,10.80131721,0 106.71749878,10.80131721,0</coordinates>
        </LineString>
      </Placemark>
      <Folder>
        <name>Trạm dừng (47 trạm)</name>
        <Placemark>
          <name>[BX54] Cư xá Nhiêu Lộc</name>
          <description><![CDATA[&lt;b&gt;Trạm:&lt;/b&gt; Cư xá Nhiêu Lộc&lt;br/&gt;&lt;b&gt;Mã trạm:&lt;/b&gt; BX54&lt;br/&gt;&lt;b&gt;Địa chỉ:&lt;/b&gt; Bến xe buýt Cư xá Nhiêu Lộc Lê Thúc Hoạch&lt;br/&gt;&lt;b&gt;Khu vực:&lt;/b&gt; None, Quận Tân Phú&lt;br/&gt;&lt;b&gt;Các tuyến qua trạm:&lt;/b&gt; 30]]></description>
          <styleUrl>#busStopStyle</styleUrl>
          <Point>
            <coordinates>106.622057,10.787617,0</coordinates>
          </Point>
        </Placemark>
        <Placemark>
          <name>[QTP 248] Trường Cao đẳng GTVT</name>
          <description><![CDATA[&lt;b&gt;Trạm:&lt;/b&gt; Trường Cao đẳng GTVT&lt;br/&gt;&lt;b&gt;Mã trạm:&lt;/b&gt; QTP 248&lt;br/&gt;&lt;b&gt;Địa chỉ:&lt;/b&gt; 82 Lê Thúc Hoạch&lt;br/&gt;&lt;b&gt;Khu vực:&lt;/b&gt; Phường Phú Thọ Hoà, Quận Tân Phú&lt;br/&gt;&lt;b&gt;Các tuyến qua trạm:&lt;/b&gt; 30]]></description>
          <styleUrl>#busStopStyle</styleUrl>
          <Point>
            <coordinates>106.621993,10.787885,0</coordinates>
          </Point>
        </Placemark>
        <Placemark>
          <name>[QTP 115] Bình Long</name>
          <description><![CDATA[&lt;b&gt;Trạm:&lt;/b&gt; Bình Long&lt;br/&gt;&lt;b&gt;Mã trạm:&lt;/b&gt; QTP 115&lt;br/&gt;&lt;b&gt;Địa chỉ:&lt;/b&gt; 239 Lê Thúc Hoạch&lt;br/&gt;&lt;b&gt;Khu vực:&lt;/b&gt; None, Quận Tân Phú&lt;br/&gt;&lt;b&gt;Các tuyến qua trạm:&lt;/b&gt; 30]]></description>
          <styleUrl>#busStopStyle</styleUrl>
          <Point>
            <coordinates>106.618896,10.788292,0</coordinates>
          </Point>
        </Placemark>
        <Placemark>
          <name>[QTP 105] Lê Sát</name>
          <description><![CDATA[&lt;b&gt;Trạm:&lt;/b&gt; Lê Sát&lt;br/&gt;&lt;b&gt;Mã trạm:&lt;/b&gt; QTP 105&lt;br/&gt;&lt;b&gt;Địa chỉ:&lt;/b&gt; 377 Tân Hương&lt;br/&gt;&lt;b&gt;Khu vực:&lt;/b&gt; Phường Tân Qúy, Quận Tân Phú&lt;br/&gt;&lt;b&gt;Các tuyến qua trạm:&lt;/b&gt; 30]]></description>
          <styleUrl>#busStopStyle</styleUrl>
          <Point>
            <coordinates>106.618339,10.789677,0</coordinates>
          </Point>
        </Placemark>
        <Placemark>
          <name>[QTP 106] Trạm Chợ Tân Hương</name>
          <description><![CDATA[&lt;b&gt;Trạm:&lt;/b&gt; Trạm Chợ Tân Hương&lt;br/&gt;&lt;b&gt;Mã trạm:&lt;/b&gt; QTP 106&lt;br/&gt;&lt;b&gt;Địa chỉ:&lt;/b&gt; 217-219 Tân Hương&lt;br/&gt;&lt;b&gt;Khu vực:&lt;/b&gt; Phường Tân Qúy, Quận Tân Phú&lt;br/&gt;&lt;b&gt;Các tuyến qua trạm:&lt;/b&gt; 30, 32, 69]]></description>
          <styleUrl>#busStopStyle</styleUrl>
          <Point>
            <coordinates>106.621666,10.790046,0</coordinates>
          </Point>
        </Placemark>
        <Placemark>
          <name>[QTP 107] Nhà Thờ Tân Hương</name>
          <description><![CDATA[&lt;b&gt;Trạm:&lt;/b&gt; Nhà Thờ Tân Hương&lt;br/&gt;&lt;b&gt;Mã trạm:&lt;/b&gt; QTP 107&lt;br/&gt;&lt;b&gt;Địa chỉ:&lt;/b&gt; 141 Tân Hương&lt;br/&gt;&lt;b&gt;Khu vực:&lt;/b&gt; Phường Tân Qúy, Quận Tân Phú&lt;br/&gt;&lt;b&gt;Các tuyến qua trạm:&lt;/b&gt; 30, 41]]></description>
          <styleUrl>#busStopStyle</styleUrl>
          <Point>
            <coordinates>106.624565,10.789681,0</coordinates>
          </Point>
        </Placemark>
        <Placemark>
          <name>[QTP 108] Café Suối Reo</name>
          <description><![CDATA[&lt;b&gt;Trạm:&lt;/b&gt; Café Suối Reo&lt;br/&gt;&lt;b&gt;Mã trạm:&lt;/b&gt; QTP 108&lt;br/&gt;&lt;b&gt;Địa chỉ:&lt;/b&gt; 43 Tân Hương&lt;br/&gt;&lt;b&gt;Khu vực:&lt;/b&gt; Phường Tân Qúy, Quận Tân Phú&lt;br/&gt;&lt;b&gt;Các tuyến qua trạm:&lt;/b&gt; 30, 41]]></description>
          <styleUrl>#busStopStyle</styleUrl>
          <Point>
            <coordinates>106.628273,10.790343,0</coordinates>
          </Point>
        </Placemark>
        <Placemark>
          <name>[QTP 109] Nhà thờ Martino</name>
          <description><![CDATA[&lt;b&gt;Trạm:&lt;/b&gt; Nhà thờ Martino&lt;br/&gt;&lt;b&gt;Mã trạm:&lt;/b&gt; QTP 109&lt;br/&gt;&lt;b&gt;Địa chỉ:&lt;/b&gt; 15 Tân Hương&lt;br/&gt;&lt;b&gt;Khu vực:&lt;/b&gt; Phường Tân Qúy, Quận Tân Phú&lt;br/&gt;&lt;b&gt;Các tuyến qua trạm:&lt;/b&gt; 30, 41]]></description>
          <styleUrl>#busStopStyle</styleUrl>
          <Point>
            <coordinates>106.628891,10.792511,0</coordinates>
          </Point>
        </Placemark>
        <Placemark>
          <name>[QTP 128] Trạm Trường Lê Văn Tám</name>
          <description><![CDATA[&lt;b&gt;Trạm:&lt;/b&gt; Trạm Trường Lê Văn Tám&lt;br/&gt;&lt;b&gt;Mã trạm:&lt;/b&gt; QTP 128&lt;br/&gt;&lt;b&gt;Địa chỉ:&lt;/b&gt; 115 Độc Lập&lt;br/&gt;&lt;b&gt;Khu vực:&lt;/b&gt; None, Quận Tân Phú&lt;br/&gt;&lt;b&gt;Các tuyến qua trạm:&lt;/b&gt; 30]]></description>
          <styleUrl>#busStopStyle</styleUrl>
          <Point>
            <coordinates>106.631424,10.792492,0</coordinates>
          </Point>
        </Placemark>
        <Placemark>
          <name>[QTP 129] Trạm UBND Phường Tân Thành</name>
          <description><![CDATA[&lt;b&gt;Trạm:&lt;/b&gt; Trạm UBND Phường Tân Thành&lt;br/&gt;&lt;b&gt;Mã trạm:&lt;/b&gt; QTP 129&lt;br/&gt;&lt;b&gt;Địa chỉ:&lt;/b&gt; 67-69 Độc Lập&lt;br/&gt;&lt;b&gt;Khu vực:&lt;/b&gt; Phường Tân Thành, Quận Tân Phú&lt;br/&gt;&lt;b&gt;Các tuyến qua trạm:&lt;/b&gt; 30]]></description>
          <styleUrl>#busStopStyle</styleUrl>
          <Point>
            <coordinates>106.633339,10.792188,0</coordinates>
          </Point>
        </Placemark>
        <Placemark>
          <name>[QTP 130] Ngã 3 Thẩm Mỹ</name>
          <description><![CDATA[&lt;b&gt;Trạm:&lt;/b&gt; Ngã 3 Thẩm Mỹ&lt;br/&gt;&lt;b&gt;Mã trạm:&lt;/b&gt; QTP 130&lt;br/&gt;&lt;b&gt;Địa chỉ:&lt;/b&gt; 21 Độc Lập&lt;br/&gt;&lt;b&gt;Khu vực:&lt;/b&gt; Phường Tân Thành, Quận Tân Phú&lt;br/&gt;&lt;b&gt;Các tuyến qua trạm:&lt;/b&gt; 30]]></description>
          <styleUrl>#busStopStyle</styleUrl>
          <Point>
            <coordinates>106.63675,10.791664,0</coordinates>
          </Point>
        </Placemark>
        <Placemark>
          <name>[QTP 210] Âu Cơ</name>
          <description><![CDATA[&lt;b&gt;Trạm:&lt;/b&gt; Âu Cơ&lt;br/&gt;&lt;b&gt;Mã trạm:&lt;/b&gt; QTP 210&lt;br/&gt;&lt;b&gt;Địa chỉ:&lt;/b&gt; 742 (kios 10) Lũy Bán Bích&lt;br/&gt;&lt;b&gt;Khu vực:&lt;/b&gt; None, Quận Tân Phú&lt;br/&gt;&lt;b&gt;Các tuyến qua trạm:&lt;/b&gt; 30]]></description>
          <styleUrl>#busStopStyle</styleUrl>
          <Point>
            <coordinates>106.638118,10.794541,0</coordinates>
          </Point>
        </Placemark>
        <Placemark>
          <name>[QTP 003] Trạm Lũy Bán Bích</name>
          <description><![CDATA[&lt;b&gt;Trạm:&lt;/b&gt; Trạm Lũy Bán Bích&lt;br/&gt;&lt;b&gt;Mã trạm:&lt;/b&gt; QTP 003&lt;br/&gt;&lt;b&gt;Địa chỉ:&lt;/b&gt; 825 Âu Cơ&lt;br/&gt;&lt;b&gt;Khu vực:&lt;/b&gt; None, Quận Tân Phú&lt;br/&gt;&lt;b&gt;Các tuyến qua trạm:&lt;/b&gt; 27, 30, 62]]></description>
          <styleUrl>#busStopStyle</styleUrl>
          <Point>
            <coordinates>106.638618,10.794283,0</coordinates>
          </Point>
        </Placemark>
        <Placemark>
          <name>[QTB 142] Bàu Cát 2</name>
          <description><![CDATA[&lt;b&gt;Trạm:&lt;/b&gt; Bàu Cát 2&lt;br/&gt;&lt;b&gt;Mã trạm:&lt;/b&gt; QTB 142&lt;br/&gt;&lt;b&gt;Địa chỉ:&lt;/b&gt; 61 Trương Công Định&lt;br/&gt;&lt;b&gt;Khu vực:&lt;/b&gt; None, Quận Tân Bình&lt;br/&gt;&lt;b&gt;Các tuyến qua trạm:&lt;/b&gt; 30]]></description>
          <styleUrl>#busStopStyle</styleUrl>
          <Point>
            <coordinates>106.640657,10.794844,0</coordinates>
          </Point>
        </Placemark>
        <Placemark>
          <name>[QTB 143] Chùa Thiền Quang</name>
          <description><![CDATA[&lt;b&gt;Trạm:&lt;/b&gt; Chùa Thiền Quang&lt;br/&gt;&lt;b&gt;Mã trạm:&lt;/b&gt; QTB 143&lt;br/&gt;&lt;b&gt;Địa chỉ:&lt;/b&gt; 19 Trương Công Định&lt;br/&gt;&lt;b&gt;Khu vực:&lt;/b&gt; None, Quận Tân Bình&lt;br/&gt;&lt;b&gt;Các tuyến qua trạm:&lt;/b&gt; 30]]></description>
          <styleUrl>#busStopStyle</styleUrl>
          <Point>
            <coordinates>106.641678,10.797898,0</coordinates>
          </Point>
        </Placemark>
        <Placemark>
          <name>[QTB 082] Ngã ba Hồng Đào</name>
          <description><![CDATA[&lt;b&gt;Trạm:&lt;/b&gt; Ngã ba Hồng Đào&lt;br/&gt;&lt;b&gt;Mã trạm:&lt;/b&gt; QTB 082&lt;br/&gt;&lt;b&gt;Địa chỉ:&lt;/b&gt; 351 Trường Chinh&lt;br/&gt;&lt;b&gt;Khu vực:&lt;/b&gt; None, Quận Tân Bình&lt;br/&gt;&lt;b&gt;Các tuyến qua trạm:&lt;/b&gt; 13, 30, 64, 65, 94]]></description>
          <styleUrl>#busStopStyle</styleUrl>
          <Point>
            <coordinates>106.644266,10.797666,0</coordinates>
          </Point>
        </Placemark>
        <Placemark>
          <name>[QTB 083] Ngã ba Hoàng Hoa Thám</name>
          <description><![CDATA[&lt;b&gt;Trạm:&lt;/b&gt; Ngã ba Hoàng Hoa Thám&lt;br/&gt;&lt;b&gt;Mã trạm:&lt;/b&gt; QTB 083&lt;br/&gt;&lt;b&gt;Địa chỉ:&lt;/b&gt; 233 Trường Chinh&lt;br/&gt;&lt;b&gt;Khu vực:&lt;/b&gt; None, Quận Tân Bình&lt;br/&gt;&lt;b&gt;Các tuyến qua trạm:&lt;/b&gt; 13, 30, 64, 65, 94]]></description>
          <styleUrl>#busStopStyle</styleUrl>
          <Point>
            <coordinates>106.646218,10.796606,0</coordinates>
          </Point>
        </Placemark>
        <Placemark>
          <name>[QTB 084] Nhà thờ Đắc Lộ</name>
          <description><![CDATA[&lt;b&gt;Trạm:&lt;/b&gt; Nhà thờ Đắc Lộ&lt;br/&gt;&lt;b&gt;Mã trạm:&lt;/b&gt; QTB 084&lt;br/&gt;&lt;b&gt;Địa chỉ:&lt;/b&gt; 97 (đối diện 160B) Trường Chinh&lt;br/&gt;&lt;b&gt;Khu vực:&lt;/b&gt; None, Quận Tân Bình&lt;br/&gt;&lt;b&gt;Các tuyến qua trạm:&lt;/b&gt; 13, 30, 64, 65, 94]]></description>
          <styleUrl>#busStopStyle</styleUrl>
          <Point>
            <coordinates>106.64926,10.794978,0</coordinates>
          </Point>
        </Placemark>
        <Placemark>
          <name>[QTB 085] Ngã tư Bảy Hiền</name>
          <description><![CDATA[&lt;b&gt;Trạm:&lt;/b&gt; Ngã tư Bảy Hiền&lt;br/&gt;&lt;b&gt;Mã trạm:&lt;/b&gt; QTB 085&lt;br/&gt;&lt;b&gt;Địa chỉ:&lt;/b&gt; 67 Trường Chinh&lt;br/&gt;&lt;b&gt;Khu vực:&lt;/b&gt; None, Quận Tân Bình&lt;br/&gt;&lt;b&gt;Các tuyến qua trạm:&lt;/b&gt; 13, 30, 64, 65, 94]]></description>
          <styleUrl>#busStopStyle</styleUrl>
          <Point>
            <coordinates>106.651368,10.793856,0</coordinates>
          </Point>
        </Placemark>
        <Placemark>
          <name>[QTB 059] Bệnh viện Thống Nhất</name>
          <description><![CDATA[&lt;b&gt;Trạm:&lt;/b&gt; Bệnh viện Thống Nhất&lt;br/&gt;&lt;b&gt;Mã trạm:&lt;/b&gt; QTB 059&lt;br/&gt;&lt;b&gt;Địa chỉ:&lt;/b&gt; 1125 (đối diện 544) Cách Mạng Tháng Tám&lt;br/&gt;&lt;b&gt;Khu vực:&lt;/b&gt; None, Quận Tân Bình&lt;br/&gt;&lt;b&gt;Các tuyến qua trạm:&lt;/b&gt; 103, 13, 30, 65]]></description>
          <styleUrl>#busStopStyle</styleUrl>
          <Point>
            <coordinates>106.654131,10.792391,0</coordinates>
          </Point>
        </Placemark>
        <Placemark>
          <name>[QTB 060] Y tế Phường 4</name>
          <description><![CDATA[&lt;b&gt;Trạm:&lt;/b&gt; Y tế Phường 4&lt;br/&gt;&lt;b&gt;Mã trạm:&lt;/b&gt; QTB 060&lt;br/&gt;&lt;b&gt;Địa chỉ:&lt;/b&gt; 1057 Cách Mạng Tháng Tám&lt;br/&gt;&lt;b&gt;Khu vực:&lt;/b&gt; None, Quận Tân Bình&lt;br/&gt;&lt;b&gt;Các tuyến qua trạm:&lt;/b&gt; 103, 13, 30, 65]]></description>
          <styleUrl>#busStopStyle</styleUrl>
          <Point>
            <coordinates>106.655885,10.791463,0</coordinates>
          </Point>
        </Placemark>
        <Placemark>
          <name>[QTB 061] Hồ Bơi Cộng Hòa</name>
          <description><![CDATA[&lt;b&gt;Trạm:&lt;/b&gt; Hồ Bơi Cộng Hòa&lt;br/&gt;&lt;b&gt;Mã trạm:&lt;/b&gt; QTB 061&lt;br/&gt;&lt;b&gt;Địa chỉ:&lt;/b&gt; 1003 Cách Mạng Tháng Tám&lt;br/&gt;&lt;b&gt;Khu vực:&lt;/b&gt; None, Quận Tân Bình&lt;br/&gt;&lt;b&gt;Các tuyến qua trạm:&lt;/b&gt; 103, 13, 30, 65]]></description>
          <styleUrl>#busStopStyle</styleUrl>
          <Point>
            <coordinates>106.65846,10.790114,0</coordinates>
          </Point>
        </Placemark>
        <Placemark>
          <name>[QTB 063] Ngã ba Bành Văn Trân</name>
          <description><![CDATA[&lt;b&gt;Trạm:&lt;/b&gt; Ngã ba Bành Văn Trân&lt;br/&gt;&lt;b&gt;Mã trạm:&lt;/b&gt; QTB 063&lt;br/&gt;&lt;b&gt;Địa chỉ:&lt;/b&gt; 755-757 (771) Cách Mạng Tháng Tám&lt;br/&gt;&lt;b&gt;Khu vực:&lt;/b&gt; None, Quận Tân Bình&lt;br/&gt;&lt;b&gt;Các tuyến qua trạm:&lt;/b&gt; 103, 13, 30, 65]]></description>
          <styleUrl>#busStopStyle</styleUrl>
          <Point>
            <coordinates>106.66274,10.78785,0</coordinates>
          </Point>
        </Placemark>
        <Placemark>
          <name>[Q10 084] Hội thánh tin lành Hòa Hưng</name>
          <description><![CDATA[&lt;b&gt;Trạm:&lt;/b&gt; Hội thánh tin lành Hòa Hưng&lt;br/&gt;&lt;b&gt;Mã trạm:&lt;/b&gt; Q10 084&lt;br/&gt;&lt;b&gt;Địa chỉ:&lt;/b&gt; 601 Cách Mạng Tháng Tám&lt;br/&gt;&lt;b&gt;Khu vực:&lt;/b&gt; None, Quận 10&lt;br/&gt;&lt;b&gt;Các tuyến qua trạm:&lt;/b&gt; 13, 30, 65]]></description>
          <styleUrl>#busStopStyle</styleUrl>
          <Point>
            <coordinates>106.668684,10.784671,0</coordinates>
          </Point>
        </Placemark>
        <Placemark>
          <name>[Q10 085] Ngã ba Tô Hiến Thành</name>
          <description><![CDATA[&lt;b&gt;Trạm:&lt;/b&gt; Ngã ba Tô Hiến Thành&lt;br/&gt;&lt;b&gt;Mã trạm:&lt;/b&gt; Q10 085&lt;br/&gt;&lt;b&gt;Địa chỉ:&lt;/b&gt; 513 Cách Mạng Tháng Tám&lt;br/&gt;&lt;b&gt;Khu vực:&lt;/b&gt; None, Quận 10&lt;br/&gt;&lt;b&gt;Các tuyến qua trạm:&lt;/b&gt; 13, 30, 65]]></description>
          <styleUrl>#busStopStyle</styleUrl>
          <Point>
            <coordinates>106.672699,10.782535,0</coordinates>
          </Point>
        </Placemark>
        <Placemark>
          <name>[Q10 086] Chùa Bửu Đà</name>
          <description><![CDATA[&lt;b&gt;Trạm:&lt;/b&gt; Chùa Bửu Đà&lt;br/&gt;&lt;b&gt;Mã trạm:&lt;/b&gt; Q10 086&lt;br/&gt;&lt;b&gt;Địa chỉ:&lt;/b&gt; 427 Cách Mạng Tháng Tám&lt;br/&gt;&lt;b&gt;Khu vực:&lt;/b&gt; None, Quận 10&lt;br/&gt;&lt;b&gt;Các tuyến qua trạm:&lt;/b&gt; 13, 30, 65]]></description>
          <styleUrl>#busStopStyle</styleUrl>
          <Point>
            <coordinates>106.675063,10.78124,0</coordinates>
          </Point>
        </Placemark>
        <Placemark>
          <name>[Q10 087]  Ngã ba Hòa Hưng</name>
          <description><![CDATA[&lt;b&gt;Trạm:&lt;/b&gt;  Ngã ba Hòa Hưng&lt;br/&gt;&lt;b&gt;Mã trạm:&lt;/b&gt; Q10 087&lt;br/&gt;&lt;b&gt;Địa chỉ:&lt;/b&gt; 385 Cách Mạng Tháng Tám&lt;br/&gt;&lt;b&gt;Khu vực:&lt;/b&gt; None, Quận 10&lt;br/&gt;&lt;b&gt;Các tuyến qua trạm:&lt;/b&gt; 13, 30, 65]]></description>
          <styleUrl>#busStopStyle</styleUrl>
          <Point>
            <coordinates>106.676575,10.780435,0</coordinates>
          </Point>
        </Placemark>
        <Placemark>
          <name>[Q10 088] Công trường Dân Chủ</name>
          <description><![CDATA[&lt;b&gt;Trạm:&lt;/b&gt; Công trường Dân Chủ&lt;br/&gt;&lt;b&gt;Mã trạm:&lt;/b&gt; Q10 088&lt;br/&gt;&lt;b&gt;Địa chỉ:&lt;/b&gt; Đối diện 132A Cách Mạng Tháng Tám&lt;br/&gt;&lt;b&gt;Khu vực:&lt;/b&gt; None, Quận 10&lt;br/&gt;&lt;b&gt;Các tuyến qua trạm:&lt;/b&gt; 13, 30, 65]]></description>
          <styleUrl>#busStopStyle</styleUrl>
          <Point>
            <coordinates>106.680706,10.778205,0</coordinates>
          </Point>
        </Placemark>
        <Placemark>
          <name>[Q3 015] Công an Quận 3</name>
          <description><![CDATA[&lt;b&gt;Trạm:&lt;/b&gt; Công an Quận 3&lt;br/&gt;&lt;b&gt;Mã trạm:&lt;/b&gt; Q3 015&lt;br/&gt;&lt;b&gt;Địa chỉ:&lt;/b&gt; 243 Cách Mạng Tháng Tám&lt;br/&gt;&lt;b&gt;Khu vực:&lt;/b&gt; None, Quận 3&lt;br/&gt;&lt;b&gt;Các tuyến qua trạm:&lt;/b&gt; 13, 30, 65]]></description>
          <styleUrl>#busStopStyle</styleUrl>
          <Point>
            <coordinates>106.68246,10.777219,0</coordinates>
          </Point>
        </Placemark>
        <Placemark>
          <name>[Q3 024] Cách Mạng tháng 8</name>
          <description><![CDATA[&lt;b&gt;Trạm:&lt;/b&gt; Cách Mạng tháng 8&lt;br/&gt;&lt;b&gt;Mã trạm:&lt;/b&gt; Q3 024&lt;br/&gt;&lt;b&gt;Địa chỉ:&lt;/b&gt; 303 Điện Biên Phủ&lt;br/&gt;&lt;b&gt;Khu vực:&lt;/b&gt; None, Quận 3&lt;br/&gt;&lt;b&gt;Các tuyến qua trạm:&lt;/b&gt; 10, 150, 30, 91]]></description>
          <styleUrl>#busStopStyle</styleUrl>
          <Point>
            <coordinates>106.684145,10.777009,0</coordinates>
          </Point>
        </Placemark>
        <Placemark>
          <name>[Q3 025] Bệnh viện Mắt TPHCM</name>
          <description><![CDATA[&lt;b&gt;Trạm:&lt;/b&gt; Bệnh viện Mắt TPHCM&lt;br/&gt;&lt;b&gt;Mã trạm:&lt;/b&gt; Q3 025&lt;br/&gt;&lt;b&gt;Địa chỉ:&lt;/b&gt; 291 Điện Biên Phủ&lt;br/&gt;&lt;b&gt;Khu vực:&lt;/b&gt; Phường 07, Quận 3&lt;br/&gt;&lt;b&gt;Các tuyến qua trạm:&lt;/b&gt; 10, 150, 30, 91]]></description>
          <styleUrl>#busStopStyle</styleUrl>
          <Point>
            <coordinates>106.685471,10.778255,0</coordinates>
          </Point>
        </Placemark>
        <Placemark>
          <name>[Q3 026] Sở Khoa học và Công nghệ</name>
          <description><![CDATA[&lt;b&gt;Trạm:&lt;/b&gt; Sở Khoa học và Công nghệ&lt;br/&gt;&lt;b&gt;Mã trạm:&lt;/b&gt; Q3 026&lt;br/&gt;&lt;b&gt;Địa chỉ:&lt;/b&gt; 273 Điện Biên Phủ&lt;br/&gt;&lt;b&gt;Khu vực:&lt;/b&gt; None, Quận 3&lt;br/&gt;&lt;b&gt;Các tuyến qua trạm:&lt;/b&gt; 10, 150, 30, 91]]></description>
          <styleUrl>#busStopStyle</styleUrl>
          <Point>
            <coordinates>106.687621,10.780286,0</coordinates>
          </Point>
        </Placemark>
        <Placemark>
          <name>[Q3 027] Trường Marie Curie</name>
          <description><![CDATA[&lt;b&gt;Trạm:&lt;/b&gt; Trường Marie Curie&lt;br/&gt;&lt;b&gt;Mã trạm:&lt;/b&gt; Q3 027&lt;br/&gt;&lt;b&gt;Địa chỉ:&lt;/b&gt; Đối diện số 206 (247) Điện Biên Phủ&lt;br/&gt;&lt;b&gt;Khu vực:&lt;/b&gt; None, Quận 3&lt;br/&gt;&lt;b&gt;Các tuyến qua trạm:&lt;/b&gt; 10, 150, 30, 91]]></description>
          <styleUrl>#busStopStyle</styleUrl>
          <Point>
            <coordinates>106.690369,10.782872,0</coordinates>
          </Point>
        </Placemark>
        <Placemark>
          <name>[Q3 028] Phạm Ngọc Thạch</name>
          <description><![CDATA[&lt;b&gt;Trạm:&lt;/b&gt; Phạm Ngọc Thạch&lt;br/&gt;&lt;b&gt;Mã trạm:&lt;/b&gt; Q3 028&lt;br/&gt;&lt;b&gt;Địa chỉ:&lt;/b&gt; 209 Điện Biên Phủ&lt;br/&gt;&lt;b&gt;Khu vực:&lt;/b&gt; Phường 06, Quận 3&lt;br/&gt;&lt;b&gt;Các tuyến qua trạm:&lt;/b&gt; 10, 150, 30, 72-1, 91, 93]]></description>
          <styleUrl>#busStopStyle</styleUrl>
          <Point>
            <coordinates>106.692375,10.784965,0</coordinates>
          </Point>
        </Placemark>
        <Placemark>
          <name>[Q3 080] Điện Biên Phủ</name>
          <description><![CDATA[&lt;b&gt;Trạm:&lt;/b&gt; Điện Biên Phủ&lt;br/&gt;&lt;b&gt;Mã trạm:&lt;/b&gt; Q3 080&lt;br/&gt;&lt;b&gt;Địa chỉ:&lt;/b&gt; 43 Phạm Ngọc Thạch&lt;br/&gt;&lt;b&gt;Khu vực:&lt;/b&gt; None, Quận 3&lt;br/&gt;&lt;b&gt;Các tuyến qua trạm:&lt;/b&gt; 30, 36]]></description>
          <styleUrl>#busStopStyle</styleUrl>
          <Point>
            <coordinates>106.693372,10.784824,0</coordinates>
          </Point>
        </Placemark>
        <Placemark>
          <name>[Q3 081] Đại học Kinh tế</name>
          <description><![CDATA[&lt;b&gt;Trạm:&lt;/b&gt; Đại học Kinh tế&lt;br/&gt;&lt;b&gt;Mã trạm:&lt;/b&gt; Q3 081&lt;br/&gt;&lt;b&gt;Địa chỉ:&lt;/b&gt; 17 Phạm Ngọc Thạch&lt;br/&gt;&lt;b&gt;Khu vực:&lt;/b&gt; None, Quận 3&lt;br/&gt;&lt;b&gt;Các tuyến qua trạm:&lt;/b&gt; 30, 36]]></description>
          <styleUrl>#busStopStyle</styleUrl>
          <Point>
            <coordinates>106.695201,10.783211,0</coordinates>
          </Point>
        </Placemark>
        <Placemark>
          <name>[Q3 117] Nhà Văn Hóa Thanh Niên</name>
          <description><![CDATA[&lt;b&gt;Trạm:&lt;/b&gt; Nhà Văn Hóa Thanh Niên&lt;br/&gt;&lt;b&gt;Mã trạm:&lt;/b&gt; Q3 117&lt;br/&gt;&lt;b&gt;Địa chỉ:&lt;/b&gt; 3-5 Phạm Ngọc Thạch&lt;br/&gt;&lt;b&gt;Khu vực:&lt;/b&gt; None, Quận 3&lt;br/&gt;&lt;b&gt;Các tuyến qua trạm:&lt;/b&gt; 30, 36, 52]]></description>
          <styleUrl>#busStopStyle</styleUrl>
          <Point>
            <coordinates>106.696794,10.781741,0</coordinates>
          </Point>
        </Placemark>
        <Placemark>
          <name>[H12_02] Nhà Văn Hóa Thanh Niên</name>
          <description><![CDATA[&lt;b&gt;Trạm:&lt;/b&gt; Nhà Văn Hóa Thanh Niên&lt;br/&gt;&lt;b&gt;Mã trạm:&lt;/b&gt; H12_02&lt;br/&gt;&lt;b&gt;Địa chỉ:&lt;/b&gt; Đối diện số 1 Phạm Ngọc Thạch&lt;br/&gt;&lt;b&gt;Khu vực:&lt;/b&gt; Phường Bến Nghé, Quận 1&lt;br/&gt;&lt;b&gt;Các tuyến qua trạm:&lt;/b&gt; 30, 36, 52]]></description>
          <styleUrl>#busStopStyle</styleUrl>
          <Point>
            <coordinates>106.69723,10.78138,0</coordinates>
          </Point>
        </Placemark>
        <Placemark>
          <name>[Q1 083] Diamond Plaza</name>
          <description><![CDATA[&lt;b&gt;Trạm:&lt;/b&gt; Diamond Plaza&lt;br/&gt;&lt;b&gt;Mã trạm:&lt;/b&gt; Q1 083&lt;br/&gt;&lt;b&gt;Địa chỉ:&lt;/b&gt; 47 Lê Duẩn&lt;br/&gt;&lt;b&gt;Khu vực:&lt;/b&gt; None, Quận 1&lt;br/&gt;&lt;b&gt;Các tuyến qua trạm:&lt;/b&gt; 18, 30, DL01]]></description>
          <styleUrl>#busStopStyle</styleUrl>
          <Point>
            <coordinates>106.699058,10.780898,0</coordinates>
          </Point>
        </Placemark>
        <Placemark>
          <name>[Q1 084] Khách sạn Sofitel</name>
          <description><![CDATA[&lt;b&gt;Trạm:&lt;/b&gt; Khách sạn Sofitel&lt;br/&gt;&lt;b&gt;Mã trạm:&lt;/b&gt; Q1 084&lt;br/&gt;&lt;b&gt;Địa chỉ:&lt;/b&gt; Sofitel Plaza Lê Duẩn&lt;br/&gt;&lt;b&gt;Khu vực:&lt;/b&gt; None, Quận 1&lt;br/&gt;&lt;b&gt;Các tuyến qua trạm:&lt;/b&gt; 18, 19, 30, DL01, DL02]]></description>
          <styleUrl>#busStopStyle</styleUrl>
          <Point>
            <coordinates>106.702303,10.78417,0</coordinates>
          </Point>
        </Placemark>
        <Placemark>
          <name>[Q1 033] Mầm non Hoa Lư</name>
          <description><![CDATA[&lt;b&gt;Trạm:&lt;/b&gt; Mầm non Hoa Lư&lt;br/&gt;&lt;b&gt;Mã trạm:&lt;/b&gt; Q1 033&lt;br/&gt;&lt;b&gt;Địa chỉ:&lt;/b&gt; 2A Nguyễn Hữu Cảnh&lt;br/&gt;&lt;b&gt;Khu vực:&lt;/b&gt; None, Quận 1&lt;br/&gt;&lt;b&gt;Các tuyến qua trạm:&lt;/b&gt; 30, 44, 53, 56, 88]]></description>
          <styleUrl>#busStopStyle</styleUrl>
          <Point>
            <coordinates>106.708628,10.785077,0</coordinates>
          </Point>
        </Placemark>
        <Placemark>
          <name>[QBTH 077] Hồ Bơi Hải Quân</name>
          <description><![CDATA[&lt;b&gt;Trạm:&lt;/b&gt; Hồ Bơi Hải Quân&lt;br/&gt;&lt;b&gt;Mã trạm:&lt;/b&gt; QBTH 077&lt;br/&gt;&lt;b&gt;Địa chỉ:&lt;/b&gt; 18 Nguyễn Hữu Cảnh&lt;br/&gt;&lt;b&gt;Khu vực:&lt;/b&gt; None, Quận Bình Thạnh&lt;br/&gt;&lt;b&gt;Các tuyến qua trạm:&lt;/b&gt; 30, 44, 53, 56, 88]]></description>
          <styleUrl>#busStopStyle</styleUrl>
          <Point>
            <coordinates>106.710779,10.789113,0</coordinates>
          </Point>
        </Placemark>
        <Placemark>
          <name>[QBTH 078] Chung cư Manor</name>
          <description><![CDATA[&lt;b&gt;Trạm:&lt;/b&gt; Chung cư Manor&lt;br/&gt;&lt;b&gt;Mã trạm:&lt;/b&gt; QBTH 078&lt;br/&gt;&lt;b&gt;Địa chỉ:&lt;/b&gt; 176E Nguyễn Hữu Cảnh&lt;br/&gt;&lt;b&gt;Khu vực:&lt;/b&gt; None, Quận Bình Thạnh&lt;br/&gt;&lt;b&gt;Các tuyến qua trạm:&lt;/b&gt; 30, 53, 56]]></description>
          <styleUrl>#busStopStyle</styleUrl>
          <Point>
            <coordinates>106.718445,10.793266,0</coordinates>
          </Point>
        </Placemark>
        <Placemark>
          <name>[QBTH 079] Tân Cảng</name>
          <description><![CDATA[&lt;b&gt;Trạm:&lt;/b&gt; Tân Cảng&lt;br/&gt;&lt;b&gt;Mã trạm:&lt;/b&gt; QBTH 079&lt;br/&gt;&lt;b&gt;Địa chỉ:&lt;/b&gt; 220 Nguyễn Hữu Cảnh&lt;br/&gt;&lt;b&gt;Khu vực:&lt;/b&gt; None, Quận Bình Thạnh&lt;br/&gt;&lt;b&gt;Các tuyến qua trạm:&lt;/b&gt; 30, 53, 56]]></description>
          <styleUrl>#busStopStyle</styleUrl>
          <Point>
            <coordinates>106.719909,10.796601,0</coordinates>
          </Point>
        </Placemark>
        <Placemark>
          <name>[QBTH 176] Công viên Cầu Sài Gòn</name>
          <description><![CDATA[&lt;b&gt;Trạm:&lt;/b&gt; Công viên Cầu Sài Gòn&lt;br/&gt;&lt;b&gt;Mã trạm:&lt;/b&gt; QBTH 176&lt;br/&gt;&lt;b&gt;Địa chỉ:&lt;/b&gt; Phía trước 681 Điện Biên Phủ Nguyễn Hữu Cảnh&lt;br/&gt;&lt;b&gt;Khu vực:&lt;/b&gt; Phường 25, Quận Bình Thạnh&lt;br/&gt;&lt;b&gt;Các tuyến qua trạm:&lt;/b&gt; 104, 158, 159, 160, 161, 30, 55]]></description>
          <styleUrl>#busStopStyle</styleUrl>
          <Point>
            <coordinates>106.722217,10.799053,0</coordinates>
          </Point>
        </Placemark>
        <Placemark>
          <name>[QBTH 056] Cầu Sài Gòn</name>
          <description><![CDATA[&lt;b&gt;Trạm:&lt;/b&gt; Cầu Sài Gòn&lt;br/&gt;&lt;b&gt;Mã trạm:&lt;/b&gt; QBTH 056&lt;br/&gt;&lt;b&gt;Địa chỉ:&lt;/b&gt; 24(597) Điện Biên Phủ&lt;br/&gt;&lt;b&gt;Khu vực:&lt;/b&gt; None, Quận Bình Thạnh&lt;br/&gt;&lt;b&gt;Các tuyến qua trạm:&lt;/b&gt; 06, 10, 104, 150, 157, 158, 159, 160, 161, 30, 43, 52, 55, 60-3, 67]]></description>
          <styleUrl>#busStopStyle</styleUrl>
          <Point>
            <coordinates>106.719571,10.798893,0</coordinates>
          </Point>
        </Placemark>
        <Placemark>
          <name>[QHBT_2] Bến xe Văn Thánh</name>
          <description><![CDATA[&lt;b&gt;Trạm:&lt;/b&gt; Bến xe Văn Thánh&lt;br/&gt;&lt;b&gt;Mã trạm:&lt;/b&gt; QHBT_2&lt;br/&gt;&lt;b&gt;Địa chỉ:&lt;/b&gt; BX Văn Thánh Điện Biên Phủ&lt;br/&gt;&lt;b&gt;Khu vực:&lt;/b&gt; Phường 01, Quận Bình Thạnh&lt;br/&gt;&lt;b&gt;Các tuyến qua trạm:&lt;/b&gt; 104, 157, 158, 161, 30, 55]]></description>
          <styleUrl>#busStopStyle</styleUrl>
          <Point>
            <coordinates>106.717501,10.801317,0</coordinates>
          </Point>
        </Placemark>
      </Folder>
    </Folder>
    <Folder>
      <name>Lượt về: Bến xe Văn Thánh → Cư xá Nhiêu Lộc (19.93 km)</name>
      <Placemark>
        <name>B 30 - Đường đi Lượt về</name>
        <description><![CDATA[&lt;b&gt;Tuyến:&lt;/b&gt; B 30 - Chợ Tân Hương - Bến xe buýt Văn Thánh&lt;br/&gt;&lt;b&gt;Lượt:&lt;/b&gt; Lượt về&lt;br/&gt;&lt;b&gt;Cự ly:&lt;/b&gt; 19.93 km&lt;br/&gt;&lt;b&gt;Thời gian hành trình:&lt;/b&gt; 50 phút&lt;br/&gt;&lt;b&gt;Thời gian hoạt động:&lt;/b&gt; 5:00 - 22:00]]></description>
        <styleUrl>#routeLineStyle</styleUrl>
        <LineString>
          <tessellate>1</tessellate>
          <coordinates>106.71749878,10.80131721,0 106.71749878,10.80131721,0 106.71749878,10.80131721,0 106.71846771,10.80090618,0 106.71820068,10.80039024,0 106.71792603,10.79989433,0 106.71722412,10.80022621,0 106.71722412,10.8002739,0 106.71722412,10.8002739,0 106.71722412,10.8002739,0 106.71722412,10.8002739,0 106.71722412,10.8002739,0 106.71722412,10.8002739,0 106.71722412,10.8002739,0 106.71722412,10.8002739,0 106.71686554,10.80035305,0 106.7165451,10.80042171,0 106.71604919,10.80069065,0 106.71582794,10.80087471,0 106.71485901,10.80122757,0 106.71485901,10.80122757,0 106.71485901,10.80122757,0 106.71485901,10.80122757,0 106.71485901,10.80122757,0 106.71485901,10.80122757,0 106.71485901,10.80122757,0 106.71485901,10.80122757,0 106.71485901,10.80122757,0 106.71485901,10.80122757,0 106.71392822,10.80148602,0 106.71337891,10.80161762,0 106.71283722,10.80169678,0 106.71283722,10.80169678,0 106.71283722,10.80169678,0 106.71283722,10.80169678,0 106.71283722,10.80169678,0 106.71283722,10.80169678,0 106.71283722,10.80169678,0 106.71266937,10.80163383,0 106.71160889,10.80163383,0 106.71129608,10.80171776,0 106.71104431,10.80148029,0 106.71124268,10.80117989,0 106.71173096,10.80125904,0 106.71273041,10.8012228,0 106.71427917,10.80091667,0 106.71425629,10.80082703,0 106.71425629,10.80082703,0 106.71425629,10.80082703,0 106.71429443,10.80084801,0 106.71552277,10.80044746,0 106.7159729,10.8004055,0 106.71647644,10.80016327,0 106.71681976,10.7998476,0 106.71740723,10.79953098,0 106.71740723,10.79953098,0 106.71775818,10.79939938,0 106.71858978,10.79891968,0 106.71907043,10.7986145,0 106.71949768,10.79852486,0 106.71949768,10.79852486,0 106.71998596,10.79813957,0 106.72015381,10.79789734,0 106.72013092,10.79764462,0 106.71971893,10.79718113,0 106.71924591,10.79668522,0 106.71809387,10.79526711,0 106.7182312,10.79522991,0 106.71817017,10.79491043,0 106.71813965,10.79345036,0 106.71810913,10.79109001,0 106.71807098,10.79090977,0 106.71797943,10.79067039,0 106.71787262,10.79045963,0 106.71766663,10.79020023,0 106.71743011,10.78997993,0 106.71724701,10.78985977,0 106.71675873,10.7896204,0 106.71650696,10.78950024,0 106.71645355,10.78946972,0 106.71595001,10.78925037,0 106.71552277,10.78913975,0 106.71533203,10.78911972,0 106.71498871,10.78911018,0 106.71450043,10.7891798,0 106.71424103,10.78921986,0 106.71385956,10.78936958,0 106.71199799,10.78964996,0 106.71166229,10.78966999,0 106.71134186,10.78962994,0 106.71112823,10.78958035,0 106.71067047,10.78938007,0 106.71064758,10.78936958,0 106.71052551,10.78947735,0 106.71052551,10.78947735,0 106.71055603,10.78942966,0 106.71001434,10.78901291,0 106.70964813,10.78841209,0 106.70903015,10.78688431,0 106.70871735,10.78602505,0 106.70857239,10.78548241,0 106.70825958,10.78494453,0 106.7075882,10.78412247,0 106.70755768,10.78414917,0 106.70755768,10.78414917,0 106.70755768,10.78414917,0 106.70755768,10.78414917,0 106.70755768,10.78414917,0 106.70755768,10.78414917,0 106.70759583,10.78412247,0 106.7068634,10.78331089,0 106.70616913,10.78247356,0 106.7052536,10.78336048,0 106.70478058,10.78377247,0 106.70429993,10.7842226,0 106.70436096,10.78428555,0 106.70436096,10.78428555,0 106.70436096,10.78428555,0 106.70436096,10.78428555,0 106.70436096,10.78428555,0 106.70436096,10.78428555,0 106.70430756,10.7842226,0 106.70372772,10.78474712,0 106.70314789,10.78527164,0 106.70263672,10.78474712,0 106.7021637,10.78423882,0 106.70211792,10.78427982,0 106.70211792,10.78427982,0 106.70211792,10.78427982,0 106.70211792,10.78427982,0 106.70211792,10.78427982,0 106.70211792,10.78427982,0 106.70211792,10.78427982,0 106.70211792,10.78427982,0 106.70211792,10.78427982,0 106.7021637,10.78422832,0 106.70132446,10.78335857,0 106.70050049,10.78249454,0 106.69967651,10.78159904,0 106.69887543,10.78073406,0 106.69870758,10.78091431,0 106.69870758,10.78091431,0 106.69870758,10.78091431,0 106.69870758,10.78091431,0 106.69870758,10.78091431,0 106.69888306,10.78077698,0 106.69845581,10.78034401,0 106.69722748,10.78149319,0 106.69722748,10.78149319,0 106.69722748,10.78149319,0 106.69722748,10.78149319,0 106.69684601,10.78182507,0 106.69687653,10.78186226,0 106.69687653,10.78186226,0 106.69687653,10.78186226,0 106.69683075,10.78180981,0 106.69618988,10.78236294,0 106.69631958,10.78249931,0 106.69635773,10.7826786,0 106.69631958,10.78285313,0 106.69622803,10.78299999,0 106.6960907,10.78306866,0 106.69593811,10.78311062,0 106.69576263,10.78307438,0 106.69558716,10.78297901,0 106.69452667,10.78398037,0 106.69457245,10.78401184,0 106.69457245,10.78401184,0 106.69457245,10.78401184,0 106.69457245,10.78401184,0 106.69457245,10.78401184,0 106.6945343,10.7839756,0 106.69393158,10.78452873,0 106.6933136,10.78509235,0 106.69335175,10.78514004,0 106.69335175,10.78514004,0 106.69335175,10.78514004,0 106.69335175,10.78514004,0 106.69335175,10.78514004,0 106.69329834,10.78510857,0 106.69248199,10.78582764,0 106.69166565,10.78654671,0 106.6917038,10.78658867,0 106.6917038,10.78658867,0 106.6917038,10.78658867,0 106.6917038,10.78658867,0 106.69165802,10.78654671,0 106.69111633,10.78702068,0 106.69097137,10.7868681,0 106.69091797,10.78691578,0 106.69091797,10.78691578,0 106.69091797,10.78691578,0 106.69091797,10.78691578,0 106.69091797,10.78691578,0 106.69095612,10.78688431,0 106.69031525,10.78621006,0 106.68966675,10.78553486,0 106.68961334,10.78558254,0 106.68961334,10.78558254,0 106.68961334,10.78558254,0 106.68961334,10.78558254,0 106.68961334,10.78558254,0 106.68961334,10.78558254,0 106.68961334,10.78558254,0 106.68966675,10.78553009,0 106.68861389,10.78450298,0 106.68756866,10.78347492,0 106.68751526,10.7835331,0 106.68751526,10.7835331,0 106.68751526,10.7835331,0 106.68751526,10.7835331,0 106.68751526,10.7835331,0 106.68756866,10.78348541,0 106.68693542,10.7828474,0 106.68630219,10.78222561,0 106.68624115,10.78229427,0 106.68624115,10.78229427,0 106.68624115,10.78229427,0 106.68624115,10.78229427,0 106.68624115,10.78229427,0 106.68624115,10.78229427,0 106.68630981,10.7822361,0 106.68534851,10.78129864,0 106.68426514,10.78011227,0 106.68348694,10.77931118,0 106.68270111,10.77849483,0 106.68261719,10.77858353,0 106.68261719,10.77858353,0 106.68261719,10.77858353,0 106.68269348,10.7784996,0 106.68215179,10.77794647,0 106.68198395,10.77789974,0 106.68180846999999,10.7780838,0 106.68156433,10.77807808,0 106.68133545,10.77801037,0 106.68045807,10.77846336,0 106.68048096,10.77851582,0 106.68048096,10.77851582,0 106.68048096,10.77851582,0 106.68044281,10.77846813,0 106.67941284,10.77901936,0 106.67838287,10.77956963,0 106.67734528,10.78012085,0 106.67631531,10.78067112,0 106.67634583,10.78070259,0 106.67634583,10.78070259,0 106.67634583,10.78070259,0 106.67634583,10.78070259,0 106.67630768,10.78067112,0 106.67549896,10.78110886,0 106.67469025,10.78154564,0 106.67474365,10.78162956,0 106.67474365,10.78162956,0 106.67474365,10.78162956,0 106.67474365,10.78162956,0 106.67474365,10.78162956,0 106.67474365,10.78162956,0 106.67468262,10.78154564,0 106.67369843,10.78208351,0 106.6727066,10.78262138,0 106.67172241,10.7831583,0 106.67073059,10.78369617,0 106.67075348,10.78373814,0 106.67075348,10.78373814,0 106.67075348,10.78373814,0 106.67075348,10.78373814,0 106.67075348,10.78373814,0 106.67075348,10.78373814,0 106.67073059,10.78367996,0 106.66992188,10.78411198,0 106.66994476,10.78414631,0 106.66994476,10.78414631,0 106.66994476,10.78414631,0 106.66994476,10.78414631,0 106.66994476,10.78414631,0 106.66994476,10.78414631,0 106.66994476,10.78414631,0 106.6699295,10.78410721,0 106.66915894,10.78452492,0 106.66838837,10.78494263,0 106.66764069,10.78534126,0 106.66690063,10.78574085,0 106.66693115,10.78581429,0 106.66693115,10.78581429,0 106.66693115,10.78581429,0 106.66693115,10.78581429,0 106.66693115,10.78581429,0 106.66693115,10.78581429,0 106.66693115,10.78581429,0 106.66693115,10.78581429,0 106.66690063,10.78573036,0 106.66608429,10.78616238,0 106.6652832,10.78658962,0 106.66448975,10.78701591,0 106.66368866,10.78744316,0 106.66372681,10.78748608,0 106.66372681,10.78748608,0 106.66372681,10.78748608,0 106.66372681,10.78748608,0 106.66372681,10.78748608,0 106.66372681,10.78748608,0 106.66372681,10.78748608,0 106.66370392,10.78743172,0 106.66313171,10.78773594,0 106.66255188,10.78804111,0 106.66197968,10.78834534,0 106.66140747,10.78864956,0 106.66145325,10.78869247,0 106.66145325,10.78869247,0 106.66145325,10.78869247,0 106.66145325,10.78869247,0 106.66143036,10.78864956,0 106.66053772,10.78911304,0 106.65964508,10.78957653,0 106.65969086,10.78962994,0 106.65969086,10.78962994,0 106.65969086,10.78962994,0 106.65969086,10.78962994,0 106.65966034,10.78957653,0 106.65879059,10.79003429,0 106.65792847,10.7904911,0 106.65705872,10.79094887,0 106.65618896,10.79140568,0 106.65621948,10.79144764,0 106.65621948,10.79144764,0 106.65621948,10.79144764,0 106.65621948,10.79144764,0 106.65619659,10.79139996,0 106.654953,10.79208279,0 106.65370941,10.79276466,0 106.65355682,10.79301834,0 106.65431976,10.79390335,0 106.655159,10.7947731,0 106.65519714,10.7947197,0 106.65519714,10.7947197,0 106.655159,10.79475689,0 106.65577698,10.79542637,0 106.65512085,10.7960844,0 106.65514374,10.7961216,0 106.65514374,10.7961216,0 106.65514374,10.7961216,0 106.65511322,10.79607964,0 106.65464783,10.7965498,0 106.65410614,10.79600048,0 106.65406799,10.79603195,0 106.65406799,10.79603195,0 106.65406799,10.79603195,0 106.65410614,10.79598999,0 106.65316772,10.79510975,0 106.65221405,10.79421902,0 106.65218353,10.79425621,0 106.65218353,10.79425621,0 106.65218353,10.79425621,0 106.65222931,10.79422474,0 106.65180206,10.79379272,0 106.65115356,10.79415131,0 106.65119171,10.79418182,0 106.65119171,10.79418182,0 106.65119171,10.79418182,0 106.65119171,10.79418182,0 106.65116119,10.79413986,0 106.64953613,10.79500484,0 106.64957428,10.79506779,0 106.64957428,10.79506779,0 106.64957428,10.79506779,0 106.64957428,10.79506779,0 106.64953613,10.79500484,0 106.64862061,10.79549217,0 106.64769745,10.7959795,0 106.64774323,10.79605293,0 106.64774323,10.79605293,0 106.64774323,10.79605293,0 106.64774323,10.79605293,0 106.64769745,10.79599476,0 106.64687347,10.79642963,0 106.64605713,10.79686451,0 106.64523315,10.79729939,0 106.64440918,10.79773426,0 106.64445496,10.79779243,0 106.64445496,10.79779243,0 106.64445496,10.79779243,0 106.64445496,10.79779243,0 106.64445496,10.79779243,0 106.64442444,10.79774475,0 106.64319611,10.79841709,0 106.64196014,10.79908848,0 106.64170074,10.79823494,0 106.6416626,10.79823399,0 106.6416626,10.79823399,0 106.6416626,10.79823399,0 106.6416626,10.79823399,0 106.6416626,10.79823399,0 106.6416626,10.79823399,0 106.6416626,10.79823399,0 106.64169312,10.79822922,0 106.6414032,10.797328,0 106.64111328,10.79642773,0 106.64082336,10.79554176,0 106.64054871,10.79463005,0 106.64048767,10.79464054,0 106.64048767,10.79464054,0 106.64048767,10.79464054,0 106.64048767,10.79464054,0 106.64054108,10.79462528,0 106.64017487,10.79327583,0 106.63998413,10.79302311,0 106.6392746,10.79272842,0 106.63887787,10.79395103,0 106.63898468,10.79397202,0 106.63898468,10.79397202,0 106.63887787,10.79393482,0 106.63857269,10.79482269,0 106.63826752,10.79571056,0 106.63808441,10.7950573,0 106.63796997,10.79435158,0 106.63790131,10.79436684,0 106.63790131,10.79436684,0 106.63796234,10.79435635,0 106.6377182,10.79296494,0 106.63751221,10.79156399,0 106.6370163,10.79166126,0 106.6370163,10.79166126,0 106.63611603,10.79180241,0 106.63521576,10.7919426,0 106.63431549,10.79207993,0 106.63341522,10.79221725,0 106.63342285,10.79226017,0 106.63342285,10.79226017,0 106.63341522,10.79222775,0 106.63237762,10.7923851,0 106.63134003,10.79254341,0 106.63134003,10.79254341,0 106.63134003,10.79254341,0 106.63011932,10.79273605,0 106.62890625,10.7929287,0 106.62886047,10.79265213,0 106.62886047,10.79265213,0 106.62886047,10.79265213,0 106.62886047,10.79265213,0 106.62886047,10.79265213,0 106.62851715,10.79140759,0 106.62817383,10.79016209,0 106.62778473,10.78986454,0 106.62778473,10.78986454,0 106.62778473,10.78986454,0 106.62778473,10.78986454,0 106.62705994,10.78934479,0 106.62590027,10.78952408,0 106.62495422,10.78970337,0 106.62399292,10.78983021,0 106.62400055,10.7898674,0 106.62400055,10.7898674,0 106.62400055,10.78983021,0 106.62268829,10.78997231,0 106.62136841,10.79013538,0 106.62138367,10.7901783,0 106.62138367,10.7901783,0 106.62138367,10.79014111,0 106.62082672,10.79020882,0 106.62018585,10.79010391,0 106.61899567,10.78988266,0 106.61899567,10.78988266,0 106.61899567,10.78988266,0 106.61899567,10.78988266,0 106.61794281,10.7896719,0 106.61688995,10.78946114,0 106.61739349,10.78801155,0 106.61882019,10.78815365,0 106.61882019,10.78811169,0 106.61882019,10.78811169,0 106.61882019,10.78811169,0 106.61882019,10.78811169,0 106.6187973,10.78816509,0 106.6197052,10.7882328,0 106.62060547,10.78830147,0 106.6210022,10.78833294,0 106.62126923,10.78807545,0 106.62174225,10.7877903,0 106.62207031,10.78766441,0 106.62205505,10.78761673,0</coordinates>
        </LineString>
      </Placemark>
      <Folder>
        <name>Trạm dừng (55 trạm)</name>
        <Placemark>
          <name>[QHBT_2] Bến xe Văn Thánh</name>
          <description><![CDATA[&lt;b&gt;Trạm:&lt;/b&gt; Bến xe Văn Thánh&lt;br/&gt;&lt;b&gt;Mã trạm:&lt;/b&gt; QHBT_2&lt;br/&gt;&lt;b&gt;Địa chỉ:&lt;/b&gt; BX Văn Thánh Điện Biên Phủ&lt;br/&gt;&lt;b&gt;Khu vực:&lt;/b&gt; Phường 01, Quận Bình Thạnh&lt;br/&gt;&lt;b&gt;Các tuyến qua trạm:&lt;/b&gt; 104, 157, 158, 161, 30, 55]]></description>
          <styleUrl>#busStopStyle</styleUrl>
          <Point>
            <coordinates>106.717501,10.801317,0</coordinates>
          </Point>
        </Placemark>
        <Placemark>
          <name>[QBTH 055] Khu Du lịch Văn Thánh</name>
          <description><![CDATA[&lt;b&gt;Trạm:&lt;/b&gt; Khu Du lịch Văn Thánh&lt;br/&gt;&lt;b&gt;Mã trạm:&lt;/b&gt; QBTH 055&lt;br/&gt;&lt;b&gt;Địa chỉ:&lt;/b&gt; 152/72c(559) Điện Biên Phủ&lt;br/&gt;&lt;b&gt;Khu vực:&lt;/b&gt; None, Quận Bình Thạnh&lt;br/&gt;&lt;b&gt;Các tuyến qua trạm:&lt;/b&gt; 06, 10, 104, 150, 157, 158, 159, 161, 30, 43, 44, 52, 55, 60-3, 67]]></description>
          <styleUrl>#busStopStyle</styleUrl>
          <Point>
            <coordinates>106.717227,10.800274,0</coordinates>
          </Point>
        </Placemark>
        <Placemark>
          <name>[QBTH 054] Đại học Hutech</name>
          <description><![CDATA[&lt;b&gt;Trạm:&lt;/b&gt; Đại học Hutech&lt;br/&gt;&lt;b&gt;Mã trạm:&lt;/b&gt; QBTH 054&lt;br/&gt;&lt;b&gt;Địa chỉ:&lt;/b&gt; 483 Điện Biên Phủ&lt;br/&gt;&lt;b&gt;Khu vực:&lt;/b&gt; None, Quận Bình Thạnh&lt;br/&gt;&lt;b&gt;Các tuyến qua trạm:&lt;/b&gt; 06, 10, 104, 14, 150, 157, 159, 161, 19, 30, 43, 44, 45, 52, 55, 60-3, 67, 72-1]]></description>
          <styleUrl>#busStopStyle</styleUrl>
          <Point>
            <coordinates>106.714856,10.801228,0</coordinates>
          </Point>
        </Placemark>
        <Placemark>
          <name>[QBTH 053] Cây xăng dầu</name>
          <description><![CDATA[&lt;b&gt;Trạm:&lt;/b&gt; Cây xăng dầu&lt;br/&gt;&lt;b&gt;Mã trạm:&lt;/b&gt; QBTH 053&lt;br/&gt;&lt;b&gt;Địa chỉ:&lt;/b&gt; 419 Điện Biên Phủ&lt;br/&gt;&lt;b&gt;Khu vực:&lt;/b&gt; None, Quận Bình Thạnh&lt;br/&gt;&lt;b&gt;Các tuyến qua trạm:&lt;/b&gt; 06, 10, 104, 14, 150, 157, 159, 161, 19, 30, 43, 44, 45, 52, 55, 67]]></description>
          <styleUrl>#busStopStyle</styleUrl>
          <Point>
            <coordinates>106.712834,10.801697,0</coordinates>
          </Point>
        </Placemark>
        <Placemark>
          <name>[QBTH 059] Đại học Hutech</name>
          <description><![CDATA[&lt;b&gt;Trạm:&lt;/b&gt; Đại học Hutech&lt;br/&gt;&lt;b&gt;Mã trạm:&lt;/b&gt; QBTH 059&lt;br/&gt;&lt;b&gt;Địa chỉ:&lt;/b&gt; 510-512 Điện Biên Phủ&lt;br/&gt;&lt;b&gt;Khu vực:&lt;/b&gt; None, Quận Bình Thạnh&lt;br/&gt;&lt;b&gt;Các tuyến qua trạm:&lt;/b&gt; 06, 10, 104, 150, 157, 159, 161, 30, 43, 52, 55, 60-3, 67, 72-1]]></description>
          <styleUrl>#busStopStyle</styleUrl>
          <Point>
            <coordinates>106.714255,10.800827,0</coordinates>
          </Point>
        </Placemark>
        <Placemark>
          <name>[QBTH 058] Khu Du lịch Văn Thánh</name>
          <description><![CDATA[&lt;b&gt;Trạm:&lt;/b&gt; Khu Du lịch Văn Thánh&lt;br/&gt;&lt;b&gt;Mã trạm:&lt;/b&gt; QBTH 058&lt;br/&gt;&lt;b&gt;Địa chỉ:&lt;/b&gt; 600 Điện Biên Phủ&lt;br/&gt;&lt;b&gt;Khu vực:&lt;/b&gt; None, Quận Bình Thạnh&lt;br/&gt;&lt;b&gt;Các tuyến qua trạm:&lt;/b&gt; 06, 10, 104, 150, 157, 159, 161, 30, 43, 52, 55, 60-3, 67]]></description>
          <styleUrl>#busStopStyle</styleUrl>
          <Point>
            <coordinates>106.717404,10.799531,0</coordinates>
          </Point>
        </Placemark>
        <Placemark>
          <name>[QBTH 057] Cầu Sài Gòn</name>
          <description><![CDATA[&lt;b&gt;Trạm:&lt;/b&gt; Cầu Sài Gòn&lt;br/&gt;&lt;b&gt;Mã trạm:&lt;/b&gt; QBTH 057&lt;br/&gt;&lt;b&gt;Địa chỉ:&lt;/b&gt; 658 Điện Biên Phủ&lt;br/&gt;&lt;b&gt;Khu vực:&lt;/b&gt; None, Quận Bình Thạnh&lt;br/&gt;&lt;b&gt;Các tuyến qua trạm:&lt;/b&gt; 06, 10, 104, 150, 157, 159, 160, 161, 30, 43, 52, 55, 60-3, 67]]></description>
          <styleUrl>#busStopStyle</styleUrl>
          <Point>
            <coordinates>106.719496,10.798525,0</coordinates>
          </Point>
        </Placemark>
        <Placemark>
          <name>[QBTH 075] Cây Xăng Hoàng Nguyên</name>
          <description><![CDATA[&lt;b&gt;Trạm:&lt;/b&gt; Cây Xăng Hoàng Nguyên&lt;br/&gt;&lt;b&gt;Mã trạm:&lt;/b&gt; QBTH 075&lt;br/&gt;&lt;b&gt;Địa chỉ:&lt;/b&gt; 113 Nguyễn Hữu Cảnh&lt;br/&gt;&lt;b&gt;Khu vực:&lt;/b&gt; None, Quận Bình Thạnh&lt;br/&gt;&lt;b&gt;Các tuyến qua trạm:&lt;/b&gt; 30, 53, 56]]></description>
          <styleUrl>#busStopStyle</styleUrl>
          <Point>
            <coordinates>106.718094,10.795267,0</coordinates>
          </Point>
        </Placemark>
        <Placemark>
          <name>[QBTH 076] Hồ Bơi Hải Quân</name>
          <description><![CDATA[&lt;b&gt;Trạm:&lt;/b&gt; Hồ Bơi Hải Quân&lt;br/&gt;&lt;b&gt;Mã trạm:&lt;/b&gt; QBTH 076&lt;br/&gt;&lt;b&gt;Địa chỉ:&lt;/b&gt; 22 Nguyễn Hữu Cảnh&lt;br/&gt;&lt;b&gt;Khu vực:&lt;/b&gt; None, Quận Bình Thạnh&lt;br/&gt;&lt;b&gt;Các tuyến qua trạm:&lt;/b&gt; 30, 44, 53, 56, 88]]></description>
          <styleUrl>#busStopStyle</styleUrl>
          <Point>
            <coordinates>106.710522,10.789477,0</coordinates>
          </Point>
        </Placemark>
        <Placemark>
          <name>[Q1 034] Mầm non Hoa Lư</name>
          <description><![CDATA[&lt;b&gt;Trạm:&lt;/b&gt; Mầm non Hoa Lư&lt;br/&gt;&lt;b&gt;Mã trạm:&lt;/b&gt; Q1 034&lt;br/&gt;&lt;b&gt;Địa chỉ:&lt;/b&gt; 1 Nguyễn Hữu Cảnh&lt;br/&gt;&lt;b&gt;Khu vực:&lt;/b&gt; None, Quận 1&lt;br/&gt;&lt;b&gt;Các tuyến qua trạm:&lt;/b&gt; 30, 44, 53, 56, 88]]></description>
          <styleUrl>#busStopStyle</styleUrl>
          <Point>
            <coordinates>106.707555,10.784149,0</coordinates>
          </Point>
        </Placemark>
        <Placemark>
          <name>[Q1 028] TTTM Sài Gòn</name>
          <description><![CDATA[&lt;b&gt;Trạm:&lt;/b&gt; TTTM Sài Gòn&lt;br/&gt;&lt;b&gt;Mã trạm:&lt;/b&gt; Q1 028&lt;br/&gt;&lt;b&gt;Địa chỉ:&lt;/b&gt; 6 Tôn Đức Thắng&lt;br/&gt;&lt;b&gt;Khu vực:&lt;/b&gt; None, Quận 1&lt;br/&gt;&lt;b&gt;Các tuyến qua trạm:&lt;/b&gt; 01, 30, 44, DL01]]></description>
          <styleUrl>#busStopStyle</styleUrl>
          <Point>
            <coordinates>106.704363,10.784286,0</coordinates>
          </Point>
        </Placemark>
        <Placemark>
          <name>[Q1 085] Khách sạn Sofitel</name>
          <description><![CDATA[&lt;b&gt;Trạm:&lt;/b&gt; Khách sạn Sofitel&lt;br/&gt;&lt;b&gt;Mã trạm:&lt;/b&gt; Q1 085&lt;br/&gt;&lt;b&gt;Địa chỉ:&lt;/b&gt; Đối diện Central Plaza Lê Duẩn&lt;br/&gt;&lt;b&gt;Khu vực:&lt;/b&gt; None, Quận 1&lt;br/&gt;&lt;b&gt;Các tuyến qua trạm:&lt;/b&gt; 171, 19, 30]]></description>
          <styleUrl>#busStopStyle</styleUrl>
          <Point>
            <coordinates>106.702118,10.78428,0</coordinates>
          </Point>
        </Placemark>
        <Placemark>
          <name>[Q1 086] Diamond Plaza</name>
          <description><![CDATA[&lt;b&gt;Trạm:&lt;/b&gt; Diamond Plaza&lt;br/&gt;&lt;b&gt;Mã trạm:&lt;/b&gt; Q1 086&lt;br/&gt;&lt;b&gt;Địa chỉ:&lt;/b&gt; 34 Lê Duẩn&lt;br/&gt;&lt;b&gt;Khu vực:&lt;/b&gt; None, Quận 1&lt;br/&gt;&lt;b&gt;Các tuyến qua trạm:&lt;/b&gt; 171, 18, 30]]></description>
          <styleUrl>#busStopStyle</styleUrl>
          <Point>
            <coordinates>106.698704,10.780914,0</coordinates>
          </Point>
        </Placemark>
        <Placemark>
          <name>[H07_02] Nhà Văn Hóa Thanh Niên</name>
          <description><![CDATA[&lt;b&gt;Trạm:&lt;/b&gt; Nhà Văn Hóa Thanh Niên&lt;br/&gt;&lt;b&gt;Mã trạm:&lt;/b&gt; H07_02&lt;br/&gt;&lt;b&gt;Địa chỉ:&lt;/b&gt; 1 Phạm Ngọc Thạch&lt;br/&gt;&lt;b&gt;Khu vực:&lt;/b&gt; Phường Bến Nghé, Quận 1&lt;br/&gt;&lt;b&gt;Các tuyến qua trạm:&lt;/b&gt; 30, 36, 52]]></description>
          <styleUrl>#busStopStyle</styleUrl>
          <Point>
            <coordinates>106.697229,10.781493,0</coordinates>
          </Point>
        </Placemark>
        <Placemark>
          <name>[Q3 116] Nhà Văn Hóa Thanh Niên</name>
          <description><![CDATA[&lt;b&gt;Trạm:&lt;/b&gt; Nhà Văn Hóa Thanh Niên&lt;br/&gt;&lt;b&gt;Mã trạm:&lt;/b&gt; Q3 116&lt;br/&gt;&lt;b&gt;Địa chỉ:&lt;/b&gt; 6B-8 Phạm Ngọc Thạch&lt;br/&gt;&lt;b&gt;Khu vực:&lt;/b&gt; None, Quận 3&lt;br/&gt;&lt;b&gt;Các tuyến qua trạm:&lt;/b&gt; 30, 36, 52]]></description>
          <styleUrl>#busStopStyle</styleUrl>
          <Point>
            <coordinates>106.696874,10.781862,0</coordinates>
          </Point>
        </Placemark>
        <Placemark>
          <name>[Q3 076] Đại học Kinh tế</name>
          <description><![CDATA[&lt;b&gt;Trạm:&lt;/b&gt; Đại học Kinh tế&lt;br/&gt;&lt;b&gt;Mã trạm:&lt;/b&gt; Q3 076&lt;br/&gt;&lt;b&gt;Địa chỉ:&lt;/b&gt; 18Bis Phạm Ngọc Thạch&lt;br/&gt;&lt;b&gt;Khu vực:&lt;/b&gt; None, Quận 3&lt;br/&gt;&lt;b&gt;Các tuyến qua trạm:&lt;/b&gt; 30, 36]]></description>
          <styleUrl>#busStopStyle</styleUrl>
          <Point>
            <coordinates>106.694573,10.784012,0</coordinates>
          </Point>
        </Placemark>
        <Placemark>
          <name>[Q3 077] Điện Biên Phủ</name>
          <description><![CDATA[&lt;b&gt;Trạm:&lt;/b&gt; Điện Biên Phủ&lt;br/&gt;&lt;b&gt;Mã trạm:&lt;/b&gt; Q3 077&lt;br/&gt;&lt;b&gt;Địa chỉ:&lt;/b&gt; 42 Phạm Ngọc Thạch&lt;br/&gt;&lt;b&gt;Khu vực:&lt;/b&gt; None, Quận 3&lt;br/&gt;&lt;b&gt;Các tuyến qua trạm:&lt;/b&gt; 30, 36]]></description>
          <styleUrl>#busStopStyle</styleUrl>
          <Point>
            <coordinates>106.69335,10.78514,0</coordinates>
          </Point>
        </Placemark>
        <Placemark>
          <name>[Q3 078] Võ Thị Sáu</name>
          <description><![CDATA[&lt;b&gt;Trạm:&lt;/b&gt; Võ Thị Sáu&lt;br/&gt;&lt;b&gt;Mã trạm:&lt;/b&gt; Q3 078&lt;br/&gt;&lt;b&gt;Địa chỉ:&lt;/b&gt; 82 - 84 (66 cây xanh 150) Phạm Ngọc Thạch&lt;br/&gt;&lt;b&gt;Khu vực:&lt;/b&gt; None, Quận 3&lt;br/&gt;&lt;b&gt;Các tuyến qua trạm:&lt;/b&gt; 30]]></description>
          <styleUrl>#busStopStyle</styleUrl>
          <Point>
            <coordinates>106.691703,10.786589,0</coordinates>
          </Point>
        </Placemark>
        <Placemark>
          <name>[Q3 100] Phạm Ngọc Thạch</name>
          <description><![CDATA[&lt;b&gt;Trạm:&lt;/b&gt; Phạm Ngọc Thạch&lt;br/&gt;&lt;b&gt;Mã trạm:&lt;/b&gt; Q3 100&lt;br/&gt;&lt;b&gt;Địa chỉ:&lt;/b&gt; 158A - 156B Võ Thị Sáu&lt;br/&gt;&lt;b&gt;Khu vực:&lt;/b&gt; None, Quận 3&lt;br/&gt;&lt;b&gt;Các tuyến qua trạm:&lt;/b&gt; 10, 30, 72-1, 91]]></description>
          <styleUrl>#busStopStyle</styleUrl>
          <Point>
            <coordinates>106.690918,10.786916,0</coordinates>
          </Point>
        </Placemark>
        <Placemark>
          <name>[Q3 101] Nhà thiếu nhi thành phố</name>
          <description><![CDATA[&lt;b&gt;Trạm:&lt;/b&gt; Nhà thiếu nhi thành phố&lt;br/&gt;&lt;b&gt;Mã trạm:&lt;/b&gt; Q3 101&lt;br/&gt;&lt;b&gt;Địa chỉ:&lt;/b&gt; Đối diện 153 A-B (ngã 4 NKKN) Võ Thị Sáu&lt;br/&gt;&lt;b&gt;Khu vực:&lt;/b&gt; None, Quận 3&lt;br/&gt;&lt;b&gt;Các tuyến qua trạm:&lt;/b&gt; 04, 10, 109, 152, 30, 72-1, 91]]></description>
          <styleUrl>#busStopStyle</styleUrl>
          <Point>
            <coordinates>106.689613,10.785583,0</coordinates>
          </Point>
        </Placemark>
        <Placemark>
          <name>[Q3 102] Bảo tàng Phụ Nữ</name>
          <description><![CDATA[&lt;b&gt;Trạm:&lt;/b&gt; Bảo tàng Phụ Nữ&lt;br/&gt;&lt;b&gt;Mã trạm:&lt;/b&gt; Q3 102&lt;br/&gt;&lt;b&gt;Địa chỉ:&lt;/b&gt; 200 Võ Thị Sáu&lt;br/&gt;&lt;b&gt;Khu vực:&lt;/b&gt; None, Quận 3&lt;br/&gt;&lt;b&gt;Các tuyến qua trạm:&lt;/b&gt; 10, 28, 30, 91]]></description>
          <styleUrl>#busStopStyle</styleUrl>
          <Point>
            <coordinates>106.687514,10.783533,0</coordinates>
          </Point>
        </Placemark>
        <Placemark>
          <name>[Q3 103] Trần Quốc Thảo</name>
          <description><![CDATA[&lt;b&gt;Trạm:&lt;/b&gt; Trần Quốc Thảo&lt;br/&gt;&lt;b&gt;Mã trạm:&lt;/b&gt; Q3 103&lt;br/&gt;&lt;b&gt;Địa chỉ:&lt;/b&gt; 232 Võ Thị Sáu&lt;br/&gt;&lt;b&gt;Khu vực:&lt;/b&gt; None, Quận 3&lt;br/&gt;&lt;b&gt;Các tuyến qua trạm:&lt;/b&gt; 10, 30, 91]]></description>
          <styleUrl>#busStopStyle</styleUrl>
          <Point>
            <coordinates>106.686242,10.782294,0</coordinates>
          </Point>
        </Placemark>
        <Placemark>
          <name>[Q3 104] Ngã sáu Dân Chủ</name>
          <description><![CDATA[&lt;b&gt;Trạm:&lt;/b&gt; Ngã sáu Dân Chủ&lt;br/&gt;&lt;b&gt;Mã trạm:&lt;/b&gt; Q3 104&lt;br/&gt;&lt;b&gt;Địa chỉ:&lt;/b&gt; 274 Võ Thị Sáu&lt;br/&gt;&lt;b&gt;Khu vực:&lt;/b&gt; None, Quận 3&lt;br/&gt;&lt;b&gt;Các tuyến qua trạm:&lt;/b&gt; 10, 30, 91]]></description>
          <styleUrl>#busStopStyle</styleUrl>
          <Point>
            <coordinates>106.682616,10.778584,0</coordinates>
          </Point>
        </Placemark>
        <Placemark>
          <name>[Q3 009] Công trường Dân Chủ</name>
          <description><![CDATA[&lt;b&gt;Trạm:&lt;/b&gt; Công trường Dân Chủ&lt;br/&gt;&lt;b&gt;Mã trạm:&lt;/b&gt; Q3 009&lt;br/&gt;&lt;b&gt;Địa chỉ:&lt;/b&gt; 132C - 132D Cách Mạng Tháng Tám&lt;br/&gt;&lt;b&gt;Khu vực:&lt;/b&gt; Phường 10, Quận 3&lt;br/&gt;&lt;b&gt;Các tuyến qua trạm:&lt;/b&gt; 13, 30, 65]]></description>
          <styleUrl>#busStopStyle</styleUrl>
          <Point>
            <coordinates>106.680481,10.778516,0</coordinates>
          </Point>
        </Placemark>
        <Placemark>
          <name>[Q3 010] Ngã Ba Chí Hòa</name>
          <description><![CDATA[&lt;b&gt;Trạm:&lt;/b&gt; Ngã Ba Chí Hòa&lt;br/&gt;&lt;b&gt;Mã trạm:&lt;/b&gt; Q3 010&lt;br/&gt;&lt;b&gt;Địa chỉ:&lt;/b&gt; 276 Bis Cách Mạng Tháng Tám&lt;br/&gt;&lt;b&gt;Khu vực:&lt;/b&gt; Phường 10, Quận 3&lt;br/&gt;&lt;b&gt;Các tuyến qua trạm:&lt;/b&gt; 13, 30, 65]]></description>
          <styleUrl>#busStopStyle</styleUrl>
          <Point>
            <coordinates>106.67315,10.78237,0</coordinates>
          </Point>
        </Placemark>
        <Placemark>
          <name>[Q3 011] Chùa Bửu Đà</name>
          <description><![CDATA[&lt;b&gt;Trạm:&lt;/b&gt; Chùa Bửu Đà&lt;br/&gt;&lt;b&gt;Mã trạm:&lt;/b&gt; Q3 011&lt;br/&gt;&lt;b&gt;Địa chỉ:&lt;/b&gt; 338 - 340 Cách Mạng Tháng Tám&lt;br/&gt;&lt;b&gt;Khu vực:&lt;/b&gt; Phường 10, Quận 3&lt;br/&gt;&lt;b&gt;Các tuyến qua trạm:&lt;/b&gt; 13, 30, 65]]></description>
          <styleUrl>#busStopStyle</styleUrl>
          <Point>
            <coordinates>106.674741,10.78163,0</coordinates>
          </Point>
        </Placemark>
        <Placemark>
          <name>[Q3 012] Rạp hát Thanh Vân</name>
          <description><![CDATA[&lt;b&gt;Trạm:&lt;/b&gt; Rạp hát Thanh Vân&lt;br/&gt;&lt;b&gt;Mã trạm:&lt;/b&gt; Q3 012&lt;br/&gt;&lt;b&gt;Địa chỉ:&lt;/b&gt; 366 Cách Mạng Tháng Tám&lt;br/&gt;&lt;b&gt;Khu vực:&lt;/b&gt; Phường 10, Quận 3&lt;br/&gt;&lt;b&gt;Các tuyến qua trạm:&lt;/b&gt; 13, 30, 65]]></description>
          <styleUrl>#busStopStyle</styleUrl>
          <Point>
            <coordinates>106.673148,10.782368,0</coordinates>
          </Point>
        </Placemark>
        <Placemark>
          <name>[Q3 013] Chợ Hòa Hưng</name>
          <description><![CDATA[&lt;b&gt;Trạm:&lt;/b&gt; Chợ Hòa Hưng&lt;br/&gt;&lt;b&gt;Mã trạm:&lt;/b&gt; Q3 013&lt;br/&gt;&lt;b&gt;Địa chỉ:&lt;/b&gt; 442 Cách Mạng Tháng Tám&lt;br/&gt;&lt;b&gt;Khu vực:&lt;/b&gt; None, Quận 3&lt;br/&gt;&lt;b&gt;Các tuyến qua trạm:&lt;/b&gt; 13, 30, 65]]></description>
          <styleUrl>#busStopStyle</styleUrl>
          <Point>
            <coordinates>106.669945,10.784146,0</coordinates>
          </Point>
        </Placemark>
        <Placemark>
          <name>[Q3 014] Công viên Lê Thị Riêng</name>
          <description><![CDATA[&lt;b&gt;Trạm:&lt;/b&gt; Công viên Lê Thị Riêng&lt;br/&gt;&lt;b&gt;Mã trạm:&lt;/b&gt; Q3 014&lt;br/&gt;&lt;b&gt;Địa chỉ:&lt;/b&gt; 542 Cách Mạng Tháng Tám&lt;br/&gt;&lt;b&gt;Khu vực:&lt;/b&gt; Phường 11, Quận 3&lt;br/&gt;&lt;b&gt;Các tuyến qua trạm:&lt;/b&gt; 13, 30, 65]]></description>
          <styleUrl>#busStopStyle</styleUrl>
          <Point>
            <coordinates>106.66693,10.785814,0</coordinates>
          </Point>
        </Placemark>
        <Placemark>
          <name>[QTB 054] Bắc Hải</name>
          <description><![CDATA[&lt;b&gt;Trạm:&lt;/b&gt; Bắc Hải&lt;br/&gt;&lt;b&gt;Mã trạm:&lt;/b&gt; QTB 054&lt;br/&gt;&lt;b&gt;Địa chỉ:&lt;/b&gt; 690 Cách Mạng Tháng Tám&lt;br/&gt;&lt;b&gt;Khu vực:&lt;/b&gt; None, Quận Tân Bình&lt;br/&gt;&lt;b&gt;Các tuyến qua trạm:&lt;/b&gt; 103, 13, 30, 65]]></description>
          <styleUrl>#busStopStyle</styleUrl>
          <Point>
            <coordinates>106.663727,10.787486,0</coordinates>
          </Point>
        </Placemark>
        <Placemark>
          <name>[QTB 055] Ngã ba Bành Văn Trân</name>
          <description><![CDATA[&lt;b&gt;Trạm:&lt;/b&gt; Ngã ba Bành Văn Trân&lt;br/&gt;&lt;b&gt;Mã trạm:&lt;/b&gt; QTB 055&lt;br/&gt;&lt;b&gt;Địa chỉ:&lt;/b&gt; 814 Cách Mạng Tháng Tám&lt;br/&gt;&lt;b&gt;Khu vực:&lt;/b&gt; None, Quận Tân Bình&lt;br/&gt;&lt;b&gt;Các tuyến qua trạm:&lt;/b&gt; 103, 13, 30, 65]]></description>
          <styleUrl>#busStopStyle</styleUrl>
          <Point>
            <coordinates>106.661453,10.788692,0</coordinates>
          </Point>
        </Placemark>
        <Placemark>
          <name>[QTB 056] Ông Tạ</name>
          <description><![CDATA[&lt;b&gt;Trạm:&lt;/b&gt; Ông Tạ&lt;br/&gt;&lt;b&gt;Mã trạm:&lt;/b&gt; QTB 056&lt;br/&gt;&lt;b&gt;Địa chỉ:&lt;/b&gt; 962 Cách Mạng Tháng Tám&lt;br/&gt;&lt;b&gt;Khu vực:&lt;/b&gt; None, Quận Tân Bình&lt;br/&gt;&lt;b&gt;Các tuyến qua trạm:&lt;/b&gt; 103, 13, 30, 65]]></description>
          <styleUrl>#busStopStyle</styleUrl>
          <Point>
            <coordinates>106.659694,10.78963,0</coordinates>
          </Point>
        </Placemark>
        <Placemark>
          <name>[QTB 057] Cư xá Tự Do</name>
          <description><![CDATA[&lt;b&gt;Trạm:&lt;/b&gt; Cư xá Tự Do&lt;br/&gt;&lt;b&gt;Mã trạm:&lt;/b&gt; QTB 057&lt;br/&gt;&lt;b&gt;Địa chỉ:&lt;/b&gt; 1130 Cách Mạng Tháng Tám&lt;br/&gt;&lt;b&gt;Khu vực:&lt;/b&gt; None, Quận Tân Bình&lt;br/&gt;&lt;b&gt;Các tuyến qua trạm:&lt;/b&gt; 103, 13, 30, 65]]></description>
          <styleUrl>#busStopStyle</styleUrl>
          <Point>
            <coordinates>106.656218,10.791448,0</coordinates>
          </Point>
        </Placemark>
        <Placemark>
          <name>[QTB 034] Bệnh viện Quận Tân Bình</name>
          <description><![CDATA[&lt;b&gt;Trạm:&lt;/b&gt; Bệnh viện Quận Tân Bình&lt;br/&gt;&lt;b&gt;Mã trạm:&lt;/b&gt; QTB 034&lt;br/&gt;&lt;b&gt;Địa chỉ:&lt;/b&gt; 605 Hoàng Văn Thụ&lt;br/&gt;&lt;b&gt;Khu vực:&lt;/b&gt; None, Quận Tân Bình&lt;br/&gt;&lt;b&gt;Các tuyến qua trạm:&lt;/b&gt; 08, 103, 13, 145, 148, 30, 50, 59, 63-1, 64, 65, 94]]></description>
          <styleUrl>#busStopStyle</styleUrl>
          <Point>
            <coordinates>106.655198,10.79472,0</coordinates>
          </Point>
        </Placemark>
        <Placemark>
          <name>[QTB 064] Hội Chợ Triển lãm Tân Bình</name>
          <description><![CDATA[&lt;b&gt;Trạm:&lt;/b&gt; Hội Chợ Triển lãm Tân Bình&lt;br/&gt;&lt;b&gt;Mã trạm:&lt;/b&gt; QTB 064&lt;br/&gt;&lt;b&gt;Địa chỉ:&lt;/b&gt; 20 (B9) Xuân Diệu&lt;br/&gt;&lt;b&gt;Khu vực:&lt;/b&gt; None, Quận Tân Bình&lt;br/&gt;&lt;b&gt;Các tuyến qua trạm:&lt;/b&gt; 08, 103, 13, 145, 148, 30, 50, 59, 64, 94]]></description>
          <styleUrl>#busStopStyle</styleUrl>
          <Point>
            <coordinates>106.655145,10.796122,0</coordinates>
          </Point>
        </Placemark>
        <Placemark>
          <name>[QTB 065] Trường Phạm Ngũ Lão</name>
          <description><![CDATA[&lt;b&gt;Trạm:&lt;/b&gt; Trường Phạm Ngũ Lão&lt;br/&gt;&lt;b&gt;Mã trạm:&lt;/b&gt; QTB 065&lt;br/&gt;&lt;b&gt;Địa chỉ:&lt;/b&gt; 149 (E62) Xuân Hồng&lt;br/&gt;&lt;b&gt;Khu vực:&lt;/b&gt; None, Quận Tân Bình&lt;br/&gt;&lt;b&gt;Các tuyến qua trạm:&lt;/b&gt; 08, 103, 13, 145, 148, 30, 50, 59, 64, 65, 94]]></description>
          <styleUrl>#busStopStyle</styleUrl>
          <Point>
            <coordinates>106.654066,10.796032,0</coordinates>
          </Point>
        </Placemark>
        <Placemark>
          <name>[QTB 066] Cây xăng Đôi</name>
          <description><![CDATA[&lt;b&gt;Trạm:&lt;/b&gt; Cây xăng Đôi&lt;br/&gt;&lt;b&gt;Mã trạm:&lt;/b&gt; QTB 066&lt;br/&gt;&lt;b&gt;Địa chỉ:&lt;/b&gt; 23 Xuân Hồng&lt;br/&gt;&lt;b&gt;Khu vực:&lt;/b&gt; None, Quận Tân Bình&lt;br/&gt;&lt;b&gt;Các tuyến qua trạm:&lt;/b&gt; 08, 103, 13, 145, 148, 30, 50, 59, 64, 65, 94]]></description>
          <styleUrl>#busStopStyle</styleUrl>
          <Point>
            <coordinates>106.652184,10.794256,0</coordinates>
          </Point>
        </Placemark>
        <Placemark>
          <name>[QTB 067] Ngã tư Bảy Hiền</name>
          <description><![CDATA[&lt;b&gt;Trạm:&lt;/b&gt; Ngã tư Bảy Hiền&lt;br/&gt;&lt;b&gt;Mã trạm:&lt;/b&gt; QTB 067&lt;br/&gt;&lt;b&gt;Địa chỉ:&lt;/b&gt; 106 Trường Chinh&lt;br/&gt;&lt;b&gt;Khu vực:&lt;/b&gt; None, Quận Tân Bình&lt;br/&gt;&lt;b&gt;Các tuyến qua trạm:&lt;/b&gt; 13, 30, 64, 65, 94]]></description>
          <styleUrl>#busStopStyle</styleUrl>
          <Point>
            <coordinates>106.651191,10.794182,0</coordinates>
          </Point>
        </Placemark>
        <Placemark>
          <name>[QTB 068] Nhà Thờ Đắc Lộ</name>
          <description><![CDATA[&lt;b&gt;Trạm:&lt;/b&gt; Nhà Thờ Đắc Lộ&lt;br/&gt;&lt;b&gt;Mã trạm:&lt;/b&gt; QTB 068&lt;br/&gt;&lt;b&gt;Địa chỉ:&lt;/b&gt; 150 Trường Chinh&lt;br/&gt;&lt;b&gt;Khu vực:&lt;/b&gt; None, Quận Tân Bình&lt;br/&gt;&lt;b&gt;Các tuyến qua trạm:&lt;/b&gt; 13, 30, 64, 65, 94]]></description>
          <styleUrl>#busStopStyle</styleUrl>
          <Point>
            <coordinates>106.649576,10.795068,0</coordinates>
          </Point>
        </Placemark>
        <Placemark>
          <name>[QTB 069] Ngã ba Hoàng Hoa Thám</name>
          <description><![CDATA[&lt;b&gt;Trạm:&lt;/b&gt; Ngã ba Hoàng Hoa Thám&lt;br/&gt;&lt;b&gt;Mã trạm:&lt;/b&gt; QTB 069&lt;br/&gt;&lt;b&gt;Địa chỉ:&lt;/b&gt; 162T Trường Chinh&lt;br/&gt;&lt;b&gt;Khu vực:&lt;/b&gt; None, Quận Tân Bình&lt;br/&gt;&lt;b&gt;Các tuyến qua trạm:&lt;/b&gt; 13, 30, 64, 65, 94]]></description>
          <styleUrl>#busStopStyle</styleUrl>
          <Point>
            <coordinates>106.647747,10.796053,0</coordinates>
          </Point>
        </Placemark>
        <Placemark>
          <name>[QTB 070] Ngã ba Bình Giã</name>
          <description><![CDATA[&lt;b&gt;Trạm:&lt;/b&gt; Ngã ba Bình Giã&lt;br/&gt;&lt;b&gt;Mã trạm:&lt;/b&gt; QTB 070&lt;br/&gt;&lt;b&gt;Địa chỉ:&lt;/b&gt; 298 Trường Chinh&lt;br/&gt;&lt;b&gt;Khu vực:&lt;/b&gt; None, Quận Tân Bình&lt;br/&gt;&lt;b&gt;Các tuyến qua trạm:&lt;/b&gt; 13, 30, 65, 94]]></description>
          <styleUrl>#busStopStyle</styleUrl>
          <Point>
            <coordinates>106.644453,10.797792,0</coordinates>
          </Point>
        </Placemark>
        <Placemark>
          <name>[QTB 140] Chùa Thiền Quang</name>
          <description><![CDATA[&lt;b&gt;Trạm:&lt;/b&gt; Chùa Thiền Quang&lt;br/&gt;&lt;b&gt;Mã trạm:&lt;/b&gt; QTB 140&lt;br/&gt;&lt;b&gt;Địa chỉ:&lt;/b&gt; 22 Trương Công Định&lt;br/&gt;&lt;b&gt;Khu vực:&lt;/b&gt; None, Quận Tân Bình&lt;br/&gt;&lt;b&gt;Các tuyến qua trạm:&lt;/b&gt; 30]]></description>
          <styleUrl>#busStopStyle</styleUrl>
          <Point>
            <coordinates>106.641663,10.798234,0</coordinates>
          </Point>
        </Placemark>
        <Placemark>
          <name>[QTB 141] Bàu Cát 2</name>
          <description><![CDATA[&lt;b&gt;Trạm:&lt;/b&gt; Bàu Cát 2&lt;br/&gt;&lt;b&gt;Mã trạm:&lt;/b&gt; QTB 141&lt;br/&gt;&lt;b&gt;Địa chỉ:&lt;/b&gt; 160 Trương Công Định&lt;br/&gt;&lt;b&gt;Khu vực:&lt;/b&gt; None, Quận Tân Bình&lt;br/&gt;&lt;b&gt;Các tuyến qua trạm:&lt;/b&gt; 30]]></description>
          <styleUrl>#busStopStyle</styleUrl>
          <Point>
            <coordinates>106.640488,10.794641,0</coordinates>
          </Point>
        </Placemark>
        <Placemark>
          <name>[QTB 050] Công ty Giấy Mai Lan</name>
          <description><![CDATA[&lt;b&gt;Trạm:&lt;/b&gt; Công ty Giấy Mai Lan&lt;br/&gt;&lt;b&gt;Mã trạm:&lt;/b&gt; QTB 050&lt;br/&gt;&lt;b&gt;Địa chỉ:&lt;/b&gt; 129 Âu Cơ&lt;br/&gt;&lt;b&gt;Khu vực:&lt;/b&gt; None, Quận Tân Bình&lt;br/&gt;&lt;b&gt;Các tuyến qua trạm:&lt;/b&gt; 27, 30, 62]]></description>
          <styleUrl>#busStopStyle</styleUrl>
          <Point>
            <coordinates>106.638982,10.793972,0</coordinates>
          </Point>
        </Placemark>
        <Placemark>
          <name>[QTP 186] Âu Cơ</name>
          <description><![CDATA[&lt;b&gt;Trạm:&lt;/b&gt; Âu Cơ&lt;br/&gt;&lt;b&gt;Mã trạm:&lt;/b&gt; QTP 186&lt;br/&gt;&lt;b&gt;Địa chỉ:&lt;/b&gt; 1033 Lũy Bán Bích&lt;br/&gt;&lt;b&gt;Khu vực:&lt;/b&gt; Phường Tân Thành, Quận Tân Phú&lt;br/&gt;&lt;b&gt;Các tuyến qua trạm:&lt;/b&gt; 30]]></description>
          <styleUrl>#busStopStyle</styleUrl>
          <Point>
            <coordinates>106.637898,10.794367,0</coordinates>
          </Point>
        </Placemark>
        <Placemark>
          <name>[QTP 125] 10, Độc Lập</name>
          <description><![CDATA[&lt;b&gt;Trạm:&lt;/b&gt; 10, Độc Lập&lt;br/&gt;&lt;b&gt;Mã trạm:&lt;/b&gt; QTP 125&lt;br/&gt;&lt;b&gt;Địa chỉ:&lt;/b&gt; 10 Độc Lập&lt;br/&gt;&lt;b&gt;Khu vực:&lt;/b&gt; Phường Tân Thành, Quận Tân Phú&lt;br/&gt;&lt;b&gt;Các tuyến qua trạm:&lt;/b&gt; 30]]></description>
          <styleUrl>#busStopStyle</styleUrl>
          <Point>
            <coordinates>106.637013,10.791661,0</coordinates>
          </Point>
        </Placemark>
        <Placemark>
          <name>[QTP 126] Trạm UBND Phường Tân Thành</name>
          <description><![CDATA[&lt;b&gt;Trạm:&lt;/b&gt; Trạm UBND Phường Tân Thành&lt;br/&gt;&lt;b&gt;Mã trạm:&lt;/b&gt; QTP 126&lt;br/&gt;&lt;b&gt;Địa chỉ:&lt;/b&gt; 146 (122) Độc Lập&lt;br/&gt;&lt;b&gt;Khu vực:&lt;/b&gt; Phường Tân Thành, Quận Tân Phú&lt;br/&gt;&lt;b&gt;Các tuyến qua trạm:&lt;/b&gt; 30]]></description>
          <styleUrl>#busStopStyle</styleUrl>
          <Point>
            <coordinates>106.633423,10.79226,0</coordinates>
          </Point>
        </Placemark>
        <Placemark>
          <name>[QTP 127] Trường Lê Văn Tám</name>
          <description><![CDATA[&lt;b&gt;Trạm:&lt;/b&gt; Trường Lê Văn Tám&lt;br/&gt;&lt;b&gt;Mã trạm:&lt;/b&gt; QTP 127&lt;br/&gt;&lt;b&gt;Địa chỉ:&lt;/b&gt; 216 Độc Lập&lt;br/&gt;&lt;b&gt;Khu vực:&lt;/b&gt; None, Quận Tân Phú&lt;br/&gt;&lt;b&gt;Các tuyến qua trạm:&lt;/b&gt; 30]]></description>
          <styleUrl>#busStopStyle</styleUrl>
          <Point>
            <coordinates>106.63134,10.792543,0</coordinates>
          </Point>
        </Placemark>
        <Placemark>
          <name>[QTP 110] Nhà thờ Martino</name>
          <description><![CDATA[&lt;b&gt;Trạm:&lt;/b&gt; Nhà thờ Martino&lt;br/&gt;&lt;b&gt;Mã trạm:&lt;/b&gt; QTP 110&lt;br/&gt;&lt;b&gt;Địa chỉ:&lt;/b&gt; 2 Tân Hương&lt;br/&gt;&lt;b&gt;Khu vực:&lt;/b&gt; Phường Tân Qúy, Quận Tân Phú&lt;br/&gt;&lt;b&gt;Các tuyến qua trạm:&lt;/b&gt; 30, 41]]></description>
          <styleUrl>#busStopStyle</styleUrl>
          <Point>
            <coordinates>106.62886,10.792652,0</coordinates>
          </Point>
        </Placemark>
        <Placemark>
          <name>[QTP 111] Cafe Suối Reo</name>
          <description><![CDATA[&lt;b&gt;Trạm:&lt;/b&gt; Cafe Suối Reo&lt;br/&gt;&lt;b&gt;Mã trạm:&lt;/b&gt; QTP 111&lt;br/&gt;&lt;b&gt;Địa chỉ:&lt;/b&gt; 90 Tân Hương&lt;br/&gt;&lt;b&gt;Khu vực:&lt;/b&gt; Phường Tân Qúy, Quận Tân Phú&lt;br/&gt;&lt;b&gt;Các tuyến qua trạm:&lt;/b&gt; 30, 41]]></description>
          <styleUrl>#busStopStyle</styleUrl>
          <Point>
            <coordinates>106.627785,10.789865,0</coordinates>
          </Point>
        </Placemark>
        <Placemark>
          <name>[QTP 112] Nhà Thờ Tân Hương</name>
          <description><![CDATA[&lt;b&gt;Trạm:&lt;/b&gt; Nhà Thờ Tân Hương&lt;br/&gt;&lt;b&gt;Mã trạm:&lt;/b&gt; QTP 112&lt;br/&gt;&lt;b&gt;Địa chỉ:&lt;/b&gt; 190 Tân Hương&lt;br/&gt;&lt;b&gt;Khu vực:&lt;/b&gt; Phường Tân Qúy, Quận Tân Phú&lt;br/&gt;&lt;b&gt;Các tuyến qua trạm:&lt;/b&gt; 30, 41]]></description>
          <styleUrl>#busStopStyle</styleUrl>
          <Point>
            <coordinates>106.623999,10.789867,0</coordinates>
          </Point>
        </Placemark>
        <Placemark>
          <name>[QTP 113] Trạm Chợ Tân Hương</name>
          <description><![CDATA[&lt;b&gt;Trạm:&lt;/b&gt; Trạm Chợ Tân Hương&lt;br/&gt;&lt;b&gt;Mã trạm:&lt;/b&gt; QTP 113&lt;br/&gt;&lt;b&gt;Địa chỉ:&lt;/b&gt; 248 Tân Hương&lt;br/&gt;&lt;b&gt;Khu vực:&lt;/b&gt; Phường Tân Qúy, Quận Tân Phú&lt;br/&gt;&lt;b&gt;Các tuyến qua trạm:&lt;/b&gt; 30, 32, 69]]></description>
          <styleUrl>#busStopStyle</styleUrl>
          <Point>
            <coordinates>106.621381,10.790178,0</coordinates>
          </Point>
        </Placemark>
        <Placemark>
          <name>[QTP 114] Lê Sát</name>
          <description><![CDATA[&lt;b&gt;Trạm:&lt;/b&gt; Lê Sát&lt;br/&gt;&lt;b&gt;Mã trạm:&lt;/b&gt; QTP 114&lt;br/&gt;&lt;b&gt;Địa chỉ:&lt;/b&gt; 234 Tân Hương&lt;br/&gt;&lt;b&gt;Khu vực:&lt;/b&gt; Phường Tân Qúy, Quận Tân Phú&lt;br/&gt;&lt;b&gt;Các tuyến qua trạm:&lt;/b&gt; 30]]></description>
          <styleUrl>#busStopStyle</styleUrl>
          <Point>
            <coordinates>106.618996,10.789883,0</coordinates>
          </Point>
        </Placemark>
        <Placemark>
          <name>[QTP 116] Bình Long</name>
          <description><![CDATA[&lt;b&gt;Trạm:&lt;/b&gt; Bình Long&lt;br/&gt;&lt;b&gt;Mã trạm:&lt;/b&gt; QTP 116&lt;br/&gt;&lt;b&gt;Địa chỉ:&lt;/b&gt; 214 Lê Thúc Hoạch&lt;br/&gt;&lt;b&gt;Khu vực:&lt;/b&gt; None, Quận Tân Phú&lt;br/&gt;&lt;b&gt;Các tuyến qua trạm:&lt;/b&gt; 30]]></description>
          <styleUrl>#busStopStyle</styleUrl>
          <Point>
            <coordinates>106.61882,10.788112,0</coordinates>
          </Point>
        </Placemark>
        <Placemark>
          <name>[BX54] Cư xá Nhiêu Lộc</name>
          <description><![CDATA[&lt;b&gt;Trạm:&lt;/b&gt; Cư xá Nhiêu Lộc&lt;br/&gt;&lt;b&gt;Mã trạm:&lt;/b&gt; BX54&lt;br/&gt;&lt;b&gt;Địa chỉ:&lt;/b&gt; Bến xe buýt Cư xá Nhiêu Lộc Lê Thúc Hoạch&lt;br/&gt;&lt;b&gt;Khu vực:&lt;/b&gt; None, Quận Tân Phú&lt;br/&gt;&lt;b&gt;Các tuyến qua trạm:&lt;/b&gt; 30]]></description>
          <styleUrl>#busStopStyle</styleUrl>
          <Point>
            <coordinates>106.622057,10.787617,0</coordinates>
          </Point>
        </Placemark>
      </Folder>
    </Folder>
  </Document>
</kml>